address,building_name,price_10k,latitude,longitude
서울특별시 강동구 천호동 21-9,수피아,26500,37.5472676501085,127.138146790278
서울특별시 노원구 상계동 1116-111,양지그린빌라102동,11900,37.6755052029525,127.057651225974
서울특별시 중랑구 신내동 650,신내6대주,40500,37.6152619825876,127.091014257029
서울특별시 서대문구 홍은동 11-111,서대문 센트럴 아이파크,108566,37.6005948320166,126.947239669248
서울특별시 구로구 고척동 343,고척월드메르디앙,77000,37.5029451933791,126.86314728276
서울특별시 강서구 화곡동 102-119,102-119,25100,37.5396277130629,126.845280403873
서울특별시 강동구 암사동 433-63,현대골든파인,20000,37.5514898128918,127.13791851597
서울특별시 송파구 가락동 78-1,한화오벨리스크,18000,37.4948258197176,127.121927507127
서울특별시 종로구 행촌동 171-98,효성빌라,41000,37.5736119133979,126.962891066817
서울특별시 강북구 미아동 1353,에스케이북한산시티,59900,37.6179760334621,127.01263074872
서울특별시 강남구 세곡동 582,강남레체,20000,37.466049655503,127.10135094985
서울특별시 중랑구 묵동 164-4,묵동자이(1단지),103000,37.6148560082174,127.077906819525
서울특별시 강서구 등촌동 726,가양역두산위브,123500,37.55652334419,126.854223754912
서울특별시 송파구 잠실동 232-15,노블캐슬,28000,37.5069988434666,127.085511191247
서울특별시 서대문구 합동 117,충정로대우디오빌,23500,37.56081220002,126.965612526241
서울특별시 은평구 구산동 10-5,태림빌리지,14000,37.6114482385726,126.912264117112
서울특별시 마포구 망원동 491,대상3,65000,37.5593448741489,126.899560103247
서울특별시 은평구 응암동 100-2,양지베르빌,30000,37.5993111515831,126.925023503397
서울특별시 강서구 화곡동 42-54,탑빌리지,15000,37.5462379815415,126.852462092269
서울특별시 동대문구 휘경동 336-32,캠퍼스드림오피스텔,20100,37.5887717921907,127.054649388282
서울특별시 노원구 상계동 749-5,상계주공4(고층),56500,37.6500654838418,127.062217257976
서울특별시 동작구 상도동 244-349,(244-349),31000,37.4996044787555,126.935831707534
서울특별시 광진구 화양동 21-23,케이타워 오피스텔 A,12400,37.5478131170568,127.068710945053
서울특별시 금천구 독산동 1047-30,독산하이빌,29500,37.4634945802291,126.902519072694
서울특별시 중랑구 묵동 396,이편한세상화랑대,121000,37.6159945268682,127.083016486874
서울특별시 송파구 방이동 41-3,보광스퀘어,72000,37.5165978673386,127.112211424335
서울특별시 종로구 행촌동 171-73,정훈빌라,37000,37.5733044180589,126.963224368084
서울특별시 성동구 옥수동 560,옥수어울림,178000,37.542279937988,127.018140421956
서울특별시 도봉구 창동 38,주공17단지,33000,37.6442064819292,127.05338274179
서울특별시 강서구 화곡동 338-9,대주쉐르빌(338-9),21000,37.5343994681967,126.846235144522
서울특별시 동작구 흑석동 336,흑석한강푸르지오,210000,37.5032802126722,126.965617894482
서울특별시 마포구 연남동 244-15,새마을,43500,37.5659003441787,126.920488236006
서울특별시 구로구 개봉동 476,한마을,87000,37.4952644521652,126.862501576596
서울특별시 은평구 녹번동 83-62,다베로,29500,37.60249541782,126.92759798067
서울특별시 강동구 암사동 475-48,그랑밸리(475-48),39800,37.5505497346001,127.136814774504
서울특별시 은평구 역촌동 8-34,청우쉐르빌,24300,37.6076779608723,126.91585389089
서울특별시 강북구 미아동 791-1422,신일주택(791-1422),11200,37.6263033407733,127.0154795814
서울특별시 노원구 상계동 740,상계주공2(고층),56700,37.6497540150085,127.058517787643
서울특별시 동작구 상도동 282-7,미소가(282-7),48900,37.4945950280695,126.935601462779
서울특별시 동대문구 답십리동 80,답십리청솔우성,84000,37.5744481574591,127.059673242852
서울특별시 은평구 진관동 100-3,아이파크 포레스트 게이트,13500,37.6327721919462,126.918575956776
서울특별시 도봉구 창동 299,상아1차아파트,40000,37.6540244978375,127.042266004364
서울특별시 은평구 갈현동 539,한솔,29300,37.6180331596091,126.90993596943
서울특별시 강동구 천호동 442-34,대동피렌체리버,16500,37.5411522035904,127.123945720852
서울특별시 은평구 구산동 16-43,수성렉스빌,29900,37.6097837567341,126.911667063495
서울특별시 은평구 대조동 221-1,홍남하이츠맨션,18500,37.6145854745593,126.919722870289
서울특별시 동작구 사당동 1139,사당자이,87500,37.4886969037068,126.962444639513
서울특별시 강북구 미아동 232-5,삼성하이빌,27000,37.6278004126571,127.021801195056
서울특별시 구로구 개봉동 343-20,삼성아트빌(343-20),25500,37.4888734720265,126.853538141687
서울특별시 서대문구 남가좌동 385,DMC파크뷰자이1단지,125000,37.5722579341307,126.917837154419
서울특별시 강남구 논현동 6-21,세양 APEX-TOWER,25000,37.5184593128673,127.026051519479
서울특별시 은평구 증산동 164-10,리젠트,25000,37.5851952701678,126.910242515942
서울특별시 강북구 번동 656,번동금호어울림,42000,37.6306059364989,127.035415967486
서울특별시 동작구 상도동 283-106,(283-106),40000,37.4941807238445,126.937236062641
서울특별시 은평구 신사동 29-84,장성맨션(29-84),32300,37.5963561591334,126.911356934567
서울특별시 도봉구 창동 296-49,우신빌라(다),18000,37.6551770196674,127.041290366679
서울특별시 서대문구 홍은동 455,홍은동벽산,58500,37.5953795593755,126.944732392243
서울특별시 마포구 염리동 532,마포프레스티지자이,225000,37.5527919981747,126.947755600775
서울특별시 구로구 구로동 1263,신도림롯데아파트,97000,37.5034982286456,126.88421007151
서울특별시 강남구 논현동 96,(96),19300,37.5213126687985,127.036683922315
서울특별시 영등포구 대림동 1112-2,(1112-2),19800,37.4956167290213,126.895571811895
서울특별시 노원구 월계동 12,삼호4,59900,37.6265226116642,127.064158523429
서울특별시 강남구 역삼동 719-24,역삼역센트럴푸르지오시티,21500,37.5008584122618,127.040587989603
서울특별시 구로구 고척동 306,경남2,52300,37.5043353109062,126.856802204555
서울특별시 송파구 방이동 22-5,잠실리시온,27500,37.5146466020054,127.107422522041
서울특별시 중랑구 중화동 331-1,리버센 SK VIEW 롯데캐슬,106460,37.602983058751,127.075665655456
서울특별시 동대문구 이문동 73,삼익,59000,37.5959211476943,127.067557473978
서울특별시 마포구 현석동 225,래미안웰스트림,156000,37.5432114151591,126.935550955573
서울특별시 성동구 성수동2가 277-101,성수동램킨중흥S클래스오피스텔,14500,37.5446544692957,127.061379318231
서울특별시 구로구 개봉동 481,현대,78500,37.492077368255,126.858496444041
서울특별시 동작구 상도동 301-209,남양빌라(301-209),25000,37.4935935891438,126.931646107806
서울특별시 성북구 하월곡동 90-219,웰유,18500,37.6040953057499,127.032442552229
서울특별시 금천구 가산동 776,가산대명벨리온,11000,37.4784200758892,126.877794803331
서울특별시 용산구 한강로1가 216-12,(216-12),39500,37.5325385162852,126.974189434628
서울특별시 강서구 방화동 829-5,에어뷰21-1오피스텔,7800,37.5783045866362,126.812796710668
서울특별시 송파구 방이동 35-4,I-SPACE 잠실2,21000,37.516110216748,127.109553536194
서울특별시 송파구 석촌동 228-2,신성퍼스트,32900,37.4997420434002,127.099560580572
서울특별시 마포구 도화동 564,마포동원베네스트,118200,37.540241494631,126.95234943792
서울특별시 강북구 미아동 318-5,성북프라자,48000,37.6215674227472,127.026460013483
서울특별시 동작구 상도동 244-349,(244-349),31000,37.4996044787555,126.935831707534
서울특별시 동대문구 용두동 795,이편한세상청계센트럴포레,127500,37.5716477982277,127.029219765505
서울특별시 성동구 마장동 818,현대,103500,37.5694595542901,127.042547908615
서울특별시 중구 신당동 852,청구e편한세상,150000,37.5604485958729,127.016730517193
서울특별시 동작구 상도동 279-170,신동아빌라,44000,37.4952791560989,126.935095848978
서울특별시 강남구 역삼동 707-38,테헤란로오피스텔,31500,37.5032340734677,127.047191279582
서울특별시 마포구 성산동 601,성산월드타운대림,83800,37.569343987133,126.908243398976
서울특별시 동대문구 휘경동 106,휘경미소지움,64500,37.5915190211052,127.064774428036
서울특별시 성북구 길음동 1279,길음뉴타운1단지(래미안길음1차),95000,37.6058391908289,127.020250058627
서울특별시 중구 신당동 852,청구e편한세상,227000,37.5604485958729,127.016730517193
서울특별시 동작구 상도동 283-106,(283-106),40000,37.4941807238445,126.937236062641
서울특별시 마포구 용강동 508,이편한세상마포리버파크,201000,37.5415627963579,126.943717448432
서울특별시 서대문구 북가좌동 371-1,월드컵현대,75000,37.5762947166399,126.904390773298
서울특별시 강서구 등촌동 688,주공3,89000,37.5616418349754,126.841111422493
서울특별시 은평구 갈현동 487-3,삼원제우스,38500,37.6146908614371,126.914798645727
서울특별시 광진구 자양동 783-1,자양우성7,82000,37.5363526161092,127.074596726286
서울특별시 종로구 누상동 113-1,(113-1),35000,37.5802595836746,126.966662558736
서울특별시 노원구 하계동 273,장미(시영6),42000,37.6337021175518,127.067865375948
서울특별시 강서구 가양동 1461,가양2단지(성지),58500,37.5704957193283,126.847174411361
서울특별시 영등포구 영등포동7가 203,아크로타워스퀘어,177000,37.5243801067433,126.906871180548
서울특별시 도봉구 창동 30,창동주공18단지,44800,37.6464611137803,127.051742474665
서울특별시 성동구 성수동1가 708,동아그린,109000,37.5509020576675,127.048016199008
서울특별시 구로구 고척동 141-1,서울가든,54900,37.5026965980834,126.860597588858
서울특별시 성북구 돈암동 609-1,한신,69500,37.5941783218836,127.010321322145
서울특별시 동작구 상도동 283-106,(283-106),40000,37.4941807238445,126.937236062641
서울특별시 강북구 미아동 461,송천센트레빌,84500,37.6127523875236,127.025814365129
서울특별시 마포구 성산동 23-16,골든팰리스,45500,37.5652087071547,126.915134947888
서울특별시 성북구 장위동 219-81,아바하우스A동,39700,37.6171260847015,127.043016682513
서울특별시 중랑구 중화동 279-7,휴먼팰리스,37800,37.6052897511917,127.080598504958
서울특별시 강북구 미아동 1354,벽산라이브파크,54800,37.6211496720682,127.010827075164
서울특별시 마포구 망원동 399-14,현대그린빌,50500,37.5540557964742,126.904390219542
서울특별시 광진구 자양동 2-3,더 라움 펜트하우스,120000,37.5385008002809,127.069392147697
서울특별시 동작구 노량진동 283-3,화동코웨이상가,173000,37.5108441664009,126.936013348959
서울특별시 은평구 진관동 20,상림마을8단지롯데캐슬(821~830동)BL1-12,88000,37.6419845917913,126.922606227427
서울특별시 영등포구 신길동 1391,시온(Zion)하우스,42500,37.5143754352691,126.924789242063
서울특별시 성북구 정릉동 314,초원빌리지,31000,37.6122406605494,127.006441400047
서울특별시 광진구 자양동 667-24,(667-24),53000,37.529826255621,127.084817934297
서울특별시 강북구 미아동 4,꿈의숲롯데캐슬,91500,37.6174080707171,127.036391166899
서울특별시 노원구 상계동 691,상계주공7(고층),67000,37.6601571577107,127.06230852474
서울특별시 관악구 봉천동 1000,현대(관악),86000,37.4922662673536,126.958473250898
서울특별시 서초구 방배동 775-1,래미안방배에버뉴,245000,37.4940317517027,126.988293554815
서울특별시 관악구 봉천동 1718,벽산블루밍,85000,37.4892878706206,126.944767004216
서울특별시 서대문구 홍은동 455,홍은동벽산,63000,37.5953795593755,126.944732392243
서울특별시 강동구 천호동 432-7,아스하임,22500,37.5407676581176,127.123858863149
서울특별시 성동구 하왕십리동 1070,센트라스,155000,37.5663313038338,127.028440866987
서울특별시 동작구 상도동 214-87,더퍼스트타운,36800,37.496023601341,126.944727553427
서울특별시 강남구 개포동 1282,개포래미안포레스트,256000,37.4783842282264,127.054256523217
서울특별시 동작구 상도동 535,두산위브트레지움2차,162000,37.5038799849199,126.942775389314
서울특별시 양천구 목동 901,목동신시가지1,258000,37.5396035441466,126.879339191907
서울특별시 강남구 수서동 795,강남데시앙포레,177500,37.4809832232715,127.090876576595
서울특별시 마포구 공덕동 478,공덕더샵,210000,37.5443796868285,126.949090043621
서울특별시 마포구 도화동 555,마포 한화 오벨리스크,30500,37.5400400282506,126.945470495343
서울특별시 강서구 방화동 906,마곡센트레빌,85000,37.5729686283587,126.816060258254
서울특별시 강서구 마곡동 748,마곡13단지힐스테이트마스터,128800,37.5577905837789,126.818287997332
서울특별시 은평구 응암동 760,백련산힐스테이트2차,84000,37.5908269199714,126.923546818296
서울특별시 강서구 화곡동 98-141,건형타운나동,17800,37.5402516245558,126.845532458153
서울특별시 강동구 둔촌동 56-4,예건네스빌,29800,37.5333154458866,127.144144275408
서울특별시 강동구 상일동 514,고덕롯데캐슬베네루체,144000,37.5485938849143,127.167800631257
서울특별시 마포구 상암동 1655,상암월드컵파크4단지,134000,37.5776864156328,126.888688773185
서울특별시 강남구 청담동 42,삼성청담아파트,196000,37.517916188598,127.042753908694
서울특별시 성동구 마장동 825,대성유니드,92000,37.5668277405766,127.038632847777
서울특별시 노원구 상계동 173-1,벽산,55700,37.6614531070852,127.072881636874
서울특별시 은평구 역촌동 25-1,태영아뜨리움,28500,37.6057321209104,126.920707576884
서울특별시 노원구 상계동 1285,동아불암,58000,37.6669567609885,127.079688357716
서울특별시 강동구 명일동 15,삼익그린2차,142000,37.5532947928121,127.148458988794
서울특별시 종로구 누상동 113-1,(113-1),60000,37.5802595836746,126.966662558736
서울특별시 구로구 구로동 685-147,현대상선,61500,37.4960519869948,126.875213329214
서울특별시 동작구 상도동 283-106,(283-106),40000,37.4941807238445,126.937236062641
서울특별시 동대문구 장안동 329-3,래미안장안2차,99500,37.5739643441634,127.075387468834
서울특별시 강서구 염창동 311,등촌제이스카이,37000,37.5498427418339,126.867951321821
서울특별시 동대문구 휘경동 106,휘경미소지움,64500,37.5915190211052,127.064774428036
서울특별시 은평구 역촌동 25-1,태영아뜨리움,28500,37.6057321209104,126.920707576884
서울특별시 금천구 시흥동 1002-1,럭키남서울아파트,49000,37.4504759758931,126.899439923534
서울특별시 강서구 등촌동 715,등촌동아이파크,109000,37.5439005769284,126.859981715413
서울특별시 마포구 상암동 1597,사보이시티디엠씨,13500,37.5813245900576,126.888553615382
서울특별시 강북구 번동 138,한솔솔파크,61500,37.6273613072931,127.038842916774
서울특별시 강서구 화곡동 1165,강서힐스테이트,134500,37.5466340065991,126.840034541157
서울특별시 강동구 명일동 48-7,서희스타힐스,38500,37.5522711536365,127.155745685645
서울특별시 동작구 사당동 1157,이수역리가,147000,37.4894898027989,126.973853272882
서울특별시 중랑구 면목동 1516,면목삼익아파트,63000,37.5752190168167,127.079585178029
서울특별시 동작구 대방동 501,대림아파트,101000,37.5072946636747,126.924711747263
서울특별시 서대문구 연희동 739,대우푸르지오,77800,37.5615205693803,126.929514782543
서울특별시 동대문구 장안동 570,청원파크빌,55000,37.5670762132199,127.062972310423
서울특별시 동작구 상도동 283-106,(283-106),50000,37.4941807238445,126.937236062641
서울특별시 광진구 자양동 227-279,키스톤하우스-7,68000,37.5358359484662,127.075500908574
서울특별시 종로구 숭인동 201-7,아폴리움 오피스텔,14500,37.5739525812356,127.021492635942
서울특별시 관악구 봉천동 1568-1,서울대입구한양아이클래스,19800,37.4791097585906,126.950336729758
서울특별시 강서구 가양동 1475,강변,53000,37.5652163063579,126.855667621933
서울특별시 구로구 항동 242,하버라인3단지,64500,37.4793380760672,126.824182383715
서울특별시 강서구 화곡동 1159,"우장산아이파크,이편한세상",132000,37.5493547358614,126.838765589968
서울특별시 종로구 창신동 627-36,정성빌라,33000,37.5774256514522,127.0088020407
서울특별시 영등포구 문래동3가 99,예지팰리스77차,75000,37.5202249574619,126.8920562554
서울특별시 강남구 개포동 1282,개포래미안포레스트,320000,37.4783842282264,127.054256523217
서울특별시 광진구 자양동 55-4,제이파크,135000,37.5350286132454,127.063636880006
서울특별시 금천구 독산동 1007-13,e편한세상독산더타워,73500,37.4658151649342,126.896309478813
서울특별시 강서구 등촌동 688,주공3,81000,37.5616418349754,126.841111422493
서울특별시 중랑구 묵동 122-180,선경골든빌,29600,37.6089987682943,127.079930681951
서울특별시 강서구 화곡동 56-35,인스빌,24500,37.5405890000095,126.849400953511
서울특별시 노원구 공릉동 738,공릉우성아파트,52800,37.6285645918387,127.072728296047
서울특별시 동작구 상도동 283-106,(283-106),50000,37.4941807238445,126.937236062641
서울특별시 영등포구 여의도동 40,장미,300000,37.5234317466993,126.934250294566
서울특별시 중랑구 면목동 581,대원칸타빌,72000,37.5780867825962,127.090125931705
서울특별시 금천구 독산동 1007-13,e편한세상독산더타워,74100,37.4658151649342,126.896309478813
서울특별시 광진구 화양동 21-20,광진캠퍼스시티,14000,37.5478019769293,127.067876253552
서울특별시 구로구 오류동 31-4,오류동휘버스아파트,14000,37.4977546294044,126.84591021456
서울특별시 은평구 갈현동 504-17,영신하우징(504-17),30000,37.6172853268609,126.91439755189
서울특별시 강동구 고덕동 271-3,연희펠리시티3차,57000,37.5620374235599,127.160979006074
서울특별시 관악구 봉천동 1684-22,서광빌라,24000,37.478760445441,126.962584490455
서울특별시 금천구 시흥동 219-13,첼시하우스10,27600,37.453002768185,126.911842386838
서울특별시 강서구 화곡동 971-10,타운빌리지나동,21000,37.5476048890615,126.848831670018
서울특별시 마포구 상암동 1660,상암월드컵파크7단지,132000,37.5817590063066,126.881479978349
서울특별시 노원구 상계동 730-2,상계주공3(고층),71000,37.6523851714328,127.060626929817
서울특별시 은평구 역촌동 68-24,반도시티빌,31000,37.6030950803708,126.912270870445
서울특별시 동대문구 장안동 329-3,래미안장안2차,115000,37.5739643441634,127.075387468834
서울특별시 강서구 화곡동 794-5,블루힐,23000,37.531516466284,126.860624521406
서울특별시 성동구 행당동 347,대림e-편한세상,142000,37.5579017106154,127.02711847087
서울특별시 양천구 신월동 455-2,성우주택,21500,37.5272778855451,126.848127506647
서울특별시 노원구 월계동 951,월계센트럴아이파크,86200,37.6302464149326,127.057463536772
서울특별시 도봉구 창동 338,창동신원리베르텔,16000,37.6514481179218,127.045934489334
서울특별시 노원구 상계동 1267,토마토파르코,16000,37.6801862134118,127.055830164279
서울특별시 마포구 망원동 520,꽃밭선호빌,31000,37.5600876999933,126.899189119603
서울특별시 성북구 장위동 230-104,명가,48000,37.6155272144432,127.041950283745
서울특별시 동작구 노량진동 57-1,메가스터디타워,14000,37.5128170490556,126.941666546213
서울특별시 서대문구 홍제동 456,성원,65000,37.5836699249845,126.942886344639
서울특별시 마포구 도화동 555,한화오벨리스크,59500,37.5400400282506,126.945470495343
서울특별시 성북구 종암동 80,래미안크리시엘,77200,37.6009876756256,127.030155293619
서울특별시 노원구 상계동 1078,현대2차,38500,37.6722748151583,127.050409481365
서울특별시 양천구 신정동 314,목동신시가지8,165000,37.5216269650802,126.867656607229
서울특별시 강남구 삼성동 188,삼성동센트럴아이파크,290000,37.5154203230155,127.051131434251
서울특별시 송파구 방이동 117-14,TheHome,24000,37.5094867618575,127.115415756134
서울특별시 강동구 암사동 489-62,암사팰리스,29500,37.5478062670092,127.133605246409
서울특별시 동대문구 용두동 104-34,가우디캐슬,31500,37.5773115907416,127.033125902564
서울특별시 금천구 시흥동 987,금천 쏠라 이지움,12000,37.4498824866719,126.901807232959
서울특별시 동대문구 장안동 385-2,리치,38500,37.571360618908,127.069106463127
서울특별시 금천구 독산동 1016-16,유선네오빌(1016-16),26800,37.467976206162,126.900676219207
서울특별시 동작구 신대방동 707,현대,96000,37.4945653935954,126.912248369811
서울특별시 중구 신당동 840,현대,91000,37.5599721399106,127.021759346522
서울특별시 서대문구 북가좌동 5-66,이안쉐르빌1차,27500,37.5813372258027,126.919103648849
서울특별시 은평구 불광동 643,북한산힐스테이트7차,90000,37.6165291109629,126.926683005796
서울특별시 구로구 구로동 97-10,우진체리쉬,11500,37.4961273296972,126.891965086918
서울특별시 성북구 하월곡동 222,월곡두산위브,71000,37.607033098723,127.038365407563
서울특별시 동작구 상도동 283-106,(283-106),40000,37.4941807238445,126.937236062641
서울특별시 종로구 부암동 129-11,용궁,35000,37.5976474736506,126.963894305112
서울특별시 영등포구 여의도동 525,브라이튼여의도,463800,37.5240734259401,126.929840195872
서울특별시 은평구 신사동 359,현대1,59500,37.5935086466741,126.908614122309
서울특별시 노원구 공릉동 715,시영3차(라이프)아파트,30000,37.6272668429353,127.068613417088
서울특별시 강서구 가양동 1480-5,이스타빌1차,11200,37.5626216798115,126.853014611776
서울특별시 강서구 화곡동 105-20,(105-20),8700,37.5411396119852,126.843723707993
서울특별시 은평구 불광동 484-73,효민아크로뷰,38500,37.6205814116509,126.920451219016
서울특별시 강서구 내발산동 729,롯데2,85000,37.5546639253865,126.842754105531
서울특별시 동작구 상도동 283-106,(283-106),21000,37.4941807238445,126.937236062641
서울특별시 성북구 장위동 320,래미안장위퍼스트하이,108000,37.6200557016344,127.051434874575
서울특별시 강남구 압구정동 447,"현대14차(203,204,205,206동)",520000,37.5306250782443,127.026136755454
서울특별시 강남구 대치동 942-3,바실리체,101000,37.5058648171331,127.057579558338
서울특별시 성동구 금호동1가 1500,금호삼성래미안,137500,37.549177317639,127.027637334732
서울특별시 관악구 신림동 90-143,(90-143),30000,37.4805351367917,126.931397061612
서울특별시 강남구 역삼동 837-13,강남역 와이즈 플레이스,19500,37.4917282202916,127.031839810859
서울특별시 도봉구 쌍문동 158,한양7,54900,37.6560145987519,127.033853936885
서울특별시 강서구 화곡동 1165,강서힐스테이트,97000,37.5466340065991,126.840034541157
서울특별시 관악구 봉천동 41-108,리치팰리스,27000,37.4885953566408,126.953563191098
서울특별시 강북구 미아동 791-1322,창헌주택,12000,37.6262470738682,127.01582133735
서울특별시 강서구 화곡동 160-32,이스트힐,17000,37.5358891327784,126.853278901479
서울특별시 동작구 상도동 283-106,(283-106),50000,37.4941807238445,126.937236062641
서울특별시 용산구 효창동 3-95,효창파크빌,87000,37.5432142312788,126.958242235014
서울특별시 양천구 신월동 48-7,대우주택(48),12000,37.5360611647508,126.825967653963
서울특별시 관악구 봉천동 1568-1,서울대입구한양아이클래스,19000,37.4791097585906,126.950336729758
서울특별시 성북구 장위동 233-46,세영하이빌,48000,37.6116790707222,127.047698709577
서울특별시 서대문구 남가좌동 4-10,예진빌라,19000,37.5829225646089,126.9230736257
서울특별시 서대문구 홍제동 473,홍제센트럴IPARK,124000,37.5845073711947,126.945497402073
서울특별시 영등포구 여의도동 525,브라이튼여의도,482600,37.5240734259401,126.929840195872
서울특별시 도봉구 도봉동 558-16,우성빌라,12700,37.6863854234948,127.044534909254
서울특별시 동대문구 용두동 104-34,가우디캐슬,31500,37.5773115907416,127.033125902564
서울특별시 관악구 봉천동 41-108,리치팰리스,27000,37.4885953566408,126.953563191098
서울특별시 양천구 신정동 311,목동신시가지10,227000,37.5174039317093,126.858682558236
서울특별시 성북구 길음동 1287-1,롯데캐슬골든힐스,79000,37.6089183504682,127.015960479682
서울특별시 금천구 시흥동 5-13,삼익,41000,37.4633791506332,126.909413529837
서울특별시 양천구 목동 531-19,대명국경하임B,24900,37.5451200408316,126.871270872168
서울특별시 강동구 길동 97-5,비바체하임,41000,37.5404613445739,127.146358357651
서울특별시 관악구 봉천동 1712,관악드림(동아),83000,37.489767905811,126.950619822698
서울특별시 동작구 상도동 279-160,아안채,64000,37.4955196340667,126.934604408983
서울특별시 강북구 번동 139,해모로아파트,47800,37.6263821831818,127.037518381078
서울특별시 중구 신당동 400-3,신당상상헌,48000,37.5604231371511,127.010018998265
서울특별시 강서구 가양동 1475,강변,53950,37.5652163063579,126.855667621933
서울특별시 강동구 천호동 442-34,대동피렌체리버,15100,37.5411522035904,127.123945720852
서울특별시 서초구 방배동 1008-2,래미안방배아트힐(1008-2),239000,37.4776769383245,127.005115104471
서울특별시 강남구 수서동 716,사이룩스,42500,37.4884564569321,127.104189927096
서울특별시 도봉구 창동 338,창동신원리베르텔,15700,37.6514481179218,127.045934489334
서울특별시 동대문구 휘경동 365,휘경동일하이빌,78000,37.5823446326166,127.073299760443
서울특별시 은평구 응암동 81-117,효성맨션,28000,37.5999258561217,126.928588835368
서울특별시 동작구 상도동 283-106,(283-106),40000,37.4941807238445,126.937236062641
서울특별시 중랑구 상봉동 205-23,디스커버리하우스,38000,37.599812359021,127.085964724975
서울특별시 동대문구 장안동 365-4,서희스타힐스,38800,37.5692905479454,127.070535892189
서울특별시 성북구 장위동 219-314,더커먼즈37,33000,37.6161245717586,127.044883396472
서울특별시 광진구 구의동 631-1,현대프라임,167500,37.5373977464389,127.097621063329
서울특별시 동작구 신대방동 724,보라매자이더포레스트,122300,37.498559088724,126.926048617167
서울특별시 구로구 오류동 97-4,서울가든빌라2단지,45000,37.492332379239,126.8310206217
서울특별시 은평구 응암동 755-25,(755-25),36000,37.5844942594033,126.921165429239
서울특별시 강서구 등촌동 691-1,동성,114500,37.5638696352592,126.845798929518
서울특별시 노원구 하계동 271-3,건영,73800,37.6354452993831,127.064243687991
서울특별시 중랑구 신내동 657,신내9진흥,50000,37.6119855898595,127.094726629688
서울특별시 구로구 온수동 5-13,수림빌라(5-13),33000,37.4964621112485,126.823664692038
서울특별시 영등포구 대림동 607-1,코오롱,83000,37.5069644904387,126.894913824416
서울특별시 종로구 구기동 267,쌍용더플래티넘종로구기동,115000,37.611322444252,126.956948832334
서울특별시 중랑구 묵동 162-17,헤르만스테이트,9500,37.6162266607022,127.078752756276
서울특별시 성북구 정릉동 1021,대우,32000,37.618018552562,127.003530567675
서울특별시 동작구 신대방동 348-64,신성하이츠B동,46000,37.4964227095811,126.928681401663
서울특별시 서대문구 남가좌동 325-40,엘리트홈(325-40),8000,37.5785481987992,126.925109988638
서울특별시 종로구 내수동 75,용비어천가,30200,37.5734204618228,126.973255124705
서울특별시 성북구 정릉동 1035,정릉2차e-편한세상,88000,37.5999446937385,127.019402892439
서울특별시 성동구 옥수동 4,현대,160000,37.5436917758825,127.018895964412
서울특별시 양천구 목동 911,목동신시가지6,275000,37.5346424311653,126.884816122965
서울특별시 관악구 신림동 610-393,대성아트빌,23500,37.4765674423926,126.923319907985
서울특별시 마포구 염리동 520,염리삼성래미안,120000,37.5489089575613,126.946728410444
서울특별시 성동구 성수동1가 708,동아그린,134500,37.5509020576675,127.048016199008
서울특별시 은평구 불광동 629,대호아파트,66000,37.6149089274742,126.933481532792
서울특별시 은평구 불광동 238-100,불광빌라(238-100),80000,37.6160459993769,126.931944644861
서울특별시 성동구 행당동 380,서울숲리버뷰자이,220000,37.5551406328318,127.038383152493
서울특별시 강남구 압구정동 433,신현대11차,1010000,37.5275560033999,127.024419823616
서울특별시 구로구 항동 6,비앤비퀸즈빌,30500,37.486552812942,126.825220412844
서울특별시 강북구 수유동 468-221,장미하이츠빌라(가),10500,37.6307127615577,127.014097143554
서울특별시 금천구 독산동 1144,독산동한양수자인,71500,37.4759170971238,126.899314724455
서울특별시 양천구 신정동 1326,래미안목동아델리체(101동~118동),154700,37.5191734678965,126.851674813154
서울특별시 강동구 길동 332,한전우성1,70800,37.5433525504739,127.144168915991
서울특별시 강동구 둔촌동 441-3,블루빌(가나동),22000,37.5322825519158,127.139481557054
서울특별시 은평구 불광동 248,라이프미성,74000,37.6148201496954,126.928054489549
서울특별시 강서구 마곡동 748,마곡13단지힐스테이트마스터,145000,37.5577905837789,126.818287997332
서울특별시 성북구 정릉동 206-156,다온리치빌A동,30000,37.6079260367637,127.012693942926
서울특별시 성북구 보문동1가 228,보문리슈빌하우트,104000,37.5872459099988,127.019555501687
서울특별시 성북구 정릉동 383-29,(383-29),17500,37.6074292342349,127.0086789593
서울특별시 강서구 화곡동 353-86,범우주택(353-86),10000,37.5332174349254,126.842804801188
서울특별시 양천구 신정동 889-16,동원로데오프라우드,27900,37.5272069464846,126.861209166401
서울특별시 성북구 석관동 10,두산,70900,37.6123138667374,127.06893164021
서울특별시 강동구 둔촌동 630,둔촌푸르지오,132500,37.5341452290037,127.146518101181
서울특별시 강남구 논현동 105,동현아파트1~6,250000,37.5193540121054,127.036575387431
서울특별시 중랑구 묵동 396,이편한세상화랑대,105500,37.6159945268682,127.083016486874
서울특별시 구로구 고척동 296,대우,60000,37.5030248070323,126.855476756678
서울특별시 구로구 오류동 51-31,포스시티,9200,37.4954175987872,126.843373824053
서울특별시 도봉구 방학동 444-31,대원그린아파트,25900,37.6628728312142,127.028181852004
서울특별시 마포구 신수동 459,밤섬경남아너스빌,152000,37.5467372521599,126.93630235903
서울특별시 성북구 안암동2가 119-2,일광빌라(1동),16900,37.5865718241046,127.024651038695
서울특별시 노원구 상계동 1410,노원롯데캐슬시그니처,60000,37.6658515931357,127.0763205024
서울특별시 관악구 봉천동 1021,일두(1021),38300,37.4889071966167,126.954726970361
서울특별시 강서구 가양동 1480-1,이스타빌2차,15500,37.5632580114491,126.852692029169
서울특별시 동작구 상도동 415,중앙하이츠빌,112000,37.4990754084704,126.949791769181
서울특별시 양천구 신월동 987-1,신월시영,46800,37.517094837206,126.832775211306
서울특별시 노원구 하계동 273,장미(시영6),56000,37.6337021175518,127.067865375948
서울특별시 노원구 공릉동 747,두산힐스빌아파트,66800,37.6209351870697,127.079878214628
서울특별시 마포구 창전동 449,마포웨스트리버태영데시앙,141000,37.5499610769576,126.930484403575
서울특별시 양천구 신정동 329,목동신시가지14,146000,37.5161909461632,126.870337507112
서울특별시 강북구 수유동 648,수유벽산2차,60000,37.6434341578327,127.017888750262
서울특별시 노원구 상계동 740,상계주공2(고층),57800,37.6497540150085,127.058517787643
서울특별시 용산구 도원동 23,삼성래미안,124500,37.5382964045291,126.955316835387
서울특별시 도봉구 쌍문동 709-21,하나아트빌A동,17950,37.6615842188139,127.039575994101
서울특별시 강남구 도곡동 551-28,롯데캐슬모닝,250000,37.490246269916,127.036716441898
서울특별시 강서구 가양동 1475,강변,58750,37.5652163063579,126.855667621933
서울특별시 강서구 방화동 830-3,방화샤르망1오피스텔,5700,37.5764992807133,126.813032847794
서울특별시 양천구 목동 607-3,대명투웨니퍼스트,20000,37.5500473692308,126.865091504725
서울특별시 강서구 방화동 249-313,까사지오,24000,37.5685348558573,126.813260466388
서울특별시 노원구 공릉동 707,시영2단지(라이프)아파트,35500,37.6305877904328,127.066724120963
서울특별시 서대문구 영천동 100,독립문삼호,96500,37.5703103898017,126.958794223203
서울특별시 성동구 행당동 380,서울숲리버뷰자이,245000,37.5551406328318,127.038383152493
서울특별시 동대문구 이문동 149-8,이문 아이파크 자이,124000,37.5984958012818,127.063534965389
서울특별시 양천구 신정동 1277,신트리4,57000,37.5112616967361,126.850765825047
서울특별시 송파구 송파동 176-8,한양빌라1,37000,37.5021444660043,127.115424018353
서울특별시 송파구 거여동 607,송파레이크파크호반써밋Ⅱ,166000,37.4833974866875,127.141526870293
서울특별시 양천구 목동 961,목동 현대 하이페리온2,170000,37.5243483395844,126.869916701549
서울특별시 강서구 염창동 250-1,삼현팰리채,58000,37.5505356760612,126.873695190425
서울특별시 영등포구 도림동 253-1,기성빌2차,50500,37.5089132521629,126.901691957952
서울특별시 강서구 화곡동 1019-19,광영다모은정아파트,43000,37.5440162878424,126.835216069729
서울특별시 송파구 문정동 639-5,힐스테이트에코송파,40000,37.4852529035785,127.114808606468
서울특별시 서대문구 남가좌동 385,DMC파크뷰자이1단지,131000,37.5722579341307,126.917837154419
서울특별시 마포구 아현동 733,효성인텔리안,16000,37.552504284746,126.956837945207
서울특별시 마포구 성산동 590-1,상암 두산위브센티움,15500,37.5659523418095,126.903023084893
서울특별시 양천구 목동 772-11,스카이빌아파트,89500,37.5342356394865,126.86925021254
서울특별시 도봉구 도봉동 641,서원,34500,37.6741332478974,127.04829873867
서울특별시 양천구 목동 935,진도1,113000,37.5244456127677,126.868582885117
서울특별시 강동구 천호동 451,이안 강동 컴홈스테이,25000,37.5374631620702,127.128983441552
서울특별시 서대문구 연희동 121-4,오벨리스크,10000,37.5708867848273,126.929974817514
서울특별시 강서구 가양동 257-1,마곡보타닉투웨니퍼스트,26300,37.5710213869698,126.838333685168
서울특별시 강동구 명일동 312-180,임성아트빌,44000,37.5523077273113,127.141506786364
서울특별시 은평구 신사동 19-117,홍익,39000,37.5975063938178,126.908097175525
서울특별시 은평구 구산동 547,갈현1단지e-편한세상,57000,37.6118777632825,126.906203021872
서울특별시 양천구 목동 917,목동파라곤,137000,37.5295042161977,126.875163391823
서울특별시 양천구 신정동 312,목동신시가지9,165000,37.5185420579875,126.862404579736
서울특별시 금천구 독산동 964-9,(964-9),14500,37.4774900695459,126.902199603171
서울특별시 구로구 온수동 155,온수힐스테이트,65400,37.4967519762673,126.821333676511
서울특별시 양천구 신정동 324-7,대림아크로빌,160000,37.515425616177,126.859603067999
서울특별시 강서구 등촌동 687,"등촌1,2단지주공아파트",57000,37.5649734120019,126.842430453381
서울특별시 동대문구 답십리동 12,e편한세상 답십리 아르테포레,104800,,
서울특별시 구로구 궁동 213-21,우신빌라,44000,37.4942361938098,126.830509504324
서울특별시 노원구 하계동 274,청솔(시영7),36700,37.6324803379916,127.071299559248
서울특별시 동작구 대방동 500,성원,124000,37.5093670272736,126.92593559718
서울특별시 광진구 자양동 793,우방리버파크,178500,37.5312363568684,127.070517350129
서울특별시 관악구 봉천동 41-135,주하아트빌,35000,37.4877503715795,126.95351260599
서울특별시 은평구 불광동 90-16,조이빌,34000,37.6248284613586,126.928286580819
서울특별시 강동구 고덕동 486,아남1,79500,37.5578867585046,127.14597379187
서울특별시 동작구 신대방동 360-108,궁전하우스A,49500,37.4974037776241,126.925696250606
서울특별시 마포구 용강동 380,마포용강삼성래미안,168000,37.543375950534,126.941276687895
서울특별시 금천구 독산동 378-342,금강누리빌(378-342),21700,37.4641746949026,126.905892189278
서울특별시 노원구 중계동 369,주공2,33000,37.6568915639532,127.078983583783
서울특별시 양천구 신월동 80-19,동원10차E동,23000,37.5370558599794,126.829108522232
서울특별시 강남구 대치동 622-1,대치 클래시아,46800,37.4936616261973,127.060396850671
서울특별시 동대문구 장안동 364-9,태솔타워,34600,37.5682570422656,127.06988587057
서울특별시 구로구 신도림동 271-25,신도림삼성쉐르빌 1,70300,37.514321541167,126.881393624446
서울특별시 양천구 신정동 1279,목동현대3차,129800,37.5203887008316,126.877235446867
서울특별시 은평구 역촌동 54-13,이노컨스빌,23800,37.6053467121357,126.910073462873
서울특별시 동대문구 장안동 329-2,장안힐스테이트,87000,37.5756429203038,127.075350784878
서울특별시 성동구 금호동3가 1662,금호한신,115000,37.5503878876474,127.0184661539
서울특별시 서대문구 홍제동 82,홍제한양,77000,37.5833210740055,126.946971087746
서울특별시 구로구 신도림동 644,동아2,95500,37.5085457625955,126.885892478427
서울특별시 관악구 봉천동 1717,관악푸르지오,100500,37.4873112715491,126.960864947013
서울특별시 서초구 양재동 386-2,(386-2)청구빌라,55500,37.4700332994485,127.047360088529
서울특별시 중랑구 면목동 137-51,햇살타운,31000,37.5904519784527,127.083809677897
서울특별시 강서구 방화동 852,마곡중앙하이츠아파트,51000,37.5698046000523,126.806639355477
서울특별시 성동구 금호동4가 1250,롯데,129000,37.5469990657171,127.017177776786
서울특별시 강서구 염창동 66-9,염창동한강우성,88500,37.5557364730159,126.870260078656
서울특별시 양천구 신정동 327,목동신시가지13,187000,37.5141910493429,126.865002695714
서울특별시 용산구 후암동 244-105,(244-105),82000,37.5491858394452,126.978209387581
서울특별시 송파구 거여동 607,송파레이크파크호반써밋Ⅱ,166000,37.4833974866875,127.141526870293
서울특별시 성동구 금호동1가 1823,e편한세상신금호파크힐스,170000,37.5542846887812,127.022691811161
서울특별시 서초구 서초동 1623-3,피앤디 솔로빌,13800,37.4871298723995,127.015461108436
서울특별시 은평구 응암동 770,힐스테이트녹번역,110800,37.5992916659593,126.934685022167
서울특별시 강북구 번동 148-503,장원(503),41000,37.6243099429026,127.037708212428
서울특별시 성북구 장위동 68-921,신한아트빌,52000,37.6111909726784,127.048441595304
서울특별시 성동구 마장동 818,현대,108500,37.5694595542901,127.042547908615
서울특별시 은평구 갈현동 233-7,장미,19600,37.6172064323863,126.915819821133
서울특별시 관악구 봉천동 1706,봉천우성,76400,37.4849781107912,126.959527564225
서울특별시 양천구 신월동 350-2,신안파크,29000,37.5233765603266,126.829579444411
서울특별시 강서구 화곡동 369-48,프리메라C동,29900,37.5360565016377,126.839799509391
서울특별시 동작구 상도동 407,현대(관악),68500,37.492485409446,126.957507893352
서울특별시 구로구 개봉동 476,한마을,82000,37.4952644521652,126.862501576596
서울특별시 성북구 정릉동 1034,라온유,84500,37.6032122301232,127.018248295413
서울특별시 구로구 구로동 685-204,근상프리즘팰리스,47300,37.4938427132393,126.872423696309
서울특별시 마포구 노고산동 1-3,신촌포스빌,30200,37.5562257581317,126.942269105772
서울특별시 용산구 문배동 40-19,삼라마이다스빌2,76000,37.5383471132315,126.969048046629
서울특별시 동대문구 답십리동 498-7,청계지웰에스테이트,13900,37.5701711462039,127.049516636038
서울특별시 노원구 중계동 502-1,중계그린1단지,52000,37.6443713328952,127.063281683752
서울특별시 관악구 봉천동 1712,관악드림(동아),79000,37.489767905811,126.950619822698
서울특별시 서대문구 합동 116,SK리쳄블,24700,37.5613019760082,126.96621646777
서울특별시 중랑구 신내동 591,동성아파트,47500,37.6067265670772,127.096444206008
서울특별시 동작구 사당동 169-8,대림(169-8),153000,37.4862311600572,126.973195217153
서울특별시 강동구 고덕동 693,고덕그라시움,180000,37.5580690838901,127.163465686409
서울특별시 성북구 정릉동 1035,정릉2차e-편한세상,72000,37.5999446937385,127.019402892439
서울특별시 구로구 구로동 560,신도림현대,77800,37.5048164707841,126.885764474143
서울특별시 강서구 화곡동 870-6,첼시하우스(870-6),23500,37.5332035126125,126.855095754747
서울특별시 성북구 장위동 68-278,더테라스,43500,37.6109899390517,127.049581627769
서울특별시 강서구 화곡동 918-38,성재센트리움,30000,37.5301621496422,126.844374852618
서울특별시 강북구 미아동 1353,에스케이북한산시티,59300,37.6179760334621,127.01263074872
서울특별시 강동구 상일동 513,고덕센트럴IPARK,134500,37.5522479658082,127.166786120594
서울특별시 성동구 용답동 28-1,대로빌,50500,37.5610609556477,127.052527581287
서울특별시 동작구 상도동 283-28,라크레스타,48000,37.4951130487172,126.934187829315
서울특별시 동작구 상도동 279-267,청원주택,43000,37.4956700066146,126.936242738509
서울특별시 강서구 방화동 852,마곡중앙하이츠아파트,54500,37.5698046000523,126.806639355477
서울특별시 노원구 상계동 720,상계주공6(고층),59000,37.6537976139077,127.064748595375
서울특별시 성북구 돈암동 636,이수브라운스톤돈암,80000,37.5980217244898,127.017576773103
서울특별시 강서구 화곡동 346-56,한백리츠빌(346-56),21800,37.53127701302,126.844416885838
서울특별시 마포구 염리동 533,마포자이더센트리지(102동~112동),162000,37.5508892423783,126.948512315027
서울특별시 구로구 고척동 241-56,(241-56),30000,37.5056780701452,126.849334826698
서울특별시 성북구 종암동 130,아이파크종암동1차,96450,37.602534840189,127.029865332341
서울특별시 성동구 행당동 346,행당한진타운,155500,37.5558804553964,127.029207383318
서울특별시 구로구 오류동 336,동부(101동~103동),50000,37.4970029525998,126.847881699672
서울특별시 은평구 역촌동 60-32,동호빌라트(A동),34000,37.6047994981811,126.913758307207
서울특별시 강동구 명일동 15,삼익그린2차,140000,37.5532947928121,127.148458988794
서울특별시 서대문구 충정로3가 465,충정리시온,49800,37.5602879536746,126.964843138591
서울특별시 노원구 상계동 626,상계주공14(고층),37000,37.6691340218574,127.057453609395
서울특별시 동작구 상도동 283-28,라크레스타,69000,37.4951130487172,126.934187829315
서울특별시 은평구 역촌동 41-59,시마하우스,21500,37.601989014443,126.920123361499
서울특별시 서대문구 남가좌동 385,DMC파크뷰자이1단지,121000,37.5722579341307,126.917837154419
서울특별시 동대문구 답십리동 530-4,보광타워,13500,37.5703573103131,127.050113414896
서울특별시 관악구 봉천동 649-84,럭키그린하우스,26000,37.4895003758012,126.936271275842
서울특별시 은평구 불광동 248,라이프미성,97000,37.6148201496954,126.928054489549
서울특별시 성북구 돈암동 15-1,돈암동삼성,67250,37.5994822164406,127.023373194038
서울특별시 서대문구 북아현동 1013,e편한세상신촌3단지,151500,37.5582659643517,126.950153860719
서울특별시 강남구 일원동 615-1,개포한신,229000,37.4912703447693,127.07930741151
서울특별시 성북구 길음동 1278,길음동동부센트레빌(1278-0),89800,37.6102709913229,127.024462245599
서울특별시 중구 신당동 842,약수하이츠,89500,37.5547365066187,127.014263668771
서울특별시 노원구 월계동 13,미성,58000,37.6245905661541,127.065415722199
서울특별시 강서구 화곡동 1159,"우장산아이파크,이편한세상",110000,37.5493547358614,126.838765589968
서울특별시 광진구 자양동 761,자양2현대,109700,37.5341950903438,127.070623660109
서울특별시 동대문구 이문동 225,대림e-편한세상,84700,37.6045229147922,127.064973013617
서울특별시 은평구 역촌동 59-37,만민하늘애(59-37),23500,37.6053114511269,126.913035981378
서울특별시 중구 흥인동 119,동대문와이즈캐슬,15000,37.5658415020925,127.015468306711
서울특별시 노원구 상계동 740,상계주공2(고층),34500,37.6497540150085,127.058517787643
서울특별시 노원구 월계동 556,주공2,30100,37.6281259684663,127.052782051404
서울특별시 강서구 등촌동 688,주공3,56000,37.5616418349754,126.841111422493
서울특별시 노원구 공릉동 715,시영3차(라이프)아파트,31000,37.6272668429353,127.068613417088
서울특별시 강동구 암사동 516-2,한강리치팰리스,80800,37.5507189433357,127.123833909857
서울특별시 강북구 번동 136,번동솔그린,42800,37.6261268924628,127.039305478078
서울특별시 동대문구 장안동 373-1,양우 내안애 애플,7500,37.5697552191874,127.069730495308
서울특별시 관악구 봉천동 180-215,월드빌,34850,37.469925400737,126.970142627209
서울특별시 강북구 미아동 309-59,청한에버빌(C동),27000,37.6235300356707,127.024406213392
서울특별시 서대문구 연희동 738,임광,72500,37.5651873431789,126.927122833211
서울특별시 동작구 대방동 501,대림아파트,108000,37.5072946636747,126.924711747263
서울특별시 금천구 시흥동 837-14,드웰하우스,34300,37.4531510915218,126.906471888402
서울특별시 동작구 흑석동 339,흑석한강센트레빌Ⅱ,172000,37.5022759634365,126.958629091553
서울특별시 강동구 명일동 270,삼익가든,119000,37.547202466583,127.147708870852
서울특별시 동작구 대방동 504,한국개나리,70000,37.5141579169603,126.928536487014
서울특별시 송파구 문정동 618,파크하비오,19850,37.4806047633012,127.12366621502
서울특별시 동작구 사당동 1134,경남아너스빌1차,80000,37.4882472616145,126.967806168575
서울특별시 서대문구 천연동 145,천연뜨란채,53700,37.5675621422573,126.958448691465
서울특별시 서대문구 북아현동 1017,힐스테이트신촌,158000,37.5622057682356,126.951051271738
서울특별시 강서구 등촌동 568-13,라온제나,29500,37.5367460599354,126.862630806533
서울특별시 강남구 역삼동 708-20,금천빌딩,20000,37.5031402437958,127.047949405031
서울특별시 노원구 하계동 353,우방,49500,37.6374591775029,127.077316227926
서울특별시 강동구 천호동 447-17,강동역신동아파밀리에,133500,37.5364985295234,127.133223572592
서울특별시 송파구 문정동 618,파크하비오,19850,37.4806047633012,127.12366621502
서울특별시 서대문구 대현동 144,신촌럭키,84000,37.5596039122151,126.947581754502
서울특별시 성동구 하왕십리동 258,벽산,119950,37.5687121152751,127.03188805913
서울특별시 서대문구 남가좌동 389,DMC에코자이,122500,37.5771753939051,126.919159886739
서울특별시 동작구 사당동 169-32,현대,74000,37.4881257625269,126.970397032906
서울특별시 양천구 신정동 875-14,후암리치빌(875-14),28000,37.527789543703,126.856024176727
서울특별시 노원구 공릉동 715,시영3차(라이프)아파트,30600,37.6272668429353,127.068613417088
서울특별시 동작구 상도동 350-4,엘리시아(350-4),50300,37.5024420381887,126.932161777057
서울특별시 구로구 개봉동 343-5,로얄하이츠(343-5),19300,37.489194832777,126.853733357096
서울특별시 양천구 신정동 327,목동신시가지13,217000,37.5141910493429,126.865002695714
서울특별시 성북구 하월곡동 222,월곡두산위브,74800,37.607033098723,127.038365407563
서울특별시 서대문구 홍은동 455,홍은동벽산,58500,37.5953795593755,126.944732392243
서울특별시 성동구 옥수동 561,래미안 옥수 리버젠,177700,37.5451371536209,127.013714834954
서울특별시 서대문구 현저동 200,독립문극동(200-0),122000,37.5720347102743,126.956767247418
서울특별시 중랑구 묵동 396,이편한세상화랑대,105000,37.6159945268682,127.083016486874
서울특별시 강동구 성내동 517-17,현대다세대(517-17),23000,37.5311034291515,127.129580031983
서울특별시 노원구 상계동 136-40,이화빌라,19200,37.6662247531761,127.070121454071
서울특별시 성동구 홍익동 119-1,홍익한신,50818,37.5666312747463,127.033798503022
서울특별시 종로구 부암동 126-3,테바하우스,50000,37.5978070550354,126.966073596564
서울특별시 동대문구 전농동 97-4,아크로이스,24995,37.5872080895962,127.053136399476
서울특별시 성북구 정릉동 239,정릉풍림아이원,60000,37.6184876142783,127.007297911588
서울특별시 서대문구 대현동 37-32,영타운 지웰 에스테이트,19000,37.5581310947852,126.943757842683
서울특별시 금천구 독산동 1000-12,엘파크 독산,28459,37.4682199380858,126.889040516592
서울특별시 양천구 신정동 1202-8,정현그린빌,81000,37.5210502211712,126.850290679064
서울특별시 강북구 수유동 279-56,새샘,20450,37.6488720512159,127.014570945641
서울특별시 동대문구 전농동 97-4,아크로이스,25011,37.5872080895962,127.053136399476
서울특별시 노원구 하계동 274,청솔(시영7),55500,37.6324803379916,127.071299559248
서울특별시 동대문구 전농동 97-4,아크로이스,25011,37.5872080895962,127.053136399476
서울특별시 강동구 암사동 458-34,중앙하이츠,29500,37.553870932596,127.133481399055
서울특별시 금천구 독산동 1000-12,엘파크 독산,31982,37.4682199380858,126.889040516592
서울특별시 강동구 명일동 15,삼익그린2차,191500,37.5532947928121,127.148458988794
서울특별시 구로구 항동 1,동삼파크빌라,35000,37.487366008576,126.824273362538
서울특별시 동대문구 전농동 97-4,아크로이스,25011,37.5872080895962,127.053136399476
서울특별시 동대문구 전농동 97-4,아크로이스,24995,37.5872080895962,127.053136399476
서울특별시 강북구 수유동 279-56,새샘,22152,37.6488720512159,127.014570945641
서울특별시 금천구 독산동 1000-12,엘파크 독산,31982,37.4682199380858,126.889040516592
서울특별시 동대문구 전농동 97-4,아크로이스,25012,37.5872080895962,127.053136399476
서울특별시 동대문구 전농동 97-4,아크로이스,25011,37.5872080895962,127.053136399476
서울특별시 노원구 상계동 1256,은빛2단지,53300,37.6799630377746,127.053504710908
서울특별시 금천구 독산동 1000-12,엘파크 독산,31982,37.4682199380858,126.889040516592
서울특별시 금천구 독산동 1000-12,엘파크 독산,31982,37.4682199380858,126.889040516592
서울특별시 강남구 삼성동 189,래미안라클래시,650000,37.5177086025156,127.049864848381
서울특별시 노원구 상계동 639,보람아파트,47000,37.6661826658174,127.064948745871
서울특별시 강북구 미아동 1353,에스케이북한산시티,61000,37.6179760334621,127.01263074872
서울특별시 중구 중림동 355,브라운스톤서울,26900,37.5606358272505,126.968341179709
서울특별시 강서구 화곡동 918-18,태영,49500,37.5299020747446,126.844339868685
서울특별시 금천구 독산동 1000-12,엘파크 독산,32073,37.4682199380858,126.889040516592
서울특별시 서대문구 북아현동 1011,신촌푸르지오,157000,37.5602053578652,126.952106970386
서울특별시 동대문구 전농동 97-4,아크로이스,25011,37.5872080895962,127.053136399476
서울특별시 동대문구 용두동 138-32,타워빌,58000,37.5799143909079,127.031107608954
서울특별시 동대문구 전농동 97-4,아크로이스,24995,37.5872080895962,127.053136399476
서울특별시 금천구 독산동 1000-12,엘파크 독산,31982,37.4682199380858,126.889040516592
서울특별시 관악구 신림동 610-168,우송아르떼빌,22000,37.4749883068623,126.923418632942
서울특별시 관악구 신림동 1735,관악산휴먼시아2단지,67000,37.4591090840362,126.920038790033
서울특별시 동대문구 전농동 97-4,아크로이스,24995,37.5872080895962,127.053136399476
서울특별시 노원구 상계동 1110,두산,42000,37.677384417801,127.053148160922
서울특별시 강서구 화곡동 400-62,우성수현빌라,18500,37.5381676909347,126.840174262049
서울특별시 강동구 둔촌동 630,둔촌푸르지오,118800,37.5341452290037,127.146518101181
서울특별시 강동구 명일동 47-4,(47-4),21300,37.5541414994773,127.155155655044
서울특별시 중랑구 면목동 1513,면목삼호101,52200,37.5764203108934,127.088449167558
서울특별시 강서구 염창동 257,리버펠리스1동,147000,37.5509526130138,126.877154099702
서울특별시 노원구 월계동 923,초안1,26500,37.6329811765686,127.04430328766
서울특별시 동대문구 전농동 97-4,아크로이스,25011,37.5872080895962,127.053136399476
서울특별시 강북구 수유동 279-56,새샘,20450,37.6488720512159,127.014570945641
서울특별시 금천구 독산동 1000-12,엘파크 독산,31982,37.4682199380858,126.889040516592
서울특별시 강북구 수유동 279-56,새샘,19950,37.6488720512159,127.014570945641
서울특별시 동대문구 전농동 97-4,아크로이스,25011,37.5872080895962,127.053136399476
서울특별시 금천구 독산동 1000-12,엘파크 독산,31982,37.4682199380858,126.889040516592
서울특별시 금천구 독산동 1000-12,엘파크 독산,31982,37.4682199380858,126.889040516592
서울특별시 구로구 항동 244,우남퍼스트빌더센트럴,74800,37.4771497555445,126.82067737771
서울특별시 은평구 녹번동 126-12,태경쉐르빌(126-12),47000,37.6074226148111,126.929004665145
서울특별시 강남구 도곡동 467,타워팰리스1,367000,37.4882232479436,127.054439125962
서울특별시 동대문구 전농동 97-4,아크로이스,24995,37.5872080895962,127.053136399476
서울특별시 강남구 논현동 167-14,GEOville,17500,37.5077306669621,127.025359908666
서울특별시 강남구 도곡동 467,타워팰리스1,367000,37.4882232479436,127.054439125962
서울특별시 은평구 진관동 102,박석고개1단지힐스테이트(116~131동)BL2-1,113000,37.6330388638858,126.922287528799
서울특별시 은평구 구산동 321-22,한경내담채,40799,37.6156974553345,126.907972626908
서울특별시 은평구 구산동 321-22,한경내담채,41069,37.6156974553345,126.907972626908
서울특별시 금천구 독산동 1000-12,엘파크 독산,32073,37.4682199380858,126.889040516592
서울특별시 중랑구 묵동 383,세방,58500,37.6154121957482,127.083558941061
서울특별시 은평구 구산동 321-22,한경내담채,41339,37.6156974553345,126.907972626908
서울특별시 마포구 아현동 780,애오개아이파크,48000,37.553836554578,126.956008539429
서울특별시 동대문구 전농동 97-4,아크로이스,24995,37.5872080895962,127.053136399476
서울특별시 마포구 신수동 462,신촌숲아이파크,212000,37.5511313387285,126.934179457937
서울특별시 은평구 불광동 635,북한산힐스테이트1차아파트,73000,37.6126197353159,126.937001651616
서울특별시 구로구 천왕동 279-4,네이처힐,11000,37.4859879571059,126.838835838835
서울특별시 구로구 개봉동 330-21,삼미주택104차(330-21),25950,37.4910749608951,126.854387454493
서울특별시 금천구 가산동 234-46,삼익,44000,37.4728973966473,126.892996299156
서울특별시 마포구 대흥동 500-6,자슬린하우스,40000,37.544669186024,126.944508457237
서울특별시 강동구 고덕동 312,배재현대,109000,37.5565174045034,127.152197097039
서울특별시 동대문구 전농동 97-4,아크로이스,25012,37.5872080895962,127.053136399476
서울특별시 강북구 수유동 279-56,새샘,20450,37.6488720512159,127.014570945641
서울특별시 강북구 수유동 279-56,새샘,22360,37.6488720512159,127.014570945641
서울특별시 강동구 암사동 414-2,롯데캐슬퍼스트,132000,37.5566230974592,127.143039980028
서울특별시 양천구 신정동 1198-17,우남파크빌A동,70000,37.5211405334574,126.849606566513
서울특별시 광진구 광장동 127,리버힐오피스텔,65000,37.5501282401338,127.110205798949
서울특별시 도봉구 방학동 701-15,거성학마을아파트,44800,37.6666102018529,127.039453759806
서울특별시 금천구 독산동 1000-12,엘파크 독산,31813,37.4682199380858,126.889040516592
서울특별시 강동구 암사동 499-15,만민하늘애,42500,37.5519958411572,127.129704805334
서울특별시 광진구 광장동 127,리버힐오피스텔,62500,37.5501282401338,127.110205798949
서울특별시 서초구 잠원동 73,신반포2,345000,37.51069847089,127.002864403384
서울특별시 서대문구 홍은동 355,금호,41450,37.5833326790746,126.924723320098
서울특별시 은평구 구산동 3-25,이룸아트힐,24150,37.6113720541523,126.914901532813
서울특별시 금천구 독산동 1000-12,엘파크 독산,32073,37.4682199380858,126.889040516592
서울특별시 영등포구 당산동3가 561,동부센트레빌,130000,37.5244567573023,126.900434866955
서울특별시 강북구 수유동 279-56,새샘,22050,37.6488720512159,127.014570945641
서울특별시 광진구 광장동 577,현대파크빌,173000,37.5441456421547,127.101527301469
서울특별시 금천구 독산동 1000-12,엘파크 독산,31982,37.4682199380858,126.889040516592
서울특별시 동작구 대방동 394-26,리안,13500,37.5001563022921,126.927063380339
서울특별시 금천구 독산동 1000-12,엘파크 독산,32073,37.4682199380858,126.889040516592
서울특별시 금천구 독산동 1000-12,엘파크 독산,31982,37.4682199380858,126.889040516592
서울특별시 금천구 독산동 1000-12,엘파크 독산,32073,37.4682199380858,126.889040516592
서울특별시 금천구 독산동 1000-12,엘파크 독산,31982,37.4682199380858,126.889040516592
서울특별시 금천구 독산동 1000-12,엘파크 독산,32073,37.4682199380858,126.889040516592
서울특별시 은평구 진관동 73,웅신 미켈란의 아침,11900,37.6352911573098,126.919613136714
서울특별시 금천구 독산동 1000-12,엘파크 독산,31982,37.4682199380858,126.889040516592
서울특별시 강동구 암사동 508,삼성광나루,117000,37.5540369094746,127.127100652964
서울특별시 강남구 세곡동 533,세곡푸르지오,145500,37.4667793397486,127.092967002535
서울특별시 금천구 독산동 1000-12,엘파크 독산,31982,37.4682199380858,126.889040516592
서울특별시 동대문구 전농동 97-4,아크로이스,24995,37.5872080895962,127.053136399476
서울특별시 광진구 구의동 218-12,다성리버텔,21500,37.5389649266995,127.092725704127
서울특별시 금천구 독산동 1000-12,엘파크 독산,31813,37.4682199380858,126.889040516592
서울특별시 은평구 구산동 321-22,한경내담채,40799,37.6156974553345,126.907972626908
서울특별시 금천구 독산동 1000-12,엘파크 독산,31982,37.4682199380858,126.889040516592
서울특별시 중구 순화동 217,덕수궁롯데캐슬,42000,37.5635913526827,126.97037127234
서울특별시 은평구 구산동 321-22,한경내담채,40949,37.6156974553345,126.907972626908
서울특별시 금천구 독산동 1000-12,엘파크 독산,31982,37.4682199380858,126.889040516592
서울특별시 금천구 독산동 1022-18,별담채,22500,37.4676990481543,126.902506944181
서울특별시 은평구 구산동 321-22,한경내담채,41069,37.6156974553345,126.907972626908
서울특별시 금천구 독산동 1161,독산솔리힐아파트,50800,37.4754019220317,126.905561566403
서울특별시 금천구 독산동 1000-12,엘파크 독산,32073,37.4682199380858,126.889040516592
서울특별시 은평구 구산동 321-22,한경내담채,40949,37.6156974553345,126.907972626908
서울특별시 동대문구 전농동 97-4,아크로이스,24995,37.5872080895962,127.053136399476
서울특별시 강동구 길동 400,길동우성,72000,37.5371649256151,127.144179292388
서울특별시 동대문구 전농동 97-4,아크로이스,24995,37.5872080895962,127.053136399476
서울특별시 중랑구 상봉동 226-25,풍산쉐르빌102동,18500,37.6025659912291,127.088129167869
서울특별시 금천구 독산동 1000-12,엘파크 독산,31813,37.4682199380858,126.889040516592
서울특별시 금천구 독산동 1000-12,엘파크 독산,32073,37.4682199380858,126.889040516592
서울특별시 강북구 수유동 279-56,새샘,22360,37.6488720512159,127.014570945641
서울특별시 금천구 독산동 1000-12,엘파크 독산,31982,37.4682199380858,126.889040516592
서울특별시 성북구 정릉동 1017,쌍용2,51900,37.5995194259025,127.018274910803
서울특별시 서대문구 홍제동 474,홍제역해링턴플레이스,140000,37.5898207618352,126.947612200935
서울특별시 금천구 독산동 1000-12,엘파크 독산,32073,37.4682199380858,126.889040516592
서울특별시 금천구 독산동 1000-12,엘파크 독산,32073,37.4682199380858,126.889040516592
서울특별시 금천구 독산동 1000-12,엘파크 독산,31982,37.4682199380858,126.889040516592
서울특별시 동대문구 전농동 97-4,아크로이스,24995,37.5872080895962,127.053136399476
서울특별시 금천구 독산동 1000-12,엘파크 독산,32073,37.4682199380858,126.889040516592
서울특별시 금천구 독산동 1000-12,엘파크 독산,32073,37.4682199380858,126.889040516592
서울특별시 은평구 구산동 321-22,한경내담채,41339,37.6156974553345,126.907972626908
서울특별시 강서구 방화동 620-175,공항오피스텔,6850,37.5623430889767,126.807955838632
서울특별시 금천구 독산동 1000-12,엘파크 독산,32073,37.4682199380858,126.889040516592
서울특별시 성북구 길음동 1276,삼부컨비니언,57000,37.6027726439023,127.023775903506
서울특별시 금천구 독산동 1000-12,엘파크 독산,31982,37.4682199380858,126.889040516592
서울특별시 동작구 상도동 279-83,스타시티,52000,37.4961850380083,126.935607787182
서울특별시 강남구 개포동 185,개포주공6단지,333000,37.4890750603132,127.071512090879
서울특별시 동대문구 전농동 97-4,아크로이스,24995,37.5872080895962,127.053136399476
서울특별시 마포구 도화동 82,우성,160000,37.5363678259177,126.947063641704
서울특별시 동대문구 전농동 97-4,아크로이스,24995,37.5872080895962,127.053136399476
서울특별시 금천구 독산동 1000-12,엘파크 독산,31982,37.4682199380858,126.889040516592
서울특별시 금천구 시흥동 982,현대빌라,43000,37.4395409868147,126.902001544565
서울특별시 성동구 하왕십리동 992,무학현대,97000,37.5611862139671,127.027854212704
서울특별시 강남구 논현동 154-1,서진플로렌스154,19000,37.5107276799817,127.029971454372
서울특별시 금천구 독산동 1000-12,엘파크 독산,31982,37.4682199380858,126.889040516592
서울특별시 강북구 수유동 279-56,새샘,20332,37.6488720512159,127.014570945641
서울특별시 강북구 수유동 279-56,새샘,22450,37.6488720512159,127.014570945641
서울특별시 노원구 상계동 720,상계주공6(고층),48500,37.6537976139077,127.064748595375
서울특별시 성동구 옥수동 428,극동,215000,37.5433115020991,127.011630637835
서울특별시 양천구 목동 231-30,법원하이츠빌라,25700,37.5419033557763,126.870914200741
서울특별시 강북구 수유동 279-56,새샘,22450,37.6488720512159,127.014570945641
서울특별시 금천구 독산동 1000-12,엘파크 독산,31982,37.4682199380858,126.889040516592
서울특별시 강북구 수유동 279-56,새샘,22050,37.6488720512159,127.014570945641
서울특별시 동작구 사당동 105,사당우성3,119000,37.4896946254326,126.975650061703
서울특별시 구로구 온수동 155,온수힐스테이트,69000,37.4967519762673,126.821333676511
서울특별시 동대문구 전농동 97-4,아크로이스,24995,37.5872080895962,127.053136399476
서울특별시 금천구 독산동 1000-12,엘파크 독산,32073,37.4682199380858,126.889040516592
서울특별시 성북구 돈암동 609-1,한신,67000,37.5941783218836,127.010321322145
서울특별시 강북구 수유동 279-56,새샘,19552,37.6488720512159,127.014570945641
서울특별시 양천구 목동 925,목동신시가지7,210000,37.5288232909409,126.867840519363
서울특별시 금천구 독산동 1000-12,엘파크 독산,31813,37.4682199380858,126.889040516592
서울특별시 서대문구 홍은동 453-2,풍림2,71000,37.593375689781,126.943080365457
서울특별시 도봉구 창동 30,창동주공18단지,41000,37.6464611137803,127.051742474665
서울특별시 금천구 독산동 1000-12,엘파크 독산,31982,37.4682199380858,126.889040516592
서울특별시 동대문구 전농동 97-4,아크로이스,24995,37.5872080895962,127.053136399476
서울특별시 강북구 수유동 279-56,새샘,20332,37.6488720512159,127.014570945641
서울특별시 금천구 독산동 1000-12,엘파크 독산,32073,37.4682199380858,126.889040516592
서울특별시 중구 순화동 151,순화동더샵,123000,37.5601777993529,126.972065464999
서울특별시 성동구 행당동 375,행당두산위브,128700,37.5567045410466,127.031529834865
서울특별시 성동구 응봉동 265-45,(265-45),41000,37.552922957916,127.030172131113
서울특별시 금천구 독산동 1000-12,엘파크 독산,31813,37.4682199380858,126.889040516592
서울특별시 중구 중림동 355,브라운스톤서울,26900,37.5606358272505,126.968341179709
서울특별시 금천구 독산동 1000-12,엘파크 독산,32073,37.4682199380858,126.889040516592
서울특별시 관악구 신림동 610-163,한마음빌라1차,21000,37.4753022099077,126.923683646561
서울특별시 금천구 독산동 1000-12,엘파크 독산,31982,37.4682199380858,126.889040516592
서울특별시 강북구 미아동 1354,벽산라이브파크,51700,37.6211496720682,127.010827075164
서울특별시 도봉구 쌍문동 425-3,루미에르,22000,37.6523156521834,127.013444535713
서울특별시 영등포구 당산동4가 29,한강아파트,109000,37.5279617763568,126.902744092762
서울특별시 동대문구 전농동 97-4,아크로이스,24995,37.5872080895962,127.053136399476
서울특별시 서대문구 남가좌동 388,DMC센트럴아이파크,121500,37.5793624340491,126.920840268509
서울특별시 강서구 방화동 814,방화5,47000,37.5771889702167,126.810252932489
서울특별시 강북구 수유동 279-56,새샘,22050,37.6488720512159,127.014570945641
서울특별시 동대문구 전농동 97-4,아크로이스,24995,37.5872080895962,127.053136399476
서울특별시 금천구 독산동 1000-12,엘파크 독산,32073,37.4682199380858,126.889040516592
서울특별시 강서구 화곡동 1073-28,에스케이바움하우스(1073-28),22900,37.5401804681712,126.837100880819
서울특별시 금천구 독산동 1000-12,엘파크 독산,32073,37.4682199380858,126.889040516592
서울특별시 강서구 가양동 1475,강변,62500,37.5652163063579,126.855667621933
서울특별시 금천구 독산동 1000-12,엘파크 독산,32073,37.4682199380858,126.889040516592
서울특별시 은평구 구산동 321-22,한경내담채,41189,37.6156974553345,126.907972626908
서울특별시 동대문구 전농동 97-4,아크로이스,25011,37.5872080895962,127.053136399476
서울특별시 송파구 잠실동 251-11,소미골드라인,37000,37.5053895708608,127.088311125438
서울특별시 강북구 수유동 279-56,새샘,20450,37.6488720512159,127.014570945641
서울특별시 동대문구 전농동 97-4,아크로이스,24995,37.5872080895962,127.053136399476
서울특별시 동대문구 전농동 97-4,아크로이스,24995,37.5872080895962,127.053136399476
서울특별시 금천구 독산동 1000-12,엘파크 독산,31813,37.4682199380858,126.889040516592
서울특별시 성북구 장위동 219-314,더커먼즈37,34000,37.6161245717586,127.044883396472
서울특별시 금천구 독산동 1000-12,엘파크 독산,31813,37.4682199380858,126.889040516592
서울특별시 은평구 수색동 313-3,그린아트빌,29000,37.5876418285351,126.888001297695
서울특별시 금천구 독산동 1000-12,엘파크 독산,31813,37.4682199380858,126.889040516592
서울특별시 금천구 독산동 1000-12,엘파크 독산,31982,37.4682199380858,126.889040516592
서울특별시 강북구 미아동 129-4,행복빌라,30000,37.6226455499597,127.031228486423
서울특별시 강서구 염창동 295,성원,76000,37.5555795293289,126.872085952226
서울특별시 성북구 정릉동 1018,길음뉴타운데시앙,49900,37.6064185309777,127.016134917617
서울특별시 성동구 성수동1가 656-234,서울숲대림,161000,37.5420589174559,127.04532053837
서울특별시 동대문구 전농동 97-4,아크로이스,24995,37.5872080895962,127.053136399476
서울특별시 금천구 독산동 1000-12,엘파크 독산,31813,37.4682199380858,126.889040516592
서울특별시 동대문구 전농동 97-4,아크로이스,25011,37.5872080895962,127.053136399476
서울특별시 영등포구 신길동 1341,아침빌라,47000,37.5145312244507,126.924939750269
서울특별시 성동구 하왕십리동 1070,센트라스,195000,37.5663313038338,127.028440866987
서울특별시 금천구 독산동 1000-12,엘파크 독산,32073,37.4682199380858,126.889040516592
서울특별시 성북구 상월곡동 101,동아에코빌,60000,37.6078992370885,127.045423992015
서울특별시 노원구 상계동 740,상계주공2(고층),35000,37.6497540150085,127.058517787643
서울특별시 서초구 반포동 70-1,한신서래,271000,37.4991035542235,127.000884124091
서울특별시 도봉구 도봉동 571,도봉산리베니움,43500,37.6856420049315,127.043139662808
서울특별시 강북구 수유동 279-56,새샘,20450,37.6488720512159,127.014570945641
서울특별시 은평구 녹번동 282,힐스테이트녹번,104500,37.6017858743741,126.936661658569
서울특별시 동대문구 전농동 97-4,아크로이스,25011,37.5872080895962,127.053136399476
서울특별시 동대문구 전농동 97-4,아크로이스,24995,37.5872080895962,127.053136399476
서울특별시 동대문구 전농동 97-4,아크로이스,24995,37.5872080895962,127.053136399476
서울특별시 동대문구 전농동 97-4,아크로이스,24995,37.5872080895962,127.053136399476
서울특별시 성북구 하월곡동 225,래미안월곡,90000,37.610440395666,127.036873189543
서울특별시 용산구 도원동 23,삼성래미안,147800,37.5382964045291,126.955316835387
서울특별시 강북구 수유동 279-56,새샘,22050,37.6488720512159,127.014570945641
서울특별시 강북구 수유동 279-56,새샘,22050,37.6488720512159,127.014570945641
서울특별시 금천구 독산동 1000-12,엘파크 독산,32073,37.4682199380858,126.889040516592
서울특별시 은평구 구산동 321-22,한경내담채,41189,37.6156974553345,126.907972626908
서울특별시 금천구 독산동 1000-12,엘파크 독산,32073,37.4682199380858,126.889040516592
서울특별시 동대문구 전농동 97-4,아크로이스,24995,37.5872080895962,127.053136399476
서울특별시 금천구 독산동 1000-12,엘파크 독산,31982,37.4682199380858,126.889040516592
서울특별시 중구 황학동 1229,힐스테이트 청계 센트럴,44000,37.5686911359537,127.020442613656
서울특별시 금천구 독산동 1000-12,엘파크 독산,32073,37.4682199380858,126.889040516592
서울특별시 금천구 독산동 1000-12,엘파크 독산,31982,37.4682199380858,126.889040516592
서울특별시 동대문구 전농동 97-4,아크로이스,25011,37.5872080895962,127.053136399476
서울특별시 동대문구 전농동 97-4,아크로이스,24995,37.5872080895962,127.053136399476
서울특별시 금천구 독산동 1000-12,엘파크 독산,32073,37.4682199380858,126.889040516592
서울특별시 동대문구 전농동 97-4,아크로이스,24995,37.5872080895962,127.053136399476
서울특별시 금천구 독산동 1000-12,엘파크 독산,31982,37.4682199380858,126.889040516592
서울특별시 동대문구 전농동 97-4,아크로이스,24995,37.5872080895962,127.053136399476
서울특별시 동대문구 전농동 97-4,아크로이스,24995,37.5872080895962,127.053136399476
서울특별시 동작구 사당동 1025-19,감골,29500,37.4798083055204,126.977918184663
서울특별시 금천구 독산동 1000-12,엘파크 독산,32073,37.4682199380858,126.889040516592
서울특별시 관악구 남현동 602-150,카사빌,60000,37.4722490462434,126.979602899004
서울특별시 송파구 가락동 77-4,송파KCC웰츠타워,25950,37.4957238030259,127.122150044483
서울특별시 중구 만리동2가 273,서울역센트럴자이,194000,37.5537819672024,126.96402989384
서울특별시 금천구 독산동 1000-12,엘파크 독산,32073,37.4682199380858,126.889040516592
서울특별시 강동구 암사동 455-9,신주리버빌(455-9),39500,37.5533878443191,127.134885205521
서울특별시 금천구 시흥동 1013,관악산벽산타운5,41500,37.4479160600139,126.918442104095
서울특별시 중구 충무로5가 36-2,충무로엘크루메크로시티2차,33500,37.5633835164692,127.000001584595
서울특별시 금천구 독산동 1000-12,엘파크 독산,32073,37.4682199380858,126.889040516592
서울특별시 금천구 독산동 1000-12,엘파크 독산,31982,37.4682199380858,126.889040516592
서울특별시 금천구 독산동 1000-12,엘파크 독산,31813,37.4682199380858,126.889040516592
서울특별시 금천구 독산동 972-45,명성빌,16500,37.4758908140378,126.902461257453
서울특별시 동대문구 전농동 97-4,아크로이스,25011,37.5872080895962,127.053136399476
서울특별시 강동구 명일동 359,래미안솔베뉴,140500,37.5524804591506,127.145208524251
서울특별시 금천구 독산동 1000-12,엘파크 독산,31982,37.4682199380858,126.889040516592
서울특별시 성동구 하왕십리동 1070,센트라스,195000,37.5663313038338,127.028440866987
서울특별시 금천구 독산동 1000-12,엘파크 독산,31982,37.4682199380858,126.889040516592
서울특별시 도봉구 창동 632-78,고탑빌라101,41200,37.6399044969916,127.034397949709
서울특별시 금천구 독산동 1000-12,엘파크 독산,31982,37.4682199380858,126.889040516592
서울특별시 강북구 수유동 279-56,새샘,22050,37.6488720512159,127.014570945641
서울특별시 강북구 수유동 279-56,새샘,19950,37.6488720512159,127.014570945641
서울특별시 금천구 독산동 1000-12,엘파크 독산,32073,37.4682199380858,126.889040516592
서울특별시 동대문구 전농동 97-4,아크로이스,24995,37.5872080895962,127.053136399476
서울특별시 강남구 자곡동 611,래미안강남힐즈,215000,37.4741297968581,127.094086602214
서울특별시 금천구 독산동 1000-12,엘파크 독산,31982,37.4682199380858,126.889040516592
서울특별시 동대문구 전농동 97-4,아크로이스,24995,37.5872080895962,127.053136399476
서울특별시 동대문구 전농동 97-4,아크로이스,24995,37.5872080895962,127.053136399476
서울특별시 동대문구 전농동 97-4,아크로이스,24995,37.5872080895962,127.053136399476
서울특별시 강북구 수유동 279-56,새샘,20072,37.6488720512159,127.014570945641
서울특별시 금천구 독산동 1000-12,엘파크 독산,32073,37.4682199380858,126.889040516592
서울특별시 노원구 월계동 13,미성,57500,37.6245905661541,127.065415722199
서울특별시 서초구 서초동 1337-6,강남 효성 해링턴 타워,22000,37.4912352709786,127.029075562052
서울특별시 동작구 상도동 470-9,TS팰리스(470-9),29000,37.4972573430688,126.950611499066
서울특별시 노원구 하계동 284,한신2,45000,37.6378661643059,127.06870677712
서울특별시 강동구 암사동 516-8,미호리버빌,29200,37.5506805115448,127.124138263034
서울특별시 금천구 독산동 1000-12,엘파크 독산,31982,37.4682199380858,126.889040516592
서울특별시 동대문구 전농동 97-4,아크로이스,25011,37.5872080895962,127.053136399476
서울특별시 강북구 수유동 279-56,새샘,19950,37.6488720512159,127.014570945641
서울특별시 광진구 자양동 639-19,한강아트빌(639-19),69500,37.5300091227681,127.079293765035
서울특별시 금천구 독산동 1000-12,엘파크 독산,31982,37.4682199380858,126.889040516592
서울특별시 동작구 상도동 285-14,도담마을,59900,37.4947579080474,126.93425282368
서울특별시 송파구 가락동 70-19,대림,110000,37.4994928340784,127.118580429262
서울특별시 강북구 수유동 279-56,새샘,20450,37.6488720512159,127.014570945641
서울특별시 성북구 성북동1가 35-22,휴아름스튜디오,17000,37.5884380675385,127.005414564243
서울특별시 은평구 갈현동 435-35,태경쉐르빌(A),23000,37.6224794247032,126.916273998157
서울특별시 동대문구 전농동 97-4,아크로이스,25011,37.5872080895962,127.053136399476
서울특별시 동대문구 전농동 97-4,아크로이스,24995,37.5872080895962,127.053136399476
서울특별시 금천구 독산동 1000-12,엘파크 독산,31982,37.4682199380858,126.889040516592
서울특별시 서초구 서초동 1509-1,서초한빛삼성,139500,37.4881042475702,127.007924176834
서울특별시 용산구 이태원동 729,남산대림,152500,37.5407094589822,126.9888250863
서울특별시 금천구 독산동 1000-12,엘파크 독산,32073,37.4682199380858,126.889040516592
서울특별시 강동구 상일동 519,고덕아르테온,134500,37.5555369138929,127.164445782028
서울특별시 동대문구 용두동 795,이편한세상청계센트럴포레,127000,37.5716477982277,127.029219765505
서울특별시 구로구 개봉동 503,세이지움개봉,22500,37.4927045475181,126.855656876682
서울특별시 노원구 하계동 274,청솔(시영7),55500,37.6324803379916,127.071299559248
서울특별시 구로구 개봉동 503,세이지움개봉,22900,37.4927045475181,126.855656876682
서울특별시 강서구 염창동 283-2,팔레시움,10000,37.5478080405923,126.877501801015
서울특별시 은평구 갈현동 510-11,웰튼빌,20700,37.6158915740291,126.912170889859
서울특별시 구로구 개봉동 503,세이지움개봉,22250,37.4927045475181,126.855656876682
서울특별시 동작구 상도동 279-265,제니스빌,48500,37.4954644146799,126.936442956695
서울특별시 구로구 개봉동 503,세이지움개봉,22400,37.4927045475181,126.855656876682
서울특별시 동대문구 용두동 39-60,제이더블유베르데2,36000,37.5763130704585,127.042274116165
서울특별시 구로구 개봉동 503,세이지움개봉,21850,37.4927045475181,126.855656876682
서울특별시 중랑구 면목동 142-64,포인트아파트에이동,50000,37.5893248503042,127.081605176463
서울특별시 동작구 사당동 1157,이수역리가,147000,37.4894898027989,126.973853272882
서울특별시 중구 황학동 19,주건축물제1동,18500,37.5701533168687,127.018529781165
서울특별시 구로구 개봉동 503,세이지움개봉,22000,37.4927045475181,126.855656876682
서울특별시 도봉구 방학동 647-34,인성하이츠빌라,22500,37.6686527446106,127.040458171281
서울특별시 구로구 구로동 166-34,유니아트빌,35000,37.4874520347694,126.895426010029
서울특별시 노원구 하계동 273,장미(시영6),54750,37.6337021175518,127.067865375948
서울특별시 구로구 개봉동 503,세이지움개봉,22700,37.4927045475181,126.855656876682
서울특별시 구로구 개봉동 503,세이지움개봉,20950,37.4927045475181,126.855656876682
서울특별시 강서구 내발산동 767,센타스퀘어발산,36800,37.5578423496679,126.841390775473
서울특별시 구로구 개봉동 503,세이지움개봉,22400,37.4927045475181,126.855656876682
서울특별시 강동구 고덕동 693,고덕그라시움,160000,37.5580690838901,127.163465686409
서울특별시 구로구 개봉동 503,세이지움개봉,21850,37.4927045475181,126.855656876682
서울특별시 구로구 개봉동 503,세이지움개봉,22400,37.4927045475181,126.855656876682
서울특별시 구로구 개봉동 503,세이지움개봉,22900,37.4927045475181,126.855656876682
서울특별시 구로구 개봉동 503,세이지움개봉,20850,37.4927045475181,126.855656876682
서울특별시 양천구 신정동 1293,학마을1단지,45000,37.5080526501106,126.844319085147
서울특별시 구로구 개봉동 503,세이지움개봉,22300,37.4927045475181,126.855656876682
서울특별시 구로구 개봉동 503,세이지움개봉,22300,37.4927045475181,126.855656876682
서울특별시 구로구 개봉동 503,세이지움개봉,22500,37.4927045475181,126.855656876682
서울특별시 송파구 문정동 145,문정시영,64000,37.4906077558731,127.135334557332
서울특별시 강서구 내발산동 767,센타스퀘어발산,33350,37.5578423496679,126.841390775473
서울특별시 노원구 하계동 354,학여울청구,92000,37.636349632113,127.061339558817
서울특별시 구로구 개봉동 503,세이지움개봉,22900,37.4927045475181,126.855656876682
서울특별시 양천구 목동 502-5,이가채,26000,37.5466793766092,126.869445069564
서울특별시 구로구 개봉동 503,세이지움개봉,22500,37.4927045475181,126.855656876682
서울특별시 강동구 천호동 46-5,우정아파트,58900,37.5441734311924,127.1412021827
서울특별시 강서구 내발산동 767,센타스퀘어발산,32800,37.5578423496679,126.841390775473
서울특별시 강남구 삼성동 189,래미안라클래시,307000,37.5177086025156,127.049864848381
서울특별시 강서구 내발산동 767,센타스퀘어발산,31650,37.5578423496679,126.841390775473
서울특별시 강서구 내발산동 767,센타스퀘어발산,36650,37.5578423496679,126.841390775473
서울특별시 강서구 내발산동 767,센타스퀘어발산,32000,37.5578423496679,126.841390775473
서울특별시 구로구 개봉동 503,세이지움개봉,22900,37.4927045475181,126.855656876682
서울특별시 구로구 개봉동 503,세이지움개봉,22700,37.4927045475181,126.855656876682
서울특별시 강서구 내발산동 767,센타스퀘어발산,36650,37.5578423496679,126.841390775473
서울특별시 구로구 개봉동 503,세이지움개봉,22450,37.4927045475181,126.855656876682
서울특별시 강서구 내발산동 767,센타스퀘어발산,33800,37.5578423496679,126.841390775473
서울특별시 강서구 내발산동 767,센타스퀘어발산,33800,37.5578423496679,126.841390775473
서울특별시 강서구 내발산동 767,센타스퀘어발산,33800,37.5578423496679,126.841390775473
서울특별시 구로구 개봉동 503,세이지움개봉,23050,37.4927045475181,126.855656876682
서울특별시 구로구 개봉동 503,세이지움개봉,22900,37.4927045475181,126.855656876682
서울특별시 구로구 개봉동 503,세이지움개봉,22400,37.4927045475181,126.855656876682
서울특별시 강서구 내발산동 767,센타스퀘어발산,31500,37.5578423496679,126.841390775473
서울특별시 강서구 내발산동 767,센타스퀘어발산,37000,37.5578423496679,126.841390775473
서울특별시 마포구 현석동 222,강변힐스테이트,144000,37.543330888333,126.933280962995
서울특별시 강서구 내발산동 767,센타스퀘어발산,32650,37.5578423496679,126.841390775473
서울특별시 강서구 내발산동 767,센타스퀘어발산,36800,37.5578423496679,126.841390775473
서울특별시 강서구 내발산동 767,센타스퀘어발산,32850,37.5578423496679,126.841390775473
서울특별시 광진구 자양동 843-1,스위트자양3차,64000,37.5377615783372,127.06470436459
서울특별시 강서구 내발산동 767,센타스퀘어발산,35750,37.5578423496679,126.841390775473
서울특별시 구로구 개봉동 503,세이지움개봉,22400,37.4927045475181,126.855656876682
서울특별시 강서구 내발산동 767,센타스퀘어발산,37550,37.5578423496679,126.841390775473
서울특별시 강북구 미아동 1357,삼각산아이원,63930,37.6152263118285,127.01812709371
서울특별시 구로구 개봉동 503,세이지움개봉,20950,37.4927045475181,126.855656876682
서울특별시 구로구 개봉동 503,세이지움개봉,22900,37.4927045475181,126.855656876682
서울특별시 강서구 내발산동 767,센타스퀘어발산,37550,37.5578423496679,126.841390775473
서울특별시 구로구 개봉동 503,세이지움개봉,22900,37.4927045475181,126.855656876682
서울특별시 노원구 월계동 320-11,사슴3,32800,37.6317295957652,127.059686274576
서울특별시 강서구 마곡동 776-2,마곡센트럴대방디엠시티오피스텔,18300,37.5683003529794,126.84029723385
서울특별시 구로구 개봉동 503,세이지움개봉,20850,37.4927045475181,126.855656876682
서울특별시 강서구 내발산동 767,센타스퀘어발산,36800,37.5578423496679,126.841390775473
서울특별시 영등포구 신길동 897-1,삼환,88000,37.5081540942389,126.919331418736
서울특별시 서대문구 남가좌동 376,남가좌동현대,76000,37.5749918612212,126.920125943504
서울특별시 강서구 내발산동 767,센타스퀘어발산,36800,37.5578423496679,126.841390775473
서울특별시 영등포구 영등포동7가 94-52,루브르씨티,23000,37.5255358098181,126.908935350244
서울특별시 구로구 개봉동 503,세이지움개봉,22400,37.4927045475181,126.855656876682
서울특별시 강서구 내발산동 767,센타스퀘어발산,36250,37.5578423496679,126.841390775473
서울특별시 구로구 개봉동 503,세이지움개봉,22500,37.4927045475181,126.855656876682
서울특별시 동대문구 신설동 96-48,신설동역자이르네,69000,37.5738687697392,127.026060394596
서울특별시 강서구 내발산동 767,센타스퀘어발산,35750,37.5578423496679,126.841390775473
서울특별시 구로구 개봉동 503,세이지움개봉,22300,37.4927045475181,126.855656876682
서울특별시 강서구 내발산동 767,센타스퀘어발산,36650,37.5578423496679,126.841390775473
서울특별시 노원구 공릉동 754,삼익2차아파트,44500,37.6259574192854,127.080613565961
서울특별시 강서구 내발산동 767,센타스퀘어발산,35750,37.5578423496679,126.841390775473
서울특별시 구로구 개봉동 503,세이지움개봉,22500,37.4927045475181,126.855656876682
서울특별시 구로구 개봉동 503,세이지움개봉,22900,37.4927045475181,126.855656876682
서울특별시 구로구 개봉동 503,세이지움개봉,22000,37.4927045475181,126.855656876682
서울특별시 강서구 내발산동 767,센타스퀘어발산,35750,37.5578423496679,126.841390775473
서울특별시 구로구 개봉동 503,세이지움개봉,22000,37.4927045475181,126.855656876682
서울특별시 중랑구 신내동 648,디아뜨갤러리,15300,37.6169574275825,127.0912920142
서울특별시 강서구 가양동 237-1,아트리버빌5차,22000,37.5721994863072,126.84008990508
서울특별시 강서구 내발산동 767,센타스퀘어발산,36800,37.5578423496679,126.841390775473
서울특별시 강남구 논현동 273-2,파크쉐르빌,43800,37.5111126703581,127.038957005361
서울특별시 구로구 개봉동 503,세이지움개봉,21200,37.4927045475181,126.855656876682
서울특별시 강동구 성내동 505,뉴삼성빌(505),43500,37.5322881827205,127.130210112267
서울특별시 강서구 내발산동 767,센타스퀘어발산,33500,37.5578423496679,126.841390775473
서울특별시 강서구 내발산동 767,센타스퀘어발산,37550,37.5578423496679,126.841390775473
서울특별시 구로구 개봉동 503,세이지움개봉,20950,37.4927045475181,126.855656876682
서울특별시 구로구 개봉동 503,세이지움개봉,22500,37.4927045475181,126.855656876682
서울특별시 강서구 내발산동 767,센타스퀘어발산,32500,37.5578423496679,126.841390775473
서울특별시 구로구 개봉동 503,세이지움개봉,47700,37.4927045475181,126.855656876682
서울특별시 구로구 개봉동 503,세이지움개봉,22500,37.4927045475181,126.855656876682
서울특별시 중랑구 면목동 178-50,다울101동,49000,37.5880002186558,127.077996118578
서울특별시 관악구 봉천동 856-1,대우디오슈페리움2단지,84000,37.4802678000181,126.953141656992
서울특별시 구로구 개봉동 503,세이지움개봉,22550,37.4927045475181,126.855656876682
서울특별시 강서구 내발산동 767,센타스퀘어발산,37550,37.5578423496679,126.841390775473
서울특별시 강서구 내발산동 767,센타스퀘어발산,37550,37.5578423496679,126.841390775473
서울특별시 노원구 공릉동 400-8,신한양아파트,31700,37.6244535619809,127.072007241656
서울특별시 구로구 개봉동 472,두산,47500,37.4950033610049,126.852653178887
서울특별시 강서구 내발산동 767,센타스퀘어발산,37400,37.5578423496679,126.841390775473
서울특별시 구로구 개봉동 503,세이지움개봉,22500,37.4927045475181,126.855656876682
서울특별시 구로구 개봉동 503,세이지움개봉,23050,37.4927045475181,126.855656876682
서울특별시 강남구 삼성동 50,현대힐스테이트2단지,135000,37.5138589096778,127.051485875359
서울특별시 광진구 자양동 57-103,한강극동,119000,37.5337685742881,127.064448158666
서울특별시 강서구 내발산동 767,센타스퀘어발산,36650,37.5578423496679,126.841390775473
서울특별시 구로구 개봉동 503,세이지움개봉,22400,37.4927045475181,126.855656876682
서울특별시 구로구 개봉동 503,세이지움개봉,38200,37.4927045475181,126.855656876682
서울특별시 구로구 개봉동 503,세이지움개봉,21850,37.4927045475181,126.855656876682
서울특별시 강서구 내발산동 767,센타스퀘어발산,35750,37.5578423496679,126.841390775473
서울특별시 구로구 개봉동 503,세이지움개봉,20850,37.4927045475181,126.855656876682
서울특별시 강서구 내발산동 767,센타스퀘어발산,36250,37.5578423496679,126.841390775473
서울특별시 강서구 내발산동 767,센타스퀘어발산,37550,37.5578423496679,126.841390775473
서울특별시 구로구 개봉동 503,세이지움개봉,22450,37.4927045475181,126.855656876682
서울특별시 강서구 내발산동 767,센타스퀘어발산,37550,37.5578423496679,126.841390775473
서울특별시 구로구 개봉동 503,세이지움개봉,21850,37.4927045475181,126.855656876682
서울특별시 구로구 개봉동 503,세이지움개봉,21850,37.4927045475181,126.855656876682
서울특별시 구로구 개봉동 503,세이지움개봉,22550,37.4927045475181,126.855656876682
서울특별시 노원구 중계동 502-1,중계그린1단지,52700,37.6443713328952,127.063281683752
서울특별시 구로구 개봉동 503,세이지움개봉,22000,37.4927045475181,126.855656876682
서울특별시 구로구 개봉동 503,세이지움개봉,22900,37.4927045475181,126.855656876682
서울특별시 강서구 내발산동 767,센타스퀘어발산,36650,37.5578423496679,126.841390775473
서울특별시 구로구 개봉동 503,세이지움개봉,22550,37.4927045475181,126.855656876682
서울특별시 영등포구 영등포동7가 203,아크로타워스퀘어,171700,37.5243801067433,126.906871180548
서울특별시 광진구 자양동 601-10,시그니처601,52600,37.5318221606932,127.075515982634
서울특별시 구로구 개봉동 503,세이지움개봉,22500,37.4927045475181,126.855656876682
서울특별시 구로구 개봉동 503,세이지움개봉,22000,37.4927045475181,126.855656876682
서울특별시 구로구 개봉동 503,세이지움개봉,21200,37.4927045475181,126.855656876682
서울특별시 구로구 개봉동 503,세이지움개봉,22900,37.4927045475181,126.855656876682
서울특별시 강서구 내발산동 767,센타스퀘어발산,35750,37.5578423496679,126.841390775473
서울특별시 구로구 개봉동 503,세이지움개봉,22900,37.4927045475181,126.855656876682
서울특별시 구로구 개봉동 503,세이지움개봉,22500,37.4927045475181,126.855656876682
서울특별시 구로구 개봉동 503,세이지움개봉,22900,37.4927045475181,126.855656876682
서울특별시 구로구 개봉동 503,세이지움개봉,22900,37.4927045475181,126.855656876682
서울특별시 구로구 개봉동 503,세이지움개봉,20800,37.4927045475181,126.855656876682
서울특별시 강서구 내발산동 767,센타스퀘어발산,36800,37.5578423496679,126.841390775473
서울특별시 구로구 개봉동 503,세이지움개봉,20900,37.4927045475181,126.855656876682
서울특별시 구로구 개봉동 503,세이지움개봉,21850,37.4927045475181,126.855656876682
서울특별시 양천구 신월동 1039,신월2차보람쉬움,48200,37.5246233061067,126.837135957763
서울특별시 서대문구 홍은동 10-209,홍은그랜드빌,26500,37.6019317626488,126.947129671407
서울특별시 성북구 길음동 1287-1,롯데캐슬골든힐스,79400,37.6089183504682,127.015960479682
서울특별시 구로구 개봉동 503,세이지움개봉,20800,37.4927045475181,126.855656876682
서울특별시 강남구 논현동 23-14,그랑빌,112000,37.5134840622886,127.022062550791
서울특별시 구로구 개봉동 503,삼성타운,57600,37.4927045475181,126.855656876682
서울특별시 구로구 개봉동 503,센타스퀘어발산,35750,37.4927045475181,126.855656876682
서울특별시 구로구 개봉동 503,중앙하이츠빌2단지,73000,37.4927045475181,126.855656876682
서울특별시 구로구 개봉동 503,센타스퀘어발산,36450,37.4927045475181,126.855656876682
서울특별시 구로구 개봉동 503,센타스퀘어발산,37550,37.4927045475181,126.855656876682
서울특별시 구로구 개봉동 503,에스케이북한산시티,64000,37.4927045475181,126.855656876682
서울특별시 은평구 대조동 231,삼익그린2차,141500,37.609031353119,126.9217710449
서울특별시 강서구 내발산동 767,일신건영휴먼빌아파트,102000,37.5578423496679,126.841390775473
서울특별시 구로구 개봉동 503,유원하나,60000,37.4927045475181,126.855656876682
서울특별시 성북구 정릉동 435,강남구청역 에스케이 허브 블루,98000,37.6037394590557,127.010309279898
서울특별시 구로구 개봉동 503,신촌가이아,27700,37.4927045475181,126.855656876682
서울특별시 구로구 개봉동 503,"에비앙하우스(101동,102동,103동)",28700,37.4927045475181,126.855656876682
서울특별시 구로구 개봉동 503,경희궁자이(3단지),230000,37.4927045475181,126.855656876682
서울특별시 강서구 내발산동 767,원미아트빌라,24100,37.5578423496679,126.841390775473
서울특별시 구로구 개봉동 503,삼익파크맨션,116000,37.4927045475181,126.855656876682
서울특별시 구로구 개봉동 503,래미안세레니티,87500,37.4927045475181,126.855656876682
서울특별시 강서구 내발산동 767,홍지빌리지,19000,37.5578423496679,126.841390775473
서울특별시 강북구 미아동 1353,웅신 미켈란의 아침,11400,37.6179760334621,127.01263074872
서울특별시 강동구 명일동 15,DMC파크뷰자이1단지,137500,37.5532947928121,127.148458988794
서울특별시 구로구 개봉동 503,에스케이허브진,30700,37.4927045475181,126.855656876682
서울특별시 구로구 개봉동 503,"에비앙하우스(101동,102동,103동)",28000,37.4927045475181,126.855656876682
서울특별시 구로구 개봉동 503,배재현대,105500,37.4927045475181,126.855656876682
서울특별시 강서구 내발산동 767,태영아트빌,31300,37.5578423496679,126.841390775473
서울특별시 마포구 합정동 470,당산대우,36300,37.5460264727842,126.917938601227
서울특별시 서대문구 홍제동 454,현대,115000,37.5951296272667,126.952165445079
서울특별시 구로구 개봉동 503,신한아트빌,26500,37.4927045475181,126.855656876682
서울특별시 구로구 개봉동 503,다성이즈빌,31000,37.4927045475181,126.855656876682
서울특별시 구로구 개봉동 503,극동미라주,90000,37.4927045475181,126.855656876682
서울특별시 강서구 내발산동 767,돈의문센트레빌,165000,37.5578423496679,126.841390775473
서울특별시 구로구 개봉동 503,(308-183),8000,37.4927045475181,126.855656876682
서울특별시 구로구 개봉동 503,현대,99250,37.4927045475181,126.855656876682
서울특별시 구로구 개봉동 503,삼익그린2차,140000,37.4927045475181,126.855656876682
서울특별시 구로구 개봉동 503,트윈타워,11000,37.4927045475181,126.855656876682
서울특별시 강남구 논현동 241-3,은평뉴타운꿈에그린,74500,37.5166873524522,127.040590679057
서울특별시 강서구 화곡동 100-32,은평뉴타운엘크루,59900,37.5412211611669,126.846685963619
서울특별시 서대문구 대현동 27-20,혜성맨션,55000,37.5580314270375,126.943156946382
서울특별시 구로구 개봉동 503,"엘지,쌍용아파트",58500,37.4927045475181,126.855656876682
서울특별시 구로구 개봉동 503,목동센트럴아이파크위브4단지,85000,37.4927045475181,126.855656876682
서울특별시 양천구 목동 534-29,우암그린빌라,31300,37.5444456986796,126.873069864589
서울특별시 구로구 개봉동 503,e편한세상신금호파크힐스,189000,37.4927045475181,126.855656876682
서울특별시 종로구 평동 233,까치마을,140000,37.5684690367064,126.965891423182
서울특별시 구로구 개봉동 503,현대하이페리온,149000,37.4927045475181,126.855656876682
서울특별시 구로구 개봉동 503,래미안강남힐즈,182500,37.4927045475181,126.855656876682
서울특별시 구로구 개봉동 503,아크로타워스퀘어,171700,37.4927045475181,126.855656876682
서울특별시 구로구 개봉동 503,그린하우스,30500,37.4927045475181,126.855656876682
서울특별시 구로구 개봉동 503,신대방빌,15000,37.4927045475181,126.855656876682
서울특별시 구로구 개봉동 503,홍제역해링턴플레이스,134000,37.4927045475181,126.855656876682
서울특별시 구로구 개봉동 503,백운빌라(532-1),13500,37.4927045475181,126.855656876682
서울특별시 강서구 내발산동 767,,55000,37.5578423496679,126.841390775473
서울특별시 금천구 시흥동 120-19,래미안영등포프레비뉴,138500,37.4543745030347,126.8987293412
서울특별시 강서구 내발산동 767,논현빌(137-1),18000,37.5578423496679,126.841390775473
서울특별시 구로구 개봉동 503,염광,52000,37.4927045475181,126.855656876682
서울특별시 구로구 개봉동 503,래미안공덕5차,145000,37.4927045475181,126.855656876682
서울특별시 강서구 내발산동 767,서울숲리버뷰자이,178000,37.5578423496679,126.841390775473
서울특별시 구로구 개봉동 503,래미안하이리버,145800,37.4927045475181,126.855656876682
서울특별시 구로구 개봉동 503,꿈의숲푸르지오,71800,37.4927045475181,126.855656876682
서울특별시 구로구 개봉동 503,종로1번가,18800,37.4927045475181,126.855656876682
서울특별시 구로구 개봉동 503,벽산,87000,37.4927045475181,126.855656876682
서울특별시 구로구 개봉동 503,고덕리엔파크3단지,90000,37.4927045475181,126.855656876682
서울특별시 강동구 길동 53,상계주공16(고층),45000,37.5435295214414,127.148590684816
서울특별시 구로구 개봉동 503,꿈의숲푸르지오,71800,37.4927045475181,126.855656876682
서울특별시 성북구 종암동 133,신동아,118500,37.5992448373509,127.031050089448
서울특별시 송파구 오금동 65-2,북한산힐스테이트7차,109000,37.5024665470413,127.134843872802
서울특별시 구로구 개봉동 503,옥수파크힐스117동~125동,198000,37.4927045475181,126.855656876682
서울특별시 구로구 개봉동 503,스타팰리스,27000,37.4927045475181,126.855656876682
서울특별시 은평구 진관동 73,당산대우,36000,37.6352911573098,126.919613136714
서울특별시 구로구 개봉동 503,역삼래미안,250000,37.4927045475181,126.855656876682
서울특별시 구로구 개봉동 503,도담마을,59900,37.4927045475181,126.855656876682
서울특별시 서대문구 남가좌동 385,서강오벨리스크스위트,122000,37.5722579341307,126.917837154419
서울특별시 강서구 내발산동 767,마포동원베네스트,112000,37.5578423496679,126.841390775473
서울특별시 구로구 개봉동 503,대왕빌라(48-62),15400,37.4927045475181,126.855656876682
서울특별시 구로구 개봉동 503,대성유니드1차,45000,37.4927045475181,126.855656876682
서울특별시 강동구 성내동 194,나빈벨라지오,31500,37.5351572291186,127.132727205861
서울특별시 구로구 개봉동 503,우방,42900,37.4927045475181,126.855656876682
서울특별시 구로구 개봉동 503,극동그린,105000,37.4927045475181,126.855656876682
서울특별시 강서구 내발산동 767,동보빌라,134300,37.5578423496679,126.841390775473
서울특별시 양천구 목동 534-29,에스케이북한산시티,58500,37.5444456986796,126.873069864589
서울특별시 구로구 개봉동 503,삼성광나루,112000,37.4927045475181,126.855656876682
서울특별시 구로구 개봉동 503,강변건영아파트,212000,37.4927045475181,126.855656876682
서울특별시 강서구 내발산동 767,진영빌라트,32500,37.5578423496679,126.841390775473
서울특별시 구로구 개봉동 503,길음뉴타운신안파크아파트,48800,37.4927045475181,126.855656876682
서울특별시 구로구 개봉동 503,마포래미안푸르지오2단지,220000,37.4927045475181,126.855656876682
서울특별시 구로구 개봉동 503,동성3,63700,37.4927045475181,126.855656876682
서울특별시 구로구 개봉동 503,개포자이프레지던스,390000,37.4927045475181,126.855656876682
서울특별시 강서구 내발산동 767,월계센트럴아이파크,88500,37.5578423496679,126.841390775473
서울특별시 구로구 개봉동 503,이수역리가,148000,37.4927045475181,126.855656876682
서울특별시 구로구 개봉동 503,,35000,37.4927045475181,126.855656876682
서울특별시 구로구 개봉동 503,블루밍하우스,21700,37.4927045475181,126.855656876682
서울특별시 구로구 개봉동 503,,90000,37.4927045475181,126.855656876682
서울특별시 구로구 개봉동 503,(165-84),40000,37.4927045475181,126.855656876682
서울특별시 구로구 개봉동 503,,68000,37.4927045475181,126.855656876682
서울특별시 구로구 개봉동 503,현대강변,113000,37.4927045475181,126.855656876682
서울특별시 구로구 개봉동 503,정인빌B,49200,37.4927045475181,126.855656876682
서울특별시 구로구 개봉동 503,블루밍하우스,22450,37.4927045475181,126.855656876682
서울특별시 강동구 고덕동 312,정한빌라,27500,37.5565174045034,127.152197097039
서울특별시 구로구 개봉동 503,라루체-1,27000,37.4927045475181,126.855656876682
서울특별시 구로구 개봉동 503,,144000,37.4927045475181,126.855656876682
서울특별시 구로구 개봉동 503,블루밍하우스,24150,37.4927045475181,126.855656876682
서울특별시 광진구 중곡동 293-32,푸르지오시티,13000,37.5692598645996,127.086954799058
서울특별시 구로구 개봉동 503,블루밍하우스,29800,37.4927045475181,126.855656876682
서울특별시 강서구 내발산동 767,,250937,37.5578423496679,126.841390775473
서울특별시 구로구 개봉동 503,,273000,37.4927045475181,126.855656876682
서울특별시 구로구 개봉동 503,블루밍하우스,21900,37.4927045475181,126.855656876682
서울특별시 강서구 내발산동 767,이편한세상강동에코포레,118000,37.5578423496679,126.841390775473
서울특별시 영등포구 당산동2가 16-1,신동아아파트1,38800,37.5211689109638,126.893016993992
서울특별시 구로구 개봉동 503,제이와이빌라,43000,37.4927045475181,126.855656876682
서울특별시 구로구 개봉동 503,마포래미안푸르지오1단지,183000,37.4927045475181,126.855656876682
서울특별시 성동구 마장동 818,제이엘카운티,50000,37.5694595542901,127.042547908615
서울특별시 강서구 내발산동 767,다솜그랑빌B,31500,37.5578423496679,126.841390775473
서울특별시 구로구 개봉동 503,신공덕1차삼성래미안1아파트,172000,37.4927045475181,126.855656876682
서울특별시 구로구 개봉동 503,중앙하이츠,50500,37.4927045475181,126.855656876682
서울특별시 강서구 내발산동 767,두산,84000,37.5578423496679,126.841390775473
서울특별시 구로구 개봉동 503,COZYVILL,27500,37.4927045475181,126.855656876682
서울특별시 구로구 개봉동 503,늘조은빌,34500,37.4927045475181,126.855656876682
서울특별시 구로구 개봉동 503,,162955,37.4927045475181,126.855656876682
서울특별시 구로구 개봉동 503,웨스트빌,20300,37.4927045475181,126.855656876682
서울특별시 도봉구 방학동 690-61,태광아트빌라,24500,37.6633890682058,127.038197867318
서울특별시 구로구 개봉동 503,대동하이츠빌라,70000,37.4927045475181,126.855656876682
서울특별시 구로구 개봉동 503,블루밍하우스,24900,37.4927045475181,126.855656876682
서울특별시 강서구 내발산동 767,로얄하이츠,14000,37.5578423496679,126.841390775473
서울특별시 구로구 개봉동 503,센트럴장안오피스텔,22500,37.4927045475181,126.855656876682
서울특별시 구로구 개봉동 503,푸리마타운,12500,37.4927045475181,126.855656876682
서울특별시 구로구 개봉동 503,샬롬빌리지,30200,37.4927045475181,126.855656876682
서울특별시 강동구 성내동 551-4,로하스빌13차,49000,37.5287076138561,127.122973226554
서울특별시 구로구 개봉동 503,휴젠느,29000,37.4927045475181,126.855656876682
서울특별시 구로구 개봉동 314-3,효민아크로뷰,46800,37.4823608610493,126.851128481562
서울특별시 구로구 개봉동 503,금성빌라,55000,37.4927045475181,126.855656876682
서울특별시 성동구 하왕십리동 1058,석정빌라B,15200,37.5584811461174,127.023300962442
서울특별시 구로구 개봉동 503,신동아아파트1,31700,37.4927045475181,126.855656876682
서울특별시 강서구 내발산동 767,블루밍하우스,21350,37.5578423496679,126.841390775473
서울특별시 구로구 개봉동 503,블루밍하우스,22750,37.4927045475181,126.855656876682
서울특별시 구로구 개봉동 503,청계푸르지오시티,13800,37.4927045475181,126.855656876682
서울특별시 서대문구 냉천동 261,잠실 제니알,25500,37.566139089896,126.961583473485
서울특별시 은평구 구산동 308-183,길음뉴타운3단지푸르지오,70000,37.6173536501807,126.905014654597
서울특별시 구로구 개봉동 503,한진타운,185000,37.4927045475181,126.855656876682
서울특별시 구로구 개봉동 503,현대프라자,57800,37.4927045475181,126.855656876682
서울특별시 구로구 개봉동 503,도양라비앙빌Ⅰ,47000,37.4927045475181,126.855656876682
서울특별시 구로구 개봉동 503,올림픽빌라트,14800,37.4927045475181,126.855656876682
서울특별시 구로구 개봉동 503,우정,110000,37.4927045475181,126.855656876682
서울특별시 구로구 개봉동 503,사당우성3,135000,37.4927045475181,126.855656876682
서울특별시 구로구 개봉동 503,보람,41000,37.4927045475181,126.855656876682
서울특별시 양천구 신정동 1252,에덴캐슬(나동),36500,37.5171420982147,126.874473736299
서울특별시 구로구 개봉동 503,송파법조타운푸르지오시티,17900,37.4927045475181,126.855656876682
서울특별시 강동구 명일동 15,서강GS,116000,37.5532947928121,127.148458988794
서울특별시 구로구 개봉동 503,미성,84000,37.4927045475181,126.855656876682
서울특별시 구로구 개봉동 503,신동아아파트1,33300,37.4927045475181,126.855656876682
서울특별시 구로구 개봉동 503,시영3차(라이프)아파트,50500,37.4927045475181,126.855656876682
서울특별시 구로구 개봉동 503,강남 푸르지오시티 2차(PRUGIO CITYⅡ),14400,37.4927045475181,126.855656876682
서울특별시 구로구 개봉동 503,에코빌(35-16),34300,37.4927045475181,126.855656876682
서울특별시 구로구 개봉동 503,옥수파크힐스101동~116동,232000,37.4927045475181,126.855656876682
서울특별시 구로구 개봉동 503,수정연립3동,29500,37.4927045475181,126.855656876682
서울특별시 구로구 개봉동 503,홍파,64000,37.4927045475181,126.855656876682
서울특별시 구로구 개봉동 503,은성연립가동,40500,37.4927045475181,126.855656876682
서울특별시 강서구 내발산동 767,보람,41000,37.5578423496679,126.841390775473
서울특별시 구로구 개봉동 503,봉천우성,89500,37.4927045475181,126.855656876682
서울특별시 구로구 개봉동 503,시영3차(라이프)아파트,36800,37.4927045475181,126.855656876682
서울특별시 구로구 개봉동 503,두산,100000,37.4927045475181,126.855656876682
서울특별시 구로구 개봉동 503,엔-씨티오피스텔,13500,37.4927045475181,126.855656876682
서울특별시 강서구 내발산동 767,보라매삼성,87800,37.5578423496679,126.841390775473
서울특별시 구로구 개봉동 503,삼익그린2차,122000,37.4927045475181,126.855656876682
서울특별시 구로구 개봉동 503,태영오피스텔,11800,37.4927045475181,126.855656876682
서울특별시 구로구 개봉동 503,도담마을,63000,37.4927045475181,126.855656876682
서울특별시 서초구 양재동 275-4,목동신시가지14,131500,37.4768770767714,127.043926411767
서울특별시 은평구 진관동 66,소윤센트럴파크,42000,37.6399136661294,126.919886990939
서울특별시 구로구 개봉동 503,동원빌라,18000,37.4927045475181,126.855656876682
서울특별시 구로구 개봉동 503,월곡두산위브,73500,37.4927045475181,126.855656876682
서울특별시 구로구 개봉동 503,98-439,17800,37.4927045475181,126.855656876682
서울특별시 강서구 내발산동 767,동원데자뷰,44500,37.5578423496679,126.841390775473
서울특별시 구로구 개봉동 503,삼부,58000,37.4927045475181,126.855656876682
서울특별시 은평구 진관동 65,대우2,143000,37.6395667912613,126.919232371431
서울특별시 강서구 내발산동 767,고덕그라시움,220000,37.5578423496679,126.841390775473
서울특별시 강서구 내발산동 767,청담빌라(95),1500000,37.5578423496679,126.841390775473
서울특별시 구로구 개봉동 503,거성리젠시A동(513-4),29000,37.4927045475181,126.855656876682
서울특별시 구로구 개봉동 503,진흥빌5차,107000,37.4927045475181,126.855656876682
서울특별시 구로구 개봉동 503,장안현대홈타운(336),95000,37.4927045475181,126.855656876682
서울특별시 구로구 개봉동 503,행당한진타운,128000,37.4927045475181,126.855656876682
서울특별시 동작구 상도동 279-98,타워,18000,37.495706444784,126.934988954891
서울특별시 구로구 개봉동 503,블루밍하우스,22000,37.4927045475181,126.855656876682
서울특별시 구로구 개봉동 503,,170000,37.4927045475181,126.855656876682
서울특별시 구로구 개봉동 503,목동신시가지4,164000,37.4927045475181,126.855656876682
서울특별시 중랑구 상봉동 484,극동(105),125000,37.6037624381976,127.090715883139
서울특별시 양천구 신월동 1078,솔루테아파트,58800,37.5180177927167,126.844012878449
서울특별시 구로구 개봉동 503,힐스테이트에코송파,18180,37.4927045475181,126.855656876682
서울특별시 강서구 내발산동 767,더시크릿남현,35500,37.5578423496679,126.841390775473
서울특별시 구로구 개봉동 503,래미안하이리버,155000,37.4927045475181,126.855656876682
서울특별시 구로구 개봉동 503,휘경SK뷰,109800,37.4927045475181,126.855656876682
서울특별시 구로구 개봉동 503,벽산,44800,37.4927045475181,126.855656876682
서울특별시 강서구 내발산동 767,여의나루더명남더블레스,29800,37.5578423496679,126.841390775473
서울특별시 구로구 개봉동 503,이수역리가,147000,37.4927045475181,126.855656876682
서울특별시 도봉구 방학동 625-13,관악산벽산타운5,54300,37.6694410773943,127.038925704788
서울특별시 구로구 개봉동 503,라크레스타,66000,37.4927045475181,126.855656876682
서울특별시 성동구 금호동1가 1823,마로니에빌라,23900,37.5542846887812,127.022691811161
서울특별시 구로구 개봉동 503,블루밍하우스,24500,37.4927045475181,126.855656876682
서울특별시 구로구 개봉동 503,만민하늘애B동,37500,37.4927045475181,126.855656876682
서울특별시 구로구 개봉동 503,우림빌라트,38000,37.4927045475181,126.855656876682
서울특별시 강남구 수서동 746,리치타워,65000,37.4847340598121,127.087618357538
서울특별시 구로구 개봉동 503,시영3차(라이프)아파트,36800,37.4927045475181,126.855656876682
서울특별시 구로구 개봉동 503,삼백훼미리,29000,37.4927045475181,126.855656876682
서울특별시 구로구 개봉동 503,해밀마을1차,34500,37.4927045475181,126.855656876682
서울특별시 강서구 내발산동 767,옥수삼성,158000,37.5578423496679,126.841390775473
서울특별시 구로구 개봉동 503,청명에버아트2차,40800,37.4927045475181,126.855656876682
서울특별시 구로구 개봉동 503,보라매삼성,86500,37.4927045475181,126.855656876682
서울특별시 구로구 개봉동 503,e편한세상신금호파크힐스,155000,37.4927045475181,126.855656876682
서울특별시 구로구 개봉동 503,오션빌16B,41900,37.4927045475181,126.855656876682
서울특별시 양천구 목동 916,관악산휴먼시아1단지,62500,37.5268543255661,126.875034766819
서울특별시 구로구 개봉동 503,가든타워오피스텔,14800,37.4927045475181,126.855656876682
서울특별시 구로구 개봉동 503,블루밍하우스,26850,37.4927045475181,126.855656876682
서울특별시 구로구 개봉동 503,풍산,37000,37.4927045475181,126.855656876682
서울특별시 강남구 자곡동 611,더샵 강동센트럴시티,153907,37.4741297968581,127.094086602214
서울특별시 구로구 개봉동 503,상지빌라가동,20000,37.4927045475181,126.855656876682
서울특별시 구로구 개봉동 503,삼성래미안2,109500,37.4927045475181,126.855656876682
서울특별시 영등포구 영등포동7가 203,동성빌라3차,21200,37.5243801067433,126.906871180548
서울특별시 구로구 개봉동 503,신건영빌리지2차6,19800,37.4927045475181,126.855656876682
서울특별시 구로구 개봉동 503,현대,150000,37.4927045475181,126.855656876682
서울특별시 구로구 개봉동 503,성원(사슴4),55800,37.4927045475181,126.855656876682
서울특별시 강서구 내발산동 767,98-439,17800,37.5578423496679,126.841390775473
서울특별시 구로구 개봉동 503,샘터마을,290000,37.4927045475181,126.855656876682
서울특별시 구로구 개봉동 503,블루밍하우스,22850,37.4927045475181,126.855656876682
서울특별시 구로구 개봉동 503,현대플렉스,25000,37.4927045475181,126.855656876682
서울특별시 구로구 개봉동 503,서울대벤처타운역 푸르지오,88000,37.4927045475181,126.855656876682
서울특별시 구로구 개봉동 503,"엘지,쌍용아파트",62000,37.4927045475181,126.855656876682
서울특별시 광진구 중곡동 258-6,하계2현대,87000,37.560771117775,127.079430141813
서울특별시 동작구 신대방동 601-35,신내9진흥,38000,37.4896494790064,126.91089734609
서울특별시 구로구 개봉동 503,래미안서초3차,205000,37.4927045475181,126.855656876682
서울특별시 서대문구 홍제동 474,성원상떼뷰오피스텔,16000,37.5898207618352,126.947612200935
서울특별시 강북구 수유동 532-1,한신2,47000,37.6431577790292,127.007396974649
서울특별시 강서구 내발산동 767,수서현대벤쳐빌,140000,37.5578423496679,126.841390775473
서울특별시 구로구 개봉동 503,하이캐슬102동,217000,37.4927045475181,126.855656876682
서울특별시 구로구 개봉동 503,세영아트빌(540-17),17900,37.4927045475181,126.855656876682
서울특별시 영등포구 신길동 4945,한진한화그랑빌,105000,37.5048285933144,126.908013434753
서울특별시 구로구 개봉동 503,(210-18),39000,37.4927045475181,126.855656876682
서울특별시 구로구 개봉동 503,도곡렉슬,365000,37.4927045475181,126.855656876682
서울특별시 구로구 개봉동 503,동성하이빌,31700,37.4927045475181,126.855656876682
서울특별시 구로구 개봉동 503,창동주공18단지,37500,37.4927045475181,126.855656876682
서울특별시 구로구 개봉동 503,"엘지,쌍용아파트",59900,37.4927045475181,126.855656876682
서울특별시 강서구 화곡동 920-15,DMC센트럴아이파크,125000,37.5300165416132,126.841591586187
서울특별시 구로구 개봉동 503,래미안솔베뉴,139500,37.4927045475181,126.855656876682
서울특별시 구로구 개봉동 503,영등포푸르지오,108500,37.4927045475181,126.855656876682
서울특별시 구로구 개봉동 503,약수하이츠,114000,37.4927045475181,126.855656876682
서울특별시 강남구 논현동 137-1,두산,71000,37.5115655750297,127.027151917166
서울특별시 노원구 중계동 445,힐스테이트에코송파,18700,37.6561812439276,127.072945385819
서울특별시 마포구 공덕동 469,현대2차,61300,37.5506244659664,126.952220382962
서울특별시 성동구 행당동 380,JHPalace,28600,37.5551406328318,127.038383152493
서울특별시 구로구 개봉동 503,면목한신,42500,37.4927045475181,126.855656876682
서울특별시 구로구 개봉동 503,상계주공1(고층),39000,37.4927045475181,126.855656876682
서울특별시 구로구 개봉동 503,우성,143000,37.4927045475181,126.855656876682
서울특별시 구로구 개봉동 503,,61500,37.4927045475181,126.855656876682
서울특별시 구로구 개봉동 503,강남 푸르지오시티 2차(PRUGIO CITYⅡ),14400,37.4927045475181,126.855656876682
서울특별시 강서구 내발산동 767,춘당아네시스,74800,37.5578423496679,126.841390775473
서울특별시 구로구 개봉동 503,행당두산위브,131000,37.4927045475181,126.855656876682
서울특별시 구로구 개봉동 503,대림e-편한세상,114800,37.4927045475181,126.855656876682
서울특별시 강서구 가양동 1490,석경트라움(622-6),27600,37.5587212796979,126.863532908859
서울특별시 구로구 개봉동 503,동원빌라,18000,37.4927045475181,126.855656876682
서울특별시 성동구 금호동2가 1217,DMC래미안클라시스,82000,37.5512924647715,127.024541411946
서울특별시 구로구 개봉동 503,광장힐스테이트,224500,37.4927045475181,126.855656876682
서울특별시 성북구 하월곡동 228,천연뜨란채,48000,37.6107702871516,127.038993186153
서울특별시 강서구 내발산동 767,래미안장위퍼스트하이,94000,37.5578423496679,126.841390775473
서울특별시 종로구 관철동 155,래미안로이파크,174200,37.5688998241117,126.985090803746
서울특별시 구로구 개봉동 503,창우이지스Ⅲ,23000,37.4927045475181,126.855656876682
서울특별시 구로구 개봉동 503,상계주공1(고층),48500,37.4927045475181,126.855656876682
서울특별시 구로구 개봉동 503,샤인빌,48000,37.4927045475181,126.855656876682
서울특별시 구로구 개봉동 503,예일맨션,31000,37.4927045475181,126.855656876682
서울특별시 구로구 개봉동 503,상계주공14(고층),46000,37.4927045475181,126.855656876682
서울특별시 구로구 개봉동 503,래미안힐스테이트고덕,170000,37.4927045475181,126.855656876682
서울특별시 구로구 개봉동 503,현대파크빌,130000,37.4927045475181,126.855656876682
서울특별시 성동구 사근동 314,(111-43),19000,37.5603831621427,127.049548639186
서울특별시 강서구 내발산동 767,성원,92000,37.5578423496679,126.841390775473
서울특별시 강동구 상일동 490,동작상떼빌,28500,37.5528325043365,127.175022524959
서울특별시 구로구 개봉동 503,아크로타워스퀘어,174800,37.4927045475181,126.855656876682
서울특별시 구로구 개봉동 503,이화빌라C,16800,37.4927045475181,126.855656876682
서울특별시 노원구 상계동 624,당산삼성래미안4차,240000,37.6687833155991,127.053725187886
서울특별시 구로구 개봉동 503,적성주택(나동),17500,37.4927045475181,126.855656876682
서울특별시 구로구 개봉동 503,대원칸타빌2,125000,37.4927045475181,126.855656876682
서울특별시 구로구 개봉동 503,전농SK,90800,37.4927045475181,126.855656876682
서울특별시 구로구 개봉동 503,쌍용,75800,37.4927045475181,126.855656876682
서울특별시 구로구 개봉동 503,전농동복합시설(청량리역DUO196),13800,37.4927045475181,126.855656876682
서울특별시 강서구 내발산동 767,당산역해링턴타워,21800,37.5578423496679,126.841390775473
서울특별시 성북구 하월곡동 228,정릉풍림아이원,50300,37.6107702871516,127.038993186153
서울특별시 구로구 개봉동 503,우민인터빌,20000,37.4927045475181,126.855656876682
서울특별시 구로구 개봉동 503,포레나영등포센트럴,140000,37.4927045475181,126.855656876682
서울특별시 구로구 개봉동 503,상도시그니처,65000,37.4927045475181,126.855656876682
서울특별시 강서구 내발산동 767,,55000,37.5578423496679,126.841390775473
서울특별시 구로구 개봉동 503,래미안장안2차,87500,37.4927045475181,126.855656876682
서울특별시 구로구 개봉동 503,,77725,37.4927045475181,126.855656876682
서울특별시 구로구 개봉동 503,삼성래미안2,108000,37.4927045475181,126.855656876682
서울특별시 동작구 본동 481,,181500,37.509687479798,126.951811037328
서울특별시 구로구 개봉동 503,송림맨션,56000,37.4927045475181,126.855656876682
서울특별시 구로구 개봉동 503,,411200,37.4927045475181,126.855656876682
서울특별시 구로구 개봉동 503,고덕롯데캐슬베네루체,125000,37.4927045475181,126.855656876682
서울특별시 구로구 개봉동 503,주공1,79000,37.4927045475181,126.855656876682
서울특별시 구로구 개봉동 503,주공2,36000,37.4927045475181,126.855656876682
서울특별시 강서구 내발산동 767,한신무학,99500,37.5578423496679,126.841390775473
서울특별시 구로구 개봉동 503,프라이어팰리스,139000,37.4927045475181,126.855656876682
서울특별시 구로구 개봉동 503,종로청계힐스테이트,79500,37.4927045475181,126.855656876682
서울특별시 구로구 개봉동 503,자양우성7,113500,37.4927045475181,126.855656876682
서울특별시 구로구 개봉동 503,,59000,37.4927045475181,126.855656876682
서울특별시 구로구 개봉동 503,부림하이츠빌라,37500,37.4927045475181,126.855656876682
서울특별시 은평구 불광동 643,신성미소지움,86500,37.6165291109629,126.926683005796
서울특별시 강서구 염창동 300,소윤센트럴파크,41000,37.5566842439508,126.866552401948
서울특별시 성동구 옥수동 528-1,에르모소 용산,59500,37.5466036237451,127.012024946055
서울특별시 구로구 개봉동 503,벽담주택(548-3),19800,37.4927045475181,126.855656876682
서울특별시 강서구 내발산동 767,삼성래미안,82500,37.5578423496679,126.841390775473
서울특별시 구로구 개봉동 503,채널리저브,97000,37.4927045475181,126.855656876682
서울특별시 구로구 개봉동 503,베네시티,27800,37.4927045475181,126.855656876682
서울특별시 성북구 장위동 219-57,신동아아파트1,35000,37.6161796009976,127.041494644016
서울특별시 구로구 개봉동 503,금성하이츠빌라(266-455),22600,37.4927045475181,126.855656876682
서울특별시 구로구 개봉동 503,상암 오벨리스크 2차,14500,37.4927045475181,126.855656876682
서울특별시 구로구 개봉동 503,이가채(728-11),19000,37.4927045475181,126.855656876682
서울특별시 구로구 개봉동 503,타임빌리지,34000,37.4927045475181,126.855656876682
서울특별시 강서구 내발산동 767,왕십리자이,135000,37.5578423496679,126.841390775473
서울특별시 구로구 개봉동 503,상상프리,49000,37.4927045475181,126.855656876682
서울특별시 구로구 개봉동 503,"산장아파트가동,나동",24000,37.4927045475181,126.855656876682
서울특별시 구로구 개봉동 503,목동신시가지4,297000,37.4927045475181,126.855656876682
서울특별시 구로구 개봉동 503,목동신시가지4,209500,37.4927045475181,126.855656876682
서울특별시 영등포구 당산동2가 16-1,소윤센트럴파크,41800,37.5211689109638,126.893016993992
서울특별시 구로구 개봉동 503,선사현대아파트,104400,37.4927045475181,126.855656876682
서울특별시 구로구 개봉동 503,길성그랑프리텔아파트,59900,37.4927045475181,126.855656876682
서울특별시 강서구 내발산동 767,비앤비퀸즈빌 101동,24500,37.5578423496679,126.841390775473
서울특별시 강서구 내발산동 767,삼익파크맨션,135000,37.5578423496679,126.841390775473
서울특별시 구로구 개봉동 503,문정 오벨리스크,21000,37.4927045475181,126.855656876682
서울특별시 강서구 내발산동 767,미륭,72500,37.5578423496679,126.841390775473
서울특별시 강서구 내발산동 767,성원상떼뷰오피스텔,16500,37.5578423496679,126.841390775473
서울특별시 구로구 개봉동 503,동부아트빌,30000,37.4927045475181,126.855656876682
서울특별시 구로구 개봉동 503,롯데낙천대,85900,37.4927045475181,126.855656876682
서울특별시 구로구 개봉동 503,가나하우징,13800,37.4927045475181,126.855656876682
서울특별시 구로구 개봉동 503,고덕힐하우스,60000,37.4927045475181,126.855656876682
서울특별시 강서구 내발산동 651-21,ABBAvill,56500,37.5573924559154,126.841841378066
서울특별시 강서구 내발산동 767,소윤센트럴파크,41800,37.5578423496679,126.841390775473
서울특별시 강남구 역삼동 757,소윤센트럴파크,43000,37.4975161048325,127.050048075024
서울특별시 동작구 상도동 285-14,반포리체,442000,37.4947579080474,126.93425282368
서울특별시 강서구 내발산동 767,중계3벽산,86700,37.5578423496679,126.841390775473
서울특별시 구로구 개봉동 503,대림아파트,105000,37.4927045475181,126.855656876682
서울특별시 구로구 개봉동 503,양평한신,91500,37.4927045475181,126.855656876682
서울특별시 구로구 개봉동 503,방배우성,154000,37.4927045475181,126.855656876682
서울특별시 구로구 개봉동 503,상암 두산위브센티움,14500,37.4927045475181,126.855656876682
서울특별시 강서구 내발산동 767,황실파크빌(A),15500,37.5578423496679,126.841390775473
서울특별시 강서구 내발산동 767,길음뉴타운경남아너스빌,71500,37.5578423496679,126.841390775473
서울특별시 구로구 개봉동 503,롯데캐슬퍼스트,130000,37.4927045475181,126.855656876682
서울특별시 강서구 내발산동 767,호반써밋목동,136700,37.5578423496679,126.841390775473
서울특별시 마포구 창전동 442,강변래미안,129800,37.5465344912557,126.9317231782
서울특별시 강서구 내발산동 767,주공2,36000,37.5578423496679,126.841390775473
서울특별시 강서구 내발산동 767,하우피스오피스텔,12800,37.5578423496679,126.841390775473
서울특별시 구로구 개봉동 503,고운타워,10900,37.4927045475181,126.855656876682
서울특별시 구로구 개봉동 503,신촌태영데시앙,125000,37.4927045475181,126.855656876682
서울특별시 마포구 도화동 564,우성캐릭터199,52000,37.540241494631,126.95234943792
서울특별시 구로구 신도림동 432-1,경희궁자이(2단지),330000,37.5070050872767,126.886497534129
서울특별시 강서구 내발산동 767,태산주택,20000,37.5578423496679,126.841390775473
서울특별시 강서구 내발산동 767,세연1차,72000,37.5578423496679,126.841390775473
서울특별시 강서구 내발산동 767,상림마을8단지롯데캐슬(821~830동)BL1-12,88000,37.5578423496679,126.841390775473
서울특별시 은평구 대조동 48-62,DMC래미안e편한세상,123500,37.6111759596933,126.918810167009
서울특별시 구로구 개봉동 503,방배래미안타워,220000,37.4927045475181,126.855656876682
서울특별시 양천구 신정동 1198-23,한신,81000,37.5204476486187,126.849100951709
서울특별시 중랑구 중화동 279-17,두산,105000,37.6048770439163,127.08067744664
서울특별시 구로구 개봉동 503,서대문푸르지오센트럴파크,122500,37.4927045475181,126.855656876682
서울특별시 금천구 시흥동 1011,중계그린1단지,51000,37.4493778208533,126.913439789898
서울특별시 강서구 내발산동 767,래미안길음센터피스,105000,37.5578423496679,126.841390775473
서울특별시 구로구 개봉동 503,예성그린캐슬III,70000,37.4927045475181,126.855656876682
서울특별시 구로구 개봉동 503,동성타운,37000,37.4927045475181,126.855656876682
서울특별시 구로구 개봉동 503,삼성그린빌라(29-13),43000,37.4927045475181,126.855656876682
서울특별시 구로구 개봉동 503,쌍용,82000,37.4927045475181,126.855656876682
서울특별시 구로구 개봉동 503,은아쉐르빌,70000,37.4927045475181,126.855656876682
서울특별시 구로구 개봉동 503,잠실 트리움,31500,37.4927045475181,126.855656876682
서울특별시 구로구 개봉동 503,남향빌라가동,20300,37.4927045475181,126.855656876682
서울특별시 구로구 개봉동 503,성원빌라(81-11),16500,37.4927045475181,126.855656876682
서울특별시 구로구 개봉동 503,성원,51000,37.4927045475181,126.855656876682
서울특별시 성동구 옥수동 436,e편한세상영등포아델포레,103000,37.542081527886,127.009867068046
서울특별시 구로구 개봉동 503,면목삼호101,58000,37.4927045475181,126.855656876682
서울특별시 구로구 개봉동 503,답십리대우,104900,37.4927045475181,126.855656876682
서울특별시 강서구 내발산동 767,상암월드컵파크7단지,122000,37.5578423496679,126.841390775473
서울특별시 구로구 개봉동 503,대신빌라(270-140),12000,37.4927045475181,126.855656876682
서울특별시 서대문구 충정로3가 8-1,영등포 대성 그랑그루,11950,37.5624970325236,126.960073771155
서울특별시 강북구 미아동 1353,미아동부센트레빌,95000,37.6179760334621,127.01263074872
서울특별시 구로구 개봉동 503,유송맨션B동,12450,37.4927045475181,126.855656876682
서울특별시 구로구 개봉동 503,Q-해피하우스,29000,37.4927045475181,126.855656876682
서울특별시 구로구 개봉동 503,삼선현대힐스테이트,75000,37.4927045475181,126.855656876682
서울특별시 구로구 개봉동 503,벽담주택(548-3),19800,37.4927045475181,126.855656876682
서울특별시 구로구 개봉동 503,라이프미성,74000,37.4927045475181,126.855656876682
서울특별시 구로구 개봉동 503,(480-14),47000,37.4927045475181,126.855656876682
서울특별시 구로구 개봉동 503,(338-16),46800,37.4927045475181,126.855656876682
서울특별시 구로구 개봉동 503,당산2가현대홈타운,126100,37.4927045475181,126.855656876682
서울특별시 강서구 화곡동 105-376,더샵스타시티,224000,37.5406110644889,126.842351839107
서울특별시 구로구 개봉동 503,신트리4,57900,37.4927045475181,126.855656876682
서울특별시 구로구 개봉동 503,암사하이빌,20000,37.4927045475181,126.855656876682
서울특별시 구로구 개봉동 503,진로,96000,37.4927045475181,126.855656876682
서울특별시 구로구 개봉동 503,매봉삼성,163000,37.4927045475181,126.855656876682
서울특별시 구로구 개봉동 503,장안 보니타오피스텔,27000,37.4927045475181,126.855656876682
서울특별시 구로구 개봉동 503,메이트하우스,23800,37.4927045475181,126.855656876682
서울특별시 구로구 개봉동 503,신동아아파트1,28500,37.4927045475181,126.855656876682
서울특별시 강서구 내발산동 767,정릉푸르지오,65000,37.5578423496679,126.841390775473
서울특별시 구로구 개봉동 503,자양호반써밋,97500,37.4927045475181,126.855656876682
서울특별시 구로구 개봉동 503,용산파크e-편한세상,155000,37.4927045475181,126.855656876682
서울특별시 강서구 화곡동 475-3,가나하우징,13800,37.5377838411273,126.855836148514
서울특별시 구로구 개봉동 503,창동현대4차,84000,37.4927045475181,126.855656876682
서울특별시 구로구 개봉동 503,상계주공2(고층),58000,37.4927045475181,126.855656876682
서울특별시 구로구 개봉동 503,건양오피스텔,10000,37.4927045475181,126.855656876682
서울특별시 구로구 개봉동 503,Q-해피하우스,29000,37.4927045475181,126.855656876682
서울특별시 구로구 개봉동 503,빌라엔,26750,37.4927045475181,126.855656876682
서울특별시 구로구 개봉동 503,북한산푸르지오,92500,37.4927045475181,126.855656876682
서울특별시 강동구 암사동 508,브라운스톤공덕아파트,148000,37.5540369094746,127.127100652964
서울특별시 구로구 개봉동 503,예성 아이 라이프,14300,37.4927045475181,126.855656876682
서울특별시 구로구 개봉동 503,바움샤인빌,46200,37.4927045475181,126.855656876682
서울특별시 구로구 개봉동 503,신동양빛여울아파트,41750,37.4927045475181,126.855656876682
서울특별시 구로구 개봉동 503,우방,58000,37.4927045475181,126.855656876682
서울특별시 구로구 개봉동 503,형제빌라,31000,37.4927045475181,126.855656876682
서울특별시 구로구 개봉동 503,마인빌,53200,37.4927045475181,126.855656876682
서울특별시 구로구 개봉동 503,래미안에스티움,135000,37.4927045475181,126.855656876682
서울특별시 성동구 성수동1가 710,래미안에스티움,135000,37.5403678235429,127.045104755028
서울특별시 구로구 개봉동 503,보라매삼성,83000,37.4927045475181,126.855656876682
서울특별시 서대문구 홍은동 265-307,해돋이타운,13500,37.5846062074718,126.934340087852
서울특별시 구로구 개봉동 503,에스케이,84000,37.4927045475181,126.855656876682
서울특별시 성북구 길음동 635-168,삼미아트빌(1661-9),29000,37.6141280572304,127.015902356929
서울특별시 강서구 내발산동 767,청구하이츠빌라,36000,37.5578423496679,126.841390775473
서울특별시 구로구 개봉동 503,강동 큐브 2차,9800,37.4927045475181,126.855656876682
서울특별시 구로구 개봉동 503,행당한진타운,152000,37.4927045475181,126.855656876682
서울특별시 구로구 구로동 43-1,예성 아이 라이프,12900,37.5034298667765,126.891447109362
서울특별시 구로구 개봉동 503,노원IPARK,77000,37.4927045475181,126.855656876682
서울특별시 구로구 개봉동 503,청구3,122000,37.4927045475181,126.855656876682
서울특별시 구로구 개봉동 503,(218-43),51800,37.4927045475181,126.855656876682
서울특별시 마포구 아현동 777,동아,59000,37.5555932310828,126.953656665391
서울특별시 구로구 개봉동 503,세림,105000,37.4927045475181,126.855656876682
서울특별시 강서구 내발산동 767,한솔맨션,26000,37.5578423496679,126.841390775473
서울특별시 구로구 개봉동 503,신반포16,217000,37.4927045475181,126.855656876682
서울특별시 구로구 개봉동 503,신문로하우스,49000,37.4927045475181,126.855656876682
서울특별시 구로구 개봉동 503,남가좌동현대,74300,37.4927045475181,126.855656876682
서울특별시 중랑구 신내동 618,로젠빌,30000,37.6085274461075,127.096246072268
서울특별시 강남구 개포동 1284,힐스테이트녹번,103000,37.4861548149371,127.068451024326
서울특별시 강서구 내발산동 767,갈월동 에이트리움,28300,37.5578423496679,126.841390775473
서울특별시 강서구 화곡동 354-59,쌍용,40500,37.5324985435419,126.839600868324
서울특별시 구로구 개봉동 503,건풍빌라,25500,37.4927045475181,126.855656876682
서울특별시 노원구 월계동 951,목동신시가지6,215000,37.6302464149326,127.057463536772
서울특별시 구로구 개봉동 503,한방천하-용두동 포스빌,22000,37.4927045475181,126.855656876682
서울특별시 구로구 개봉동 503,럭키(963),237000,37.4927045475181,126.855656876682
서울특별시 구로구 구로동 1272,가야써니빌(373-7),68750,37.4827060921047,126.899930856333
서울특별시 구로구 개봉동 503,누리애빌(530-3),25500,37.4927045475181,126.855656876682
서울특별시 동작구 사당동 1157,이수하이츠빌라,84000,37.4894898027989,126.973853272882
서울특별시 구로구 개봉동 503,로하스빌13차,49000,37.4927045475181,126.855656876682
서울특별시 구로구 개봉동 503,(745-13),13000,37.4927045475181,126.855656876682
서울특별시 강북구 수유동 744,약수하이츠,108000,37.6466128423492,127.019510547455
서울특별시 마포구 성산동 165-84,한강빌라,21000,37.5674288667887,126.907136358837
서울특별시 광진구 자양동 673,힐스테이트뉴포레,82000,37.5284372034525,127.085909787145
서울특별시 광진구 중곡동 257-8,삼성홈타운,79500,37.561711160965,127.079111851095
서울특별시 강북구 수유동 744,이편한세상청계센트럴포레,146500,37.6466128423492,127.019510547455
서울특별시 송파구 오금동 46-8,래미안솔베뉴,142000,37.5041084241211,127.127314310081
서울특별시 마포구 신수동 62-56,전농SK,82800,37.5456490433076,126.939067521465
서울특별시 강북구 수유동 744,전농SK,90000,37.6466128423492,127.019510547455
서울특별시 강북구 미아동 160-3,삼전솔하임3차,11900,37.6341884558025,127.023860909253
서울특별시 강북구 수유동 744,정릉힐스테이트,81000,37.6466128423492,127.019510547455
서울특별시 강서구 화곡동 372-64,,187729,37.5358239977468,126.835505981656
서울특별시 강북구 수유동 744,,93626,37.6466128423492,127.019510547455
서울특별시 강동구 길동 477,상도동삼호아파트,94500,37.5413460748366,127.148205142647
서울특별시 도봉구 방학동 271-1,,47800,37.6609347988243,127.0267260331
서울특별시 광진구 자양동 227-98,삼성이태원SKYLARK,80000,37.53758864738,127.075948924833
서울특별시 마포구 아현동 777,제이디파크,42000,37.5555932310828,126.953656665391
서울특별시 동작구 사당동 444-3,힐스테이트남산,57000,37.4789426740572,126.974619297444
서울특별시 관악구 신림동 652-159,목동신시가지10,189000,37.4666891649472,126.921729586583
서울특별시 구로구 구로동 685-222,자양7차현대홈타운,138000,37.4935973219516,126.875504296971
서울특별시 마포구 신공덕동 155,답십리파크자이,114000,37.5433755525349,126.955640369823
서울특별시 성북구 석관동 110-2,서초신주빌라,73000,37.6110925130042,127.066689824435
서울특별시 서대문구 북아현동 1009,삼호4,58500,37.5591524524316,126.950146932156
서울특별시 은평구 녹번동 1-14,고덕롯데캐슬베네루체,145000,37.6097256361604,126.938997843292
서울특별시 관악구 신림동 611-83,서울대벤처타운역 푸르지오,96300,37.4748167301174,126.921459623123
서울특별시 마포구 망원동 486-40,한신무학,112000,37.5570370411112,126.906787433583
서울특별시 노원구 상계동 1375-3,소망빌라,5310,37.672636522348,127.07971211389
서울특별시 양천구 신정동 1196-24,목동대림,151500,37.5215829286615,126.847710544238
서울특별시 강북구 수유동 744,경남,30800,37.6466128423492,127.019510547455
서울특별시 강북구 미아동 198-5,건대입구역자이엘라,31500,37.627312420591,127.027877398126
서울특별시 강서구 가양동 1474,DMC에코자이,139000,37.5663473856091,126.854030753209
서울특별시 동대문구 장안동 373-4,(333-66),36200,37.5691066785101,127.068970811731
서울특별시 관악구 신림동 1639-51,소윤센트럴파크,37000,37.4833905196809,126.927468397174
서울특별시 양천구 목동 607-15,Y.H빌리지3,52000,37.5497260236077,126.865680087309
서울특별시 성북구 보문동5가 195,한강현대,116000,37.5815593777309,127.020114191509
서울특별시 영등포구 영등포동7가 94-99,길음뉴타운경남아너스빌,59800,37.5241606059469,126.909869180414
서울특별시 은평구 갈현동 395-2,삼익가든,108500,37.6205827444968,126.91975833281
서울특별시 서초구 서초동 1512-6,신림빌라(10-438),21050,37.4865832016854,127.007369184659
서울특별시 강북구 번동 148-443,동아에코빌,61500,37.6272411084009,127.032943008128
서울특별시 도봉구 방학동 271-1,건대입구역자이엘라,31500,37.6609347988243,127.0267260331
서울특별시 강북구 수유동 744,(3-19),11677,37.6466128423492,127.019510547455
서울특별시 강북구 수유동 744,삼보타운,95000,37.6466128423492,127.019510547455
서울특별시 동대문구 답십리동 497-23,보라매에스케이뷰,181500,37.5689685801361,127.050596840747
서울특별시 송파구 방이동 39,한진타운,170000,37.5160914151536,127.110392926552
서울특별시 성북구 길음동 1280-1,은평헤스티아 2차,13200,37.6101143477321,127.016442073865
서울특별시 성동구 성수동1가 704,노빌리안골드,12200,37.5411130565341,127.045298240723
서울특별시 영등포구 영등포동5가 49-1,삼정아트테라스정동,36850,37.5222197194343,126.906688343966
서울특별시 성북구 장위동 246-152,삼하빌라(518-45),29500,37.6096499231694,127.046874046693
서울특별시 송파구 문정동 108-1,광희동금호트윈 오피스텔,9900,37.4867106632975,127.130662166047
서울특별시 동작구 대방동 505,센트라스,184000,37.5142145692016,126.92970283408
서울특별시 동작구 사당동 105,금호베스트빌,112700,37.4896946254326,126.975650061703
서울특별시 양천구 신월동 457-15,삼성래미안,78500,37.5266818124183,126.847520868749
서울특별시 강동구 천호동 52-45,한신빌라(638-10),15000,37.5417929969487,127.139835335665
서울특별시 송파구 문정동 652,현대빌(312-104),48000,37.48294352839,127.121827920448
서울특별시 마포구 신정동 30,소윤센트럴파크,37000,37.5439771831851,126.931098399949
서울특별시 노원구 하계동 280,한강그린빌,19000,37.634682675193,127.069541310656
서울특별시 도봉구 방학동 271-1,신촌르?메이에르타운(I),11000,37.6609347988243,127.0267260331
서울특별시 강서구 화곡동 332-18,에스아이팰리스강동센텀I,42870,37.5356632939199,126.847341015016
서울특별시 노원구 공릉동 715,(295-20),41000,37.6272668429353,127.068613417088
서울특별시 강남구 자곡동 655,선정그랜드빌,26000,37.4743936237496,127.104066621552
서울특별시 강동구 천호동 35-16,거목빌라,43500,37.5462420572399,127.140805160883
서울특별시 성동구 옥수동 528,신동아4,113000,37.5484774843118,127.013994845948
서울특별시 강동구 성내동 210-7,동아불암,47800,37.5341091216744,127.129703351477
서울특별시 동대문구 제기동 120-10,광화문스페이스본(101동~105동),112600,37.5869787519047,127.039975872007
서울특별시 금천구 시흥동 976-5,와이엔캐슬(중곡동175-61),29000,37.4345295673618,126.905691472422
서울특별시 양천구 신월동 457-15,래미안상도3차,138000,37.5266818124183,126.847520868749
서울특별시 관악구 봉천동 1706,보라매자이더포레스트,124750,37.4849781107912,126.959527564225
서울특별시 노원구 공릉동 715,삼전솔하임3차,11900,37.6272668429353,127.068613417088
서울특별시 관악구 봉천동 1708,신성하이츠(299-68),48000,37.4845267749186,126.942894626699
서울특별시 영등포구 신길동 59-2,현대썬앤빌 청계,12000,37.5150711528812,126.91809489544
서울특별시 강서구 화곡동 105-22,DMC센트레빌,106200,37.540891119185,126.843657693709
서울특별시 관악구 봉천동 1698-1,상계주공2(고층),35000,37.4941052853678,126.928177342998
서울특별시 강동구 명일동 15,소윤센트럴파크,41000,37.5532947928121,127.148458988794
서울특별시 동작구 노량진동 56-11,대치동우정에쉐르1,59000,37.5126458721725,126.941330746646
서울특별시 동작구 상도동 285-14,(525-3),24000,37.4947579080474,126.93425282368
서울특별시 양천구 신정동 329,소윤센트럴파크,41000,37.5161909461632,126.870337507112
서울특별시 동작구 상도동 288-8,진흥아파트,357500,37.4951948000771,126.933918847736
서울특별시 강서구 방화동 841,성내동삼성아파트,102500,37.5742998188535,126.81749374049
서울특별시 관악구 신림동 619-48,고덕센트럴푸르지오,118400,37.4732786026109,126.920228881988
서울특별시 성북구 하월곡동 222,미성,126200,37.607033098723,127.038365407563
서울특별시 관악구 신림동 98-439,전원아트빌,27300,37.4754884355131,126.941145909632
서울특별시 중랑구 상봉동 502,동아,278000,37.597157213016,127.083476922402
서울특별시 은평구 신사동 361,한국,66500,37.5956853024613,126.913449506429
서울특별시 성동구 성수동1가 709,럭키빌라5차B동,15700,37.5484104489106,127.050153941693
서울특별시 강동구 고덕동 693,장안힐스테이트,101500,37.5580690838901,127.163465686409
서울특별시 강남구 청담동 95,광림빌라A동,15800,37.5253112558986,127.044708452005
서울특별시 강서구 화곡동 155-27,맨하탄21리빙텔,21500,37.535384446385,126.850093332643
서울특별시 강서구 가양동 1490,영등포중흥에스클래스,48500,37.5587212796979,126.863532908859
서울특별시 은평구 갈현동 513-4,삼성,52000,37.6169028756627,126.912700579977
서울특별시 서대문구 북아현동 1-25,새울센스빌(27-2),19800,37.5643362518601,126.958039841537
서울특별시 동대문구 장안동 336,하이뷰디아트,23000,37.569725659288,127.074606226438
서울특별시 성동구 행당동 346,문래동삼환,80000,37.5558804553964,127.029207383318
서울특별시 은평구 응암동 227-59,삼익세라믹,38000,37.5957016729849,126.925136282941
서울특별시 강북구 수유동 744,CG아름채14차,25000,37.6466128423492,127.019510547455
서울특별시 강서구 등촌동 715,대원캐슬빌7차,55000,37.5439005769284,126.859981715413
서울특별시 양천구 목동 904,휴사이드빌,20000,37.5319318273523,126.871591433831
서울특별시 동작구 사당동 105,(381-28),36500,37.4896946254326,126.975650061703
서울특별시 중랑구 면목동 1523,(689-56),9750,37.5892642654601,127.076967320959
서울특별시 송파구 문정동 639-5,한진한화그랑빌,106000,37.4852529035785,127.114808606468
서울특별시 관악구 남현동 1053-29,래미안장위퍼스트하이,94900,37.4721870914352,126.971873166181
서울특별시 성동구 금호동2가 1217,디에이치베레사,60000,37.5512924647715,127.024541411946
서울특별시 동대문구 휘경동 372,도담마을,59900,37.5936190873694,127.066173973199
서울특별시 노원구 하계동 271-3,북한산힐스테이트7차,116500,37.6354452993831,127.064243687991
서울특별시 영등포구 당산동 121-72,동성1,45000,37.5289241881683,126.907520007171
서울특별시 동작구 사당동 1157,풍림아이원,166000,37.4894898027989,126.973853272882
서울특별시 금천구 시흥동 1013,강남힐스테이트에코,16900,37.4479160600139,126.918442104095
서울특별시 강서구 화곡동 1007-5,삼성씨티하우스,31500,37.5475512993839,126.835112327555
서울특별시 구로구 오류동 150-42,(13-35),47500,37.4905516853489,126.843828483646
서울특별시 동작구 상도동 283-28,현대빌라B,35000,37.4951130487172,126.934187829315
서울특별시 종로구 동숭동 25-2,상계주공10(고층),70000,37.5826910167847,127.004877171202
서울특별시 강북구 수유동 744,(304-250),31500,37.6466128423492,127.019510547455
서울특별시 마포구 신수동 250-33,세원,52000,37.5449503541524,126.938096633245
서울특별시 송파구 방이동 141-10,삼성래미안트리베라2단지,92800,37.5116126926119,127.117051956493
서울특별시 강남구 역삼동 604,샤론빌,40000,37.5054258769138,127.030050878243
서울특별시 노원구 공릉동 715,새울센스빌(27-2),19800,37.6272668429353,127.068613417088
서울특별시 양천구 신정동 918-1,진한빌라(나),10600,37.5268229605007,126.855664018405
서울특별시 도봉구 도봉동 421,메이플라워멤버스빌오피스텔,12900,37.679952607259,127.040313988811
서울특별시 성동구 옥수동 250,목동신시가지11,148000,37.5424312325016,127.014052103004
서울특별시 동대문구 장안동 382-4,북가좌삼호,79000,37.5696488542027,127.068736092832
서울특별시 관악구 봉천동 1698-1,DMC한양,95500,37.4941052853678,126.928177342998
서울특별시 성동구 금호동1가 1823,동구햇살아파트2차,56000,37.5542846887812,127.022691811161
서울특별시 서대문구 연희동 107-11,종암빌라,12000,37.5713196627874,126.929587503688
서울특별시 관악구 신림동 1735-1,,59559,37.4616571207165,126.921208668907
서울특별시 강북구 번동 446-13,강일타워,12700,37.6370657429176,127.025207005073
서울특별시 강북구 수유동 744,풍림아파트B,29500,37.6466128423492,127.019510547455
서울특별시 성북구 정릉동 227-47,아이파크,111800,37.6112341074655,127.014286230867
서울특별시 강동구 천호동 410-100,(3-19),12960,37.5391247822156,127.128407888015
서울특별시 관악구 신림동 602-2,수서현대벤쳐빌,48000,37.4758835704937,126.918336089182
서울특별시 동작구 상도동 421,래미안미드카운티,136000,37.4980563380301,126.958276440435
서울특별시 관악구 신림동 610-341,,141071,37.4760033618852,126.924503814526
서울특별시 도봉구 창동 715-66,목동신시가지14,159000,37.6546002434973,127.040151484391
서울특별시 성동구 옥수동 4,답십리청솔우성,71800,37.5436917758825,127.018895964412
서울특별시 노원구 월계동 322-1,,60000,37.6294157509446,127.062513840528
서울특별시 관악구 신림동 98-439,강동리버스트4단지,73800,37.4754884355131,126.941145909632
서울특별시 강남구 일원동 718,길음뉴타운경남아너스빌,59800,37.4842754486616,127.082612734524
서울특별시 강북구 수유동 744,상록타워아파트,117000,37.6466128423492,127.019510547455
서울특별시 도봉구 쌍문동 88-53,소윤센트럴파크,43500,37.6500328303102,127.034661775971
서울특별시 관악구 신림동 316-62,삼성빌라,13500,37.4606810188504,126.932663737284
서울특별시 중랑구 상봉동 484,건영2차아파트,68000,37.6037624381976,127.090715883139
서울특별시 노원구 하계동 288,명일지에스아파트,101500,37.6446075819338,127.072058758551
서울특별시 중랑구 신내동 657,(6-24),20070,37.6119855898595,127.094726629688
서울특별시 강서구 등촌동 628-13,메트로샤인,22000,37.560088413283,126.856360783551
서울특별시 서초구 서초동 1487-145,풀내음파크빌(791-1014),22500,37.4805581664357,127.007215283144
서울특별시 성동구 성수동2가 277-37,현대아파트,208000,37.5436964710983,127.062516198979
서울특별시 노원구 하계동 284,성원,90700,37.6378661643059,127.06870677712
서울특별시 강남구 수서동 713,휘경자이 디센시아,140000,37.4880167345764,127.101848510057
서울특별시 강남구 대치동 986,화양현대,112000,37.5003919225151,127.063399613723
서울특별시 마포구 상암동 1734,돈의문센트레빌,147300,37.5870829376289,126.883344555391
서울특별시 강북구 수유동 540-17,동신,59000,37.6436711192206,127.009249482861
서울특별시 노원구 월계동 18,대림강변타운,180000,37.617995702515,127.068427518791
서울특별시 종로구 행촌동 210-18,아크로타워스퀘어,172000,37.576376067959,126.962300915843
서울특별시 강남구 도곡동 527,한솔빌라,39300,37.4935418220116,127.050547158351
서울특별시 도봉구 창동 581-24,북아현맨션,137250,37.6400298652271,127.037796826974
서울특별시 도봉구 창동 30,신동아5,117000,37.6464611137803,127.051742474665
서울특별시 중랑구 상봉동 484,명인빌,59000,37.6037624381976,127.090715883139
서울특별시 서대문구 남가좌동 388,벨라지움,54500,37.5793624340491,126.920840268509
서울특별시 강동구 명일동 359,세림,82000,37.5524804591506,127.145208524251
서울특별시 영등포구 영등포동 647,이대역마에스트로,12800,37.5115335007354,126.90238989779
서울특별시 중구 신당동 842,(6-24),18077,37.5547365066187,127.014263668771
서울특별시 강서구 방화동 482-2,엘지하이츠(505-12),23000,37.5750451034394,126.810787142839
서울특별시 성북구 석관동 10,라곰211,34300,37.6123138667374,127.06893164021
서울특별시 송파구 문정동 639-5,우물골2단지두산위브(223~244동)BL2-7,110000,37.4852529035785,127.114808606468
서울특별시 영등포구 문래동6가 45,뚝섬리버빌,22000,37.5204421670597,126.882860836863
서울특별시 도봉구 쌍문동 137-1,보람하이츠,29700,37.6522967154012,127.033145697749
서울특별시 중랑구 면목동 193-1,가본빌라,17000,37.5875052368198,127.075465206913
서울특별시 노원구 상계동 765,상암 한화 오벨리스크,10000,37.647888818238,127.060796984294
서울특별시 양천구 목동 200,동방빌라,33200,37.541299390644,126.875505927686
서울특별시 강남구 자곡동 655,세교예지안4차,36400,37.4743936237496,127.104066621552
서울특별시 양천구 신정동 889-15,리슈리안,46500,37.5272683437113,126.86147264715
서울특별시 성동구 행당동 375,목동신시가지2,334000,37.5567045410466,127.031529834865
서울특별시 성동구 행당동 347,,59559,37.5579017106154,127.02711847087
서울특별시 양천구 목동 622-6,디에이치아너힐즈,350000,37.5470272973165,126.863977563528
서울특별시 관악구 신림동 619-48,DMC 가재울 아이파크,102110,37.4732786026109,126.920228881988
서울특별시 서대문구 남가좌동 377,대림(2차),109500,37.5777836266316,126.916529880454
서울특별시 광진구 광장동 582,상아,83000,37.5431780182608,127.099564904065
서울특별시 구로구 고척동 57-9,디자인하우스(485-3),34200,37.5047349109946,126.866978558925
서울특별시 서대문구 천연동 145,월계센트럴아이파크,88500,37.5675621422573,126.958448691465
서울특별시 성북구 장위동 320,당산역해링턴타워,21400,37.6200557016344,127.051434874575
서울특별시 동작구 사당동 1159,다원퍼스트빌,27500,37.4885121810048,126.973323417623
서울특별시 양천구 목동 324-14,동신,60300,37.5443169113469,126.864210385239
서울특별시 노원구 상계동 765,한신플러스C,69000,37.647888818238,127.060796984294
서울특별시 영등포구 신길동 3835,마포동원베네스트,114500,37.4996739629866,126.912428988984
서울특별시 은평구 구산동 22-11,다경빌(437-39),55000,37.6077671648021,126.913987501585
서울특별시 노원구 상계동 626,홍제센트럴IPARK,122000,37.6691340218574,127.057453609395
서울특별시 강동구 고덕동 688,신반포12,230000,37.5589494593044,127.147082524967
서울특별시 광진구 광장동 577,동산제이콥스,37500,37.5441456421547,127.101527301469
서울특별시 송파구 송파동 111-43,JK하우스B동,39400,37.5054484912463,127.111059232873
서울특별시 영등포구 양평동4가 12,서원,34000,37.5342936373846,126.893936076898
서울특별시 구로구 개봉동 344-4,승석빌라,13200,37.4893458696054,126.854266430118
서울특별시 동작구 신대방동 719,두산,89900,37.4875215984483,126.906846512495
서울특별시 영등포구 영등포동7가 203,삼익캐슬102동,34000,37.5243801067433,126.906871180548
서울특별시 도봉구 창동 623-2,종암빌라,18300,37.645283012318,127.036498128877
서울특별시 영등포구 당산동5가 42,에스케이뷰,133000,37.5319563586232,126.903064856106
서울특별시 양천구 신월동 911-4,애드하우징,34000,37.5223140576755,126.829925642438
서울특별시 양천구 목동 941,효민아크로뷰  C&C미술학원,47800,37.5321817245297,126.866836149715
서울특별시 동대문구 전농동 10,휴먼빌(610-223),22000,37.5766421261107,127.060465846616
서울특별시 동대문구 이문동 64,e편한세상광진그랜드파크,185000,37.5997835954564,127.068513545003
서울특별시 동대문구 전농동 597-11,고덕센트럴푸르지오,118000,37.5827880069986,127.048948275543
서울특별시 영등포구 당산동5가 9-3,아남,66000,37.5327765054228,126.900104529658
서울특별시 성북구 정릉동 239,중앙하이츠빌1단지,60000,37.6184876142783,127.007297911588
서울특별시 은평구 구산동 3-38,엠버29차,23000,37.6111713226224,126.914788843593
서울특별시 영등포구 영등포동7가 208,스카이빌(69-29),38000,37.5233606097041,126.905606241539
서울특별시 동작구 상도동 279-145,목동현대1,184500,37.4954582262275,126.934191145066
서울특별시 동대문구 장안동 329-3,청구1차,91900,37.5739643441634,127.075387468834
서울특별시 동작구 상도동 421,백련산해모로,80200,37.4980563380301,126.958276440435
서울특별시 성북구 상월곡동 24-50,범양,61600,37.604630450347,127.049876607259
서울특별시 강동구 상일동 514,래미안크리시엘,72900,37.5485938849143,127.167800631257
서울특별시 동대문구 휘경동 57,우성,120000,37.5829871567703,127.070747052227
서울특별시 노원구 중계동 369,래미안베라힐즈,101500,37.6568915639532,127.078983583783
서울특별시 구로구 구로동 685-222,목동파라곤,164000,37.4935973219516,126.875504296971
서울특별시 성동구 하왕십리동 990,남서울,95507,37.5623533304177,127.028377895927
서울특별시 강동구 암사동 413,한양빌라가동,20000,37.5535270917359,127.139500544208
서울특별시 종로구 숭인동 766,서전맨션나동,23600,37.5760304266335,127.02115124233
서울특별시 광진구 자양동 783-1,올림푸스,18600,37.5363526161092,127.074596726286
서울특별시 중구 신당동 366-450,트윈타워,15000,37.5519451132949,127.009989571243
서울특별시 성동구 마장동 822,경남아너스빌,96500,37.5689291700413,127.043694259561
서울특별시 동작구 상도동 288-8,프라임빌,49800,37.4951948000771,126.933918847736
서울특별시 용산구 원효로2가 25,행당한진타운,126000,37.5367778024444,126.963546221158
서울특별시 양천구 목동 548-3,엘디아대조,31000,37.5446483431533,126.869035928106
서울특별시 영등포구 신길동 4934,공덕2삼성래미안,138800,37.5053661207157,126.915348177676
서울특별시 강남구 삼성동 144-14,정릉힐스테이트,70500,37.5080139474441,127.055395518763
서울특별시 강서구 등촌동 721,금명빌라,58500,37.5357934511928,126.863034553025
서울특별시 광진구 중곡동 18-135,초원동아,70000,37.5651026557872,127.088069282123
서울특별시 강서구 내발산동 729,,75000,37.5546639253865,126.842754105531
서울특별시 도봉구 방학동 271-1,센트라스,180000,37.6609347988243,127.0267260331
서울특별시 성북구 정릉동 266-455,,46000,37.6131470902067,127.012683051228
서울특별시 마포구 상암동 1748,신동아4,132300,37.5833920675148,126.880864779894
서울특별시 양천구 목동 728-11,,59000,37.5371457865953,126.865169965954
서울특별시 양천구 신정동 1023-8,벽산,123000,37.5201987251487,126.859188589961
서울특별시 강서구 공항동 8-5,텐즈힐(1단지),156500,37.561600450954,126.816023130341
서울특별시 성동구 하왕십리동 1071,자양호반써밋,129500,37.560680599542,127.024489937553
서울특별시 강동구 성내동 421-24,,53500,37.5283649359584,127.130716347612
서울특별시 성북구 정릉동 780,경희궁자이(3단지),229000,37.6167648609946,127.002136993966
서울특별시 양천구 목동 904,현대파크빌,133500,37.5319318273523,126.871591433831
서울특별시 강서구 공항동 8-5,,90000,37.561600450954,126.816023130341
서울특별시 양천구 목동 904,고덕자이,165000,37.5319318273523,126.871591433831
서울특별시 동작구 상도동 288-8,제이제이파크,49000,37.4951948000771,126.933918847736
서울특별시 강동구 암사동 509,,119642,37.5523963093311,127.125814420892
서울특별시 노원구 공릉동 753,두산위브센티움,16600,37.6279421470055,127.070874943339
서울특별시 강서구 공항동 8-5,주공5,74000,37.561600450954,126.816023130341
서울특별시 영등포구 당산동 121-137,주공5,74000,37.5273122868828,126.90785358351
서울특별시 강동구 길동 53,쌍문동삼성래미안,56800,37.5435295214414,127.148590684816
서울특별시 송파구 문정동 652-2,인왕산아이파크,133000,37.4833888426266,127.123097114262
서울특별시 강서구 공항동 8-5,신반포4,470000,37.561600450954,126.816023130341
서울특별시 노원구 월계동 13,중랑숲리가,68000,37.6245905661541,127.065415722199
서울특별시 성동구 성수동2가 277-37,웅재주택,12590,37.5436964710983,127.062516198979
서울특별시 중랑구 면목동 113-2,중곡1단지,40000,37.5859086792437,127.090108301897
서울특별시 동작구 신대방동 713,목동신시가지10,296000,37.4943314525612,126.913661930354
서울특별시 양천구 목동 746-20,거여1단지,91000,37.5384030066232,126.869387765125
서울특별시 강동구 고덕동 251-2,DMC에코자이,121000,37.5610342924444,127.163117905831
서울특별시 용산구 효창동 5-6,투유빌,18000,37.5417674697808,126.964495858525
서울특별시 동작구 상도동 288-8,우당가동,20000,37.4951948000771,126.933918847736
서울특별시 동작구 상도동 288-8,옥수하이츠,320000,37.4951948000771,126.933918847736
서울특별시 서초구 반포동 30-26,DMC래미안e편한세상,125000,37.5037456658496,127.013532527704
서울특별시 노원구 중계동 592,현대빌리지(916-6),23000,37.6542913240526,127.073557408671
서울특별시 동작구 대방동 501,자이빌,46800,37.5072946636747,126.924711747263
서울특별시 영등포구 양평동5가 76,송파 아이파크,22900,37.5401145097335,126.892103512609
서울특별시 구로구 고척동 327,길음뉴타운7단지(두산위브),109700,37.501027400899,126.864945312405
서울특별시 서초구 방배동 2525,행당한진타운,146500,37.474408252473,126.982576685314
서울특별시 마포구 성산동 590-1,신길파크자이,148000,37.5659523418095,126.903023084893
서울특별시 강북구 수유동 573-39,강남 푸르지오시티 2차(PRUGIO CITYⅡ),13800,37.6486258969602,127.012241715995
서울특별시 성북구 정릉동 1015,창동주공18단지,42500,37.6043632616961,127.016928111633
서울특별시 강동구 암사동 414-2,명진베스트빌,38500,37.5566230974592,127.143039980028
서울특별시 양천구 신정동 1327,텐즈힐(1단지),176000,37.516494329205,126.853038393761
서울특별시 강서구 마곡동 760,홍제삼성래미안,84000,37.5672479846037,126.826992736525
서울특별시 영등포구 당산동 376,한강현대,119000,37.5298247572871,126.908236508058
서울특별시 노원구 중계동 369,목동신시가지9,305000,37.6568915639532,127.078983583783
서울특별시 관악구 봉천동 725-4,상록수,62000,37.4938027033508,126.92681705115
서울특별시 성동구 마장동 474-5,벽산,48000,37.5704160133581,127.037332720736
서울특별시 마포구 창전동 439,e편한세상신금호파크힐스,169500,37.5533866511831,126.931064388029
서울특별시 강남구 도곡동 467-24,건영1,65000,37.4865168979792,127.051882861207
서울특별시 종로구 홍파동 199,래미안목동아델리체(101동~118동),152500,37.5706961564115,126.963608594078
서울특별시 양천구 신월동 108-19,롯데캐슬퍼스트,134000,37.5329648768057,126.833784285477
서울특별시 마포구 염리동 98-28,그랑밸리(102동1~2호),52500,37.5482870330926,126.945618955059
서울특별시 은평구 진관동 20,한일유앤아이,68900,37.6419845917913,126.922606227427
서울특별시 서대문구 북가좌동 481,한양5,520000,37.5726489857162,126.910550761779
서울특별시 서초구 방배동 485-3,래미안 옥수 리버젠,183000,37.4750476984424,126.990469150051
서울특별시 성북구 돈암동 609-1,삼익플라주201동,85000,37.5941783218836,127.010321322145
서울특별시 성동구 행당동 345,정릉2차대주피오레,64000,37.5647118113965,127.037326138793
서울특별시 서대문구 홍제동 57-5,극동,125500,37.5812603609938,126.950591497251
서울특별시 노원구 중계동 502-1,시영3차(라이프)아파트,36500,37.6443713328952,127.063281683752
서울특별시 성북구 길음동 1288,한양I-Class,13450,37.6108450847147,127.027018309971
서울특별시 관악구 남현동 1133,다원퍼스티지,36000,37.4712100423475,126.973864050301
서울특별시 강동구 길동 355-5,창동2차현대,84500,37.5397546572788,127.144409672722
서울특별시 구로구 개봉동 481,효명(506-7번지),35400,37.492077368255,126.858496444041
서울특별시 광진구 구의동 29-13,신길센트럴자이아파트,133500,37.5533725011763,127.091837171713
서울특별시 동대문구 이문동 64,래미안힐스테이트고덕,151000,37.5997835954564,127.068513545003
서울특별시 양천구 신정동 1215-3,크로마하우스,80000,37.5198625096613,126.848726799614
서울특별시 송파구 방이동 43-2,씨티21차,19500,37.515877427963,127.111637991206
서울특별시 양천구 신월동 606-30,삼성파크빌,10000,37.5207057174147,126.846947178309
서울특별시 양천구 신월동 81-11,백련산힐스테이트1차,95000,37.5367232661636,126.83039675733
서울특별시 도봉구 쌍문동 53,수명산롯데캐슬,72750,37.6585287700527,127.028839788429
서울특별시 영등포구 대림동 1127,보라매갑을,57700,37.4943934373007,126.90677940214
서울특별시 중랑구 면목동 1513,케이타워 오피스텔,11200,37.5764203108934,127.088449167558
서울특별시 동대문구 답십리동 111,동아그린,130000,37.5734698133483,127.053366848512
서울특별시 마포구 상암동 1660,한진한화그랑빌,78500,37.5817590063066,126.881479978349
서울특별시 강북구 수유동 270-140,경남,85000,37.6484692361149,127.017143782789
서울특별시 영등포구 영등포동4가 103,래미안크리시엘,74000,37.518492825972,126.903234644155
서울특별시 강서구 등촌동 528-2,,185000,37.5498103270463,126.859916228929
서울특별시 강북구 미아동 474,신금호파크자이,163000,37.613739986561,127.025698726597
서울특별시 도봉구 쌍문동 220,(420-38),23500,37.6595815004647,127.032558367097
서울특별시 마포구 서교동 452-6,꿈의숲한신더휴,68500,37.5571110014765,126.915135644079
서울특별시 성북구 삼선동2가 420,EGSoulLeader,9150,37.5821301093423,127.01348658649
서울특별시 양천구 목동 548-3,우성,139000,37.5446483431533,126.869035928106
서울특별시 은평구 불광동 248,신내두산아파트,105000,37.6148201496954,126.928054489549
서울특별시 관악구 봉천동 480-14,미륭,70800,37.4883011468555,126.947669609751
서울특별시 강서구 공항동 8-5,북한산푸르지오,103000,37.561600450954,126.816023130341
서울특별시 구로구 고척동 249-117,목동신시가지12,157000,37.5058998304071,126.846691723432
서울특별시 송파구 풍납동 338-16,센트라스,141500,37.5306431785886,127.119249710826
서울특별시 구로구 항동 241,쌍용더플래티넘용마산,93500,37.4779939218141,126.826049153125
서울특별시 영등포구 당산동2가 164,파크하비오,23050,37.5236014309912,126.894917191256
서울특별시 광진구 자양동 227-7,고덕아르테온,189000,37.5378031898538,127.072632021718
서울특별시 양천구 신정동 1277,상계주공7(고층),62800,37.5112616967361,126.850765825047
서울특별시 강서구 화곡동 360-2,현대프라임,129900,37.5327125520798,126.837114748825
서울특별시 강동구 암사동 489-16,옥수삼성,210000,37.5486267045216,127.133933412261
서울특별시 영등포구 당산동1가 16-1,강동큐브(2차),9700,37.5206528936117,126.896336466877
서울특별시 강남구 도곡동 966,신길센트럴자이아파트,154000,37.4891538456354,127.04878602541
서울특별시 동대문구 장안동 415-8,동우빌라트,21000,37.5621488090098,127.062532859233
서울특별시 강북구 우이동 154-20,한신동성,95800,37.6614440513075,127.00967839036
서울특별시 도봉구 방학동 271-1,래미안라센트,91000,37.6609347988243,127.0267260331
서울특별시 강서구 화곡동 409-47,현대토픽스,32000,37.5387848272723,126.847565926019
서울특별시 성북구 정릉동 406,한성주택나동,14000,37.6064277767754,127.009915765487
서울특별시 강서구 염창동 262,대우,151500,37.5488204952569,126.876294728981
서울특별시 구로구 구로동 651-2,상암월드컵파크4단지,133500,37.4965892190788,126.872144455369
서울특별시 광진구 자양동 861,신촌삼익,105000,37.5374300374627,127.068800532801
서울특별시 구로구 개봉동 153-62,연희파크푸르지오,101000,37.4997162217237,126.855473294869
서울특별시 용산구 한강로2가 417,광장현대9단지,130000,37.5339990786581,126.970873901839
서울특별시 양천구 목동 746-20,래미안아트리치,93500,37.5384030066232,126.869387765125
서울특별시 도봉구 창동 818,금호어울림,85000,37.658956130778,127.046300185008
서울특별시 노원구 상계동 740,삼익가든,115000,37.6497540150085,127.058517787643
서울특별시 강서구 화곡동 403-14,상계주공12(고층),39500,37.5396053917507,126.842368665875
서울특별시 노원구 공릉동 383-12,동일스타빌,70000,37.6253496469342,127.071623183221
서울특별시 강서구 공항동 8-5,두산,71000,37.561600450954,126.816023130341
서울특별시 마포구 서교동 452-6,청구e편한세상,140000,37.5571110014765,126.915135644079
서울특별시 강서구 화곡동 1008-21,현대,138500,37.5475471741672,126.834225265278
서울특별시 양천구 신월동 18-11,삼각산아이원,75000,37.5415608138331,126.831651407637
서울특별시 은평구 녹번동 281,금호1,51000,37.6068385939235,126.93626654464
서울특별시 마포구 신공덕동 170,강변현대,250000,37.5415364830791,126.955297363222
서울특별시 관악구 봉천동 875-10,태릉해링턴플레이스,99000,37.4812081026184,126.94987212893
서울특별시 은평구 역촌동 62-8,고덕센트럴IPARK,159800,37.6052266153724,126.915192222142
서울특별시 강서구 공항동 8-5,벽산블루밍,84000,37.561600450954,126.816023130341
서울특별시 강동구 천호동 35-4,롯데캐슬위너,128000,37.5469404538524,127.140702027467
서울특별시 강서구 공항동 8-5,남산센트럴자이,119000,37.561600450954,126.816023130341
서울특별시 구로구 신도림동 642,공덕자이,206200,37.5058449867495,126.880590578918
서울특별시 금천구 시흥동 1011,보문파크뷰자이,106000,37.4493778208533,126.913439789898
서울특별시 중구 신당동 432-507,관악동부센트레빌,87000,37.5511162661761,127.006356692868
서울특별시 강서구 염창동 272-11,상계2차중앙하이츠,57800,37.5507590570618,126.86835517972
서울특별시 마포구 신수동 228-3,자슬린하우스,29900,37.545737015623,126.937752319908
서울특별시 영등포구 신길동 4950,삼익헤스티아(77-9),21000,37.5011229670024,126.913908792533
서울특별시 영등포구 신길동 4950,벽산블루밍,72000,37.5011229670024,126.913908792533
서울특별시 관악구 봉천동 1698-1,목동신시가지7,288000,37.4941052853678,126.928177342998
서울특별시 관악구 신림동 408-39,동부센트레빌,88000,37.476108754979,126.936234261996
서울특별시 광진구 중곡동 292,힐스테이트남산,80800,37.5688661073555,127.086494548803
서울특별시 관악구 신림동 1661-9,상암월드컵파크3단지,99000,37.4821849585636,126.902529280435
서울특별시 마포구 성산동 250-38,WD세븐스,25900,37.5591260924746,126.909450193987
서울특별시 강서구 공항동 8-5,안암동삼성래미안,88000,37.561600450954,126.816023130341
서울특별시 강동구 길동 415-13,상계주공11(고층),58000,37.5366329512868,127.136153018438
서울특별시 성동구 행당동 346,용답리치빌,48700,37.5558804553964,127.029207383318
서울특별시 관악구 봉천동 875-10,부요빌리지,41000,37.4812081026184,126.94987212893
서울특별시 노원구 상계동 1318,에스케이북한산시티,60500,37.6597839375192,127.069159557523
서울특별시 노원구 중계동 360-2,연희자이엘라,16000,37.6498275508447,127.074331602869
서울특별시 서대문구 연희동 218-43,엔트라움서래,60000,37.564867465176,126.927669161734
서울특별시 강서구 공항동 8-5,송파현대힐스테이트,115000,37.561600450954,126.816023130341
서울특별시 강동구 상일동 473,효성리버카운티,15000,37.5461454174572,127.167487349899
서울특별시 성동구 마장동 784,선경빌,37000,37.5652957945345,127.045183279267
서울특별시 강서구 화곡동 424-10,대우,158000,37.5316286088814,126.842195158165
서울특별시 양천구 신정동 952-14,남가좌동현대,85000,37.5246872263439,126.856699623145
서울특별시 강서구 등촌동 726,삼성래미안트리베라2단지,73750,37.55652334419,126.854223754912
서울특별시 서초구 잠원동 55-12,잠실 아레나,35750,37.5168904458979,127.00959872159
서울특별시 강서구 공항동 8-5,도화현대,99000,37.561600450954,126.816023130341
서울특별시 강서구 공항동 8-5,북한산두산위브2차,59800,37.561600450954,126.816023130341
서울특별시 강서구 내발산동 698-3,라이프,58000,37.5527337242547,126.833427252408
서울특별시 강서구 공항동 8-5,왕십리KCC스위첸,112000,37.561600450954,126.816023130341
서울특별시 강서구 공항동 8-5,벽산블루밍,72800,37.561600450954,126.816023130341
서울특별시 종로구 신문로2가 1-104,마포센트럴 아이파크,174500,37.5725941812968,126.969273521706
서울특별시 구로구 신도림동 642,롯데,123000,37.5058449867495,126.880590578918
서울특별시 서대문구 남가좌동 376,서울숲리버뷰자이,235000,37.5749918612212,126.920125943504
서울특별시 동작구 상도동 292-37,스타빌,48000,37.495020604757,126.932905220256
서울특별시 은평구 녹번동 282,청구빌라A동(16-504),30000,37.6017858743741,126.936661658569
서울특별시 용산구 갈월동 101-49,대림2차,175000,37.5415127190529,126.972452961403
서울특별시 강북구 번동 459-110,문래해태,56000,37.6378234670964,127.032254408296
서울특별시 노원구 상계동 136-28,마포그랑자이(2단지),192000,37.6655786168164,127.07049622943
서울특별시 양천구 목동 911,엔-씨티오피스텔,13500,37.5346424311653,126.884816122965
서울특별시 강서구 화곡동 369-25,현대빌라,57500,37.5358103928496,126.840164697564
서울특별시 동대문구 용두동 788,당산현대3차,103000,37.5778070145745,127.036883015735
서울특별시 강남구 도곡동 963,한신무학,88000,37.4904503641949,127.039997193037
서울특별시 동대문구 장안동 373-7,대교,277000,37.5696018595628,127.069288779614
서울특별시 양천구 목동 530-3,대명이튼캐슬,35500,37.5463229746946,126.872026745898
서울특별시 서초구 방배동 474-21,신내,42000,37.4771756682088,126.985661319728
서울특별시 성북구 보문동5가 195,개포주공5단지,265000,37.5815593777309,127.020114191509
서울특별시 은평구 응암동 745-13,트리마제,369500,37.5872494570158,126.919904066994
서울특별시 영등포구 여의도동 30,길음뉴타운2단지푸르지오,70400,37.5260016646304,126.932632672415
서울특별시 중구 신당동 842,시범,265000,37.5547365066187,127.014263668771
서울특별시 관악구 봉천동 1703,e편한세상영등포아델포레,122000,37.4895920965132,126.955554597324
서울특별시 강서구 화곡동 919-1,동부센트레빌,103000,37.5301648129326,126.843935091187
서울특별시 강서구 공항동 8-5,서광아파트,206000,37.561600450954,126.816023130341
서울특별시 동작구 상도동 214-148,(467-36),17000,37.4951374356907,126.946036455359
서울특별시 성북구 석관동 10,송산아파트,57500,37.6123138667374,127.06893164021
서울특별시 관악구 신림동 1746,신동아,92300,37.4840017278246,126.9056068235
서울특별시 강서구 공항동 8-5,벽산블루밍,107000,37.561600450954,126.816023130341
서울특별시 광진구 자양동 770-2,이튼타워리버1차,142000,37.5391955809321,127.080966665682
서울특별시 동대문구 용두동 795,다다빌리지,38500,37.5716477982277,127.029219765505
서울특별시 강동구 명일동 359,벽산라이브파크,53000,37.5524804591506,127.145208524251
서울특별시 동대문구 전농동 10,문래힐스테이트,146500,37.5766421261107,127.060465846616
서울특별시 성북구 정릉동 494,래미안하이리버,169000,37.6026562735055,127.009409966425
서울특별시 동대문구 전농동 10,리버힐삼성,165000,37.5766421261107,127.060465846616
서울특별시 성북구 하월곡동 88-510,신길파크자이,154000,37.6068584873973,127.029959926938
서울특별시 성북구 정릉동 1025,이트리움송파(281-4),77425,37.6028250097742,127.015555006077
서울특별시 노원구 상계동 1299,정원하우스,40000,37.6566248477263,127.07094231653
서울특별시 동작구 상도동 408,아트빌라,50000,37.4935295589991,126.95743119907
서울특별시 용산구 이태원동 155-10,소미골드라인III,28000,37.5363805744322,126.990557635738
서울특별시 송파구 방이동 170-23,용마한신,42500,37.5136765744838,127.119082340563
서울특별시 중구 묵정동 35,LG선릉에클라트(A),35000,37.5615322366192,126.999280611633
서울특별시 금천구 독산동 378-340,잠실엘스,314000,37.464187996233,126.905624052117
서울특별시 양천구 신정동 311,서울숲대림,185000,37.5174039317093,126.858682558236
서울특별시 광진구 자양동 788,하임빌라1동,52000,37.5329778962287,127.069768196916
서울특별시 동대문구 답십리동 1014,부성빌라,25000,37.5677324870223,127.059520848719
서울특별시 강서구 등촌동 702,우성,125000,37.5623617210231,126.848366667212
서울특별시 서초구 서초동 1469-11,청계리버빌5차,44700,37.4804508407735,127.008775502929
서울특별시 강서구 염창동 298,개나리래미안,260000,37.5521253803936,126.873427807174
서울특별시 노원구 월계동 12,신궁전빌라,27500,37.6265226116642,127.064158523429
서울특별시 강동구 상일동 514,마포자이더센트리지(102동~112동),195000,37.5485938849143,127.167800631257
서울특별시 관악구 신림동 316-62,한화꿈에그린,147000,37.4606810188504,126.932663737284
서울특별시 광진구 화양동 21-20,종암에스케이,67500,37.5478019769293,127.067876253552
서울특별시 성동구 하왕십리동 990,자양호반써밋,129000,37.5623533304177,127.028377895927
서울특별시 도봉구 쌍문동 299-1,관악파크푸르지오,80000,37.6497985996864,127.024501380859
서울특별시 양천구 목동 405,엔젤타운6차,36500,37.5234409623785,126.874178335257
서울특별시 도봉구 쌍문동 73,화랑,230500,37.6548047423787,127.035145507637
서울특별시 광진구 자양동 2-2,리버힐삼성,117000,37.5391238503525,127.069683630291
서울특별시 서대문구 남가좌동 389,두산1,54500,37.5771753939051,126.919159886739
서울특별시 중구 신당동 333-66,마포프레스티지자이,202000,37.5577655027716,127.013297149824
서울특별시 동작구 상도동 288-8,쌍용2,54000,37.4951948000771,126.933918847736
서울특별시 성동구 용답동 26-21,용산롯데캐슬센터포레,173000,37.5617258567968,127.053804411007
서울특별시 강동구 암사동 442-1,당산효성1차,146000,37.5552096720912,127.131924490362
서울특별시 성북구 정릉동 1015,방학파크빌(A동),30000,37.6043632616961,127.016928111633
서울특별시 강동구 명일동 270,삼성동한솔아파트,205000,37.547202466583,127.147708870852
서울특별시 관악구 신림동 10-438,강변래미안,124500,37.4835209498546,126.934991939243
서울특별시 성북구 상월곡동 101,벽산상암스마트큐브,15000,37.6078992370885,127.045423992015
서울특별시 광진구 자양동 2-2,트윈타워,14100,37.5391238503525,127.069683630291
서울특별시 은평구 역촌동 3-19,파랑새빌라,40500,37.6077913218207,126.919361988698
서울특별시 강서구 화곡동 371-42,양평벽산블루밍,72000,37.5358302826045,126.837966501438
서울특별시 송파구 거여동 256-40,,63500,37.4923362657106,127.149732728254
서울특별시 영등포구 신길동 4958,디팰리스,310000,37.5029425844622,126.917366701934
서울특별시 성동구 성수동1가 704,,102245,37.5411130565341,127.045298240723
서울특별시 은평구 진관동 100-1,부암빌라(다동),24000,37.6338080221674,126.917749267289
서울특별시 노원구 상계동 734-3,,170000,37.6534879126693,127.058427566973
서울특별시 중구 정동 37,평강온새미로,36000,37.5632014230769,126.971934852329
서울특별시 관악구 신림동 518-45,신길센트럴자이아파트,154000,37.4857319111708,126.912361255553
서울특별시 중구 광희동1가 89-1,한양3,218000,37.5648727463264,127.005257338398
서울특별시 성동구 하왕십리동 1070,래미안당산1차,140000,37.5663313038338,127.028440866987
서울특별시 성동구 하왕십리동 1052,,259862,37.5613628898771,127.025917842455
서울특별시 영등포구 양평동2가 38-1,숭인한양LEEPS,10000,37.5243961073332,126.882570707837
서울특별시 도봉구 방학동 638-10,,950000,37.6675921706289,127.036981579533
서울특별시 은평구 불광동 312-104,브라이튼여의도,453400,37.6203150396472,126.921467435707
서울특별시 동작구 상도동 288-8,중앙하이츠빌,175000,37.4951948000771,126.933918847736
서울특별시 강동구 암사동 433-29,노블레스 빌,17000,37.5515665605531,127.137779008815
서울특별시 마포구 노고산동 57-18,당산반도유보라팰리스,159000,37.5548728705061,126.935408502371
서울특별시 강동구 길동 388-2,(51-2),16500,37.5376464152472,127.138614663086
서울특별시 송파구 잠실동 295-20,삼성산주공(주공3단지),60000,37.5059782568597,127.08000744057
서울특별시 은평구 역촌동 21-26,약수하이츠,106000,37.6049722735047,126.916848880763
서울특별시 중랑구 면목동 86-20,더샵스타시티,275000,37.5917845932243,127.092319714858
서울특별시 강서구 가양동 1490,대선빌,32300,37.5587212796979,126.863532908859
서울특별시 금천구 독산동 1156,벨리시모 오피스텔,10000,37.4610556426968,126.896801292984
서울특별시 동작구 사당동 105,북한산두산위브,114300,37.4896946254326,126.975650061703
서울특별시 노원구 상계동 1285,,273000,37.6669567609885,127.079688357716
서울특별시 종로구 사직동 9,e-편한세상,267500,37.5744172415207,126.968880867164
서울특별시 구로구 개봉동 11-26,구의현대2단지,162000,37.5038717766069,126.843475819564
서울특별시 광진구 중곡동 175-61,신길센트럴자이아파트,126250,37.5692589889963,127.080833141325
서울특별시 동작구 상도동 431,쌍용,104000,37.4993523923787,126.954733217786
서울특별시 동작구 신대방동 724,현대아파트1동~3동,189000,37.498559088724,126.926048617167
서울특별시 구로구 개봉동 357-24,보라매 신동아 파밀리에,85000,37.4865415814018,126.852745782259
서울특별시 성북구 하월곡동 88-510,당산삼성래미안4차,212000,37.6068584873973,127.029959926938
서울특별시 동작구 상도동 299-68,송파파밀리에더퍼스트,128000,37.4953441744885,126.930291253128
서울특별시 동대문구 답십리동 530-15,하정아트빌,65000,37.5661625518015,127.055151048753
서울특별시 서대문구 남가좌동 381,강남 지웰홈스,16000,37.5761635101917,126.915714237952
서울특별시 노원구 상계동 740,"현대(1,2차)",60100,37.6497540150085,127.058517787643
서울특별시 동작구 상도동 288-8,동양파라빌,12000,37.4951948000771,126.933918847736
서울특별시 금천구 시흥동 4-147,한강현대하이엘,31500,37.4601361937582,126.908083806623
서울특별시 강남구 대치동 891-28,신수동르끌레브아파트,71000,37.5045442768978,127.054209061273
서울특별시 양천구 목동 525-3,마포자이더센트리지(102동~112동),195000,37.5459739161495,126.874959291365
서울특별시 동작구 상도동 288-8,창신쌍용2,63000,37.4951948000771,126.933918847736
서울특별시 서초구 서초동 1315,여의,72000,37.4973456019219,127.022614070225
서울특별시 강동구 성내동 590,영등포푸르지오,117500,37.5307605206146,127.125987937235
서울특별시 강동구 고덕동 210-1,서건빌라(비),53000,37.5576094801473,127.170103050262
서울특별시 송파구 풍납동 219,리센츠,304000,37.5341796229641,127.113752721633
서울특별시 송파구 오금동 87,동아,348000,37.5063953631362,127.134462104137
서울특별시 서초구 잠원동 157,아스테리온,52300,37.5087440552448,127.010214201793
서울특별시 중랑구 묵동 378,영타운 지웰 에스테이트,19000,37.6143378887968,127.073491872132
서울특별시 양천구 신월동 955-16,벽산블루밍,76300,37.5202716130779,126.832155576626
서울특별시 동대문구 장안동 329-2,래미안영등포프레비뉴,123000,37.5756429203038,127.075350784878
서울특별시 도봉구 방학동 713-17,나경그린빌,38500,37.6633417159718,127.046151490652
서울특별시 영등포구 여의도동 13-21,용산빌리지,75000,37.5296110870772,126.921555729122
서울특별시 영등포구 양평동1가 271,DH팰리스,25500,37.5234728842551,126.886288197415
서울특별시 강북구 번동 470-1,예원21,14000,37.6414389494623,127.031882975676
서울특별시 도봉구 쌍문동 27-2,두산,90000,37.6602917229327,127.037485686634
서울특별시 종로구 관수동 98-1,리센츠,325000,37.5686622354334,126.991487973259
서울특별시 영등포구 문래동4가 43,양평동 대우이안2,67000,37.5137696079608,126.88949840102
서울특별시 도봉구 쌍문동 56,스마트빌20차,32000,37.6575242550096,127.034882395018
서울특별시 관악구 봉천동 635-607,월드컵현대,73800,37.4885941349377,126.943142438316
서울특별시 동작구 흑석동 253-89,DMC에코자이,107000,37.5003136768081,126.960783522562
서울특별시 구로구 궁동 145-4,한원힐트리움_585,35000,37.4993311633278,126.83098687063
서울특별시 광진구 자양동 218-19,대우디오빌,25500,37.5360299543392,127.082087102121
서울특별시 양천구 신월동 512-19,아크로힐스논현,250000,37.5207629932848,126.844374693323
서울특별시 강동구 성내동 381-28,(120-92),18000,37.5329021036212,127.134489764872
서울특별시 동작구 신대방동 689-56,남산대림,172500,37.4878486728484,126.909759839736
서울특별시 금천구 독산동 1156,송파푸르지오시티,19000,37.4610556426968,126.896801292984
서울특별시 노원구 월계동 18,2차한양아파트,202000,37.617995702515,127.068427518791
서울특별시 성북구 장위동 320,삼성사이버빌리지,127000,37.6200557016344,127.051434874575
서울특별시 동작구 사당동 220-102,벽담주택,49000,37.4872834042954,126.970735106721
서울특별시 동작구 상도동 285-14,한화성원아파트,37800,37.4947579080474,126.93425282368
서울특별시 은평구 불광동 643,마포래미안푸르지오1단지,225000,37.6165291109629,126.926683005796
서울특별시 중랑구 신내동 397,신동아아파트2,53800,37.6091161460678,127.097679388152
서울특별시 구로구 구로동 743-39,성산시영(선경),100000,37.4884090051451,126.886832780044
서울특별시 강서구 외발산동 231-10,현대휴온,12000,37.5464201437188,126.822888152884
서울특별시 성동구 옥수동 60,경남아너스빌,82000,37.5422121332894,127.019578810892
서울특별시 강남구 자곡동 658,가보주택,45500,37.4747358842819,127.104817531927
서울특별시 강동구 길동 103-2,양평한신,94300,37.5393093208238,127.145999347502
서울특별시 강남구 청담동 13-35,잠실엘퍼스트오피스텔,22500,37.5214201156816,127.046065290146
서울특별시 동작구 노량진동 54-22,위례24단지(꿈에그린),131000,37.5124431308225,126.940938193056
서울특별시 노원구 상계동 666,신건영빌리지2차2,18200,37.6630145873682,127.055709518101
서울특별시 중구 신당동 304-250,타워팰리스3,419000,37.5632660785619,127.011689313193
서울특별시 마포구 성산동 142-9,창신쌍용1,90000,37.5685658193413,126.90746332071
서울특별시 강북구 미아동 812,문래동메가트리움,107000,37.6173116384026,127.020401549408
서울특별시 강동구 고덕동 255-1,문정시영,43900,37.5606681780796,127.16262420381
서울특별시 도봉구 쌍문동 27-2,두산,102000,37.6602917229327,127.037485686634
서울특별시 강북구 수유동 491-97,벽산라이브파크,53000,37.6332518251946,127.011665260073
서울특별시 강남구 역삼동 736-22,운현궁 에스케이 허브,25500,37.4987452532369,127.034746091127
서울특별시 양천구 신정동 325,동구빌라,31000,37.5120560613111,126.858409872488
서울특별시 서대문구 북가좌동 449,신촌태영데시앙,120500,37.576494133858,126.913171050724
서울특별시 서대문구 북가좌동 431,창동주공1단지,39000,37.575893797905,126.90909696044
서울특별시 양천구 목동 715-3,공덕아이파크,164000,37.540970880896,126.865478091719
서울특별시 도봉구 창동 601-87,한진해모로,96000,37.6416133857266,127.038508384856
서울특별시 강동구 강일동 675-1,한신,312000,37.5656993009965,127.173718694996
서울특별시 노원구 공릉동 727,리치카운티,76000,37.6284095507027,127.069253048767
서울특별시 동작구 상도동 416,경남아너스빌,70850,37.5007519286776,126.942703362893
서울특별시 은평구 역촌동 3-19,한솔솔파크,63000,37.6077913218207,126.919361988698
서울특별시 강남구 수서동 713,DMC파크뷰자이1단지,128500,37.4880167345764,127.101848510057
서울특별시 동대문구 답십리동 1013,용산데시앙포레,131000,37.5744246920538,127.056267653451
서울특별시 구로구 온수동 155,창동주공18단지,46000,37.4967519762673,126.821333676511
서울특별시 강서구 화곡동 1091,마포자이더센트리지(102동~112동),205000,37.5446220190794,126.831442765438
서울특별시 양천구 신정동 329,서대문노블루체,29000,37.5161909461632,126.870337507112
서울특별시 동대문구 답십리동 80,MH파크빌(235-56),21800,37.5744481574591,127.059673242852
서울특별시 강동구 강일동 114,신길센트럴아이파크,134000,37.5729198065467,127.172225042459
서울특별시 성북구 정릉동 1015,청담우방아파트,238000,37.6043632616961,127.016928111633
서울특별시 광진구 광장동 570,수유프리미어엠,12000,37.5423571152711,127.100947566847
서울특별시 동작구 상도동 288-8,관악푸르지오,99300,37.4951948000771,126.933918847736
서울특별시 양천구 목동 529-3,수산트리플,54500,37.5454837920532,126.871867382617
서울특별시 중랑구 상봉동 63,장안(248-92),17150,37.6012129721752,127.093061552443
서울특별시 강동구 명일동 332,다솜,34000,37.5490172711955,127.145666455175
서울특별시 은평구 역촌동 6-24,신촌럭키,76400,37.6089109505747,126.916978815723
서울특별시 금천구 시흥동 384-12,서울대벤처타운역 푸르지오,105019,37.4492852104287,126.910792562458
서울특별시 송파구 삼전동 5-7,마포래미안푸르지오4단지,184500,37.5057060694359,127.089777929418
서울특별시 강북구 미아동 791-1014,은천파크빌2,34200,37.6281993261598,127.01715102068
서울특별시 서초구 서초동 1346,트윈캐슬B동,30000,37.4867903061507,127.025675868573
서울특별시 강서구 방화동 614-11,자양호반써밋,90500,37.5648113868815,126.808913292816
서울특별시 영등포구 양평동4가 12,극동아파트,50000,37.5342936373846,126.893936076898
서울특별시 구로구 고척동 57-9,청림포레스트빌,13300,37.5047349109946,126.866978558925
서울특별시 동대문구 휘경동 172,,220000,37.5929682513999,127.062632237632
서울특별시 광진구 화양동 234,,220000,37.5445067326266,127.065844703899
서울특별시 서대문구 냉천동 261,,122000,37.566139089896,126.961583473485
서울특별시 성북구 하월곡동 219,,116000,37.6044079465985,127.035278405071
서울특별시 성동구 응봉동 15,성원,58500,37.5534299267708,127.03574110661
서울특별시 영등포구 영등포동7가 203,,82000,37.5243801067433,126.906871180548
서울특별시 동작구 상도동 22-77,(409-105),32000,37.5064676057146,126.946877563897
서울특별시 서대문구 북아현동 114-1,송파파인타운3단지,128000,37.5610581681691,126.958841196498
서울특별시 동작구 사당동 1137,제일그린빌(608-189),21300,37.4910229550898,126.97686666839
서울특별시 용산구 청파동1가 32-14,제일오피스텔,19400,37.5495621297773,126.968732999583
서울특별시 강서구 등촌동 515-44,신수동성원,115000,37.5456226123368,126.857909053561
서울특별시 구로구 온수동 155,프라비다옥토,17700,37.4967519762673,126.821333676511
서울특별시 광진구 군자동 60-68,고려아카데미텔,12500,37.5551986042109,127.074922772511
서울특별시 성동구 마장동 784,연희하이빌,21000,37.5652957945345,127.045183279267
서울특별시 서대문구 대현동 150,스마트빌16차,30500,37.5579211554465,126.946455915871
서울특별시 동대문구 휘경동 106,"염광(5,8,10,11동)",35000,37.5915190211052,127.064774428036
서울특별시 은평구 역촌동 6-24,(1111-8),20000,37.6089109505747,126.916978815723
서울특별시 양천구 목동 505-12,코오롱,72000,37.5461733480953,126.86941992544
서울특별시 성북구 장위동 230-15,,220000,37.6151104053571,127.044444003272
서울특별시 은평구 진관동 84,영등포푸르지오,121000,37.6364404889972,126.928783214998
서울특별시 강서구 등촌동 707,e편한세상송파파크센트럴,275000,37.56080406349,126.851687961989
서울특별시 성동구 성수동1가 13-117,한양2,18500,37.5494969145177,127.049843015044
서울특별시 강북구 미아동 306-52,삼보빌라,16000,37.6239816085134,127.023976134312
서울특별시 강북구 수유동 540-40,(220-9),28500,37.6435544819805,127.008721571579
서울특별시 구로구 궁동 202-6,신반포청구,258000,37.4933947180714,126.833660670903
서울특별시 마포구 상암동 1734,헬리오시티,260000,37.5870829376289,126.883344555391
서울특별시 강동구 성내동 411-14,더조은홈102,29300,37.530357767609,127.135042727407
서울특별시 영등포구 여의도동 17,래미안당산1차,107500,37.5257046937179,126.918741678497
서울특별시 양천구 목동 128-47,이에스하임,44900,37.5448145012296,126.88043011614
서울특별시 양천구 신월동 500-21,신촌숲아이파크,155000,37.5237963638413,126.850701154039
서울특별시 양천구 목동 902,역삼역센트럴푸르지오시티,20250,37.537476456673,126.875940767923
서울특별시 강서구 내발산동 704,동화빌,25000,37.5520105972231,126.837183324713
서울특별시 강남구 개포동 1281,현대홈타운,124500,37.4839883187894,127.067391885665
서울특별시 서대문구 남가좌동 289-54,영등포 센트럴 푸르지오 시티,21600,37.5707362400998,126.91490658502
서울특별시 구로구 구로동 314,양지빌라,38000,37.4910702074775,126.889773719203
서울특별시 금천구 독산동 1007-13,(92-131),28500,37.4658151649342,126.896309478813
서울특별시 구로구 구로동 110-1,빅토리아오피스텔,29500,37.5019938582138,126.888845797315
서울특별시 성동구 응봉동 97,기산에코빌,24700,37.5528940433582,127.032519707429
서울특별시 노원구 중계동 505,메종서리풀,55000,37.6387855630708,127.062487927133
서울특별시 은평구 갈현동 485-3,서울역한라비발디센트럴,142000,37.6169582815224,126.916554520831
서울특별시 동대문구 답십리동 530-17,서울역한라비발디센트럴,142000,37.5652209364129,127.056263899378
서울특별시 노원구 월계동 951,올림픽훼밀리타운,239000,37.6302464149326,127.057463536772
서울특별시 영등포구 당산동5가 9-3,세방리버하이빌,103000,37.5327765054228,126.900104529658
서울특별시 강북구 수유동 291-174,거성파스텔,94000,37.6458374626166,127.012901631136
서울특별시 동대문구 답십리동 998,삼성쉐르빌나동,32600,37.5661858435952,127.057693983227
서울특별시 금천구 가산동 151-14,e편한세상광진그랜드파크,182000,37.4767920783387,126.893870763357
서울특별시 성북구 하월곡동 219,가보주택,41500,37.6044079465985,127.035278405071
서울특별시 성북구 동소문동7가 23,벽산블루밍,86800,37.5951748724593,127.014148072591
서울특별시 마포구 도화동 564,삼우주택,17000,37.540241494631,126.95234943792
서울특별시 동작구 사당동 437-39,워커힐,272000,37.4788075271251,126.975063433696
서울특별시 서대문구 홍제동 473,강변래미안,175000,37.5845073711947,126.945497402073
서울특별시 서초구 잠원동 50-5,삼원아트빌라,19800,37.5161595665293,127.014709118561
서울특별시 강서구 화곡동 455-11,블루마리오피스텔,16000,37.5341843090322,126.852883305822
서울특별시 은평구 응암동 358-8,까사밀라,39750,37.5907579184797,126.918714256768
서울특별시 성북구 장위동 219-278,상암 두산위브센티움,14500,37.6172244990522,127.045586199262
서울특별시 도봉구 도봉동 641,상원하이빌,41000,37.6741332478974,127.04829873867
서울특별시 강서구 등촌동 568-13,브라이튼여의도,430600,37.5367460599354,126.862630806533
서울특별시 양천구 신월동 88-33,하늘빌,13500,37.5374086012292,126.834678345669
서울특별시 서대문구 북아현동 1009,두산5,65000,37.5591524524316,126.950146932156
서울특별시 관악구 봉천동 41-900,문래모아미래도,117500,37.4875382669893,126.952587252737
서울특별시 도봉구 창동 601-87,관악산휴먼시아2단지,50000,37.6416133857266,127.038508384856
서울특별시 동대문구 이문동 64,독립문극동(200-0),113800,37.5997835954564,127.068513545003
서울특별시 서대문구 합동 118,선경쉐르빌나동,39500,37.5619316835111,126.965906287936
서울특별시 성동구 홍익동 298,대림2차,173000,37.5654959152607,127.032239383666
서울특별시 은평구 갈현동 395-2,청수빌라(791-1372),14500,37.6205827444968,126.91975833281
서울특별시 관악구 신림동 610-223,한신빌리지10동,11000,37.4750169023822,126.924450428825
서울특별시 광진구 구의동 680,문래자이,157000,37.5441837427939,127.080896132131
서울특별시 강동구 고덕동 210-1,공덕1삼성래미안,171000,37.5576094801473,127.170103050262
서울특별시 성북구 보문동6가 36-2,잠실리시온,33000,37.5814157840283,127.017710648221
서울특별시 성북구 정릉동 494,경남아너스빌,75000,37.6026562735055,127.009409966425
서울특별시 은평구 불광동 441-29,킴스빌리지,100000,37.6239514801525,126.925300419202
서울특별시 중랑구 면목동 69-29,트리지움,282500,37.5870679675438,127.092232483248
서울특별시 양천구 목동 932,신촌현대캠퍼빌,20000,37.525985700169,126.872700785544
서울특별시 노원구 상계동 765,대도하이츠빌라,13800,37.647888818238,127.060796984294
서울특별시 동대문구 전농동 130-89,신현빌,30025,37.5805445537589,127.054063279403
서울특별시 서대문구 홍제동 453,카이벨로체청파2차,39800,37.5819153538654,126.95204947944
서울특별시 성북구 석관동 405,벽산블루밍,82800,37.606282766343,127.065717692893
서울특별시 은평구 응암동 768,한양팰리스(662-16),73000,37.5962667571824,126.922047341972
서울특별시 구로구 신도림동 645,금호1,38000,37.5095494557989,126.884199706954
서울특별시 동대문구 답십리동 1002,힐스테이트에코송파,18500,37.5723553121327,127.046019329585
서울특별시 영등포구 당산동4가 1-2,청림포레스트빌,13300,37.5273668672795,126.902880622179
서울특별시 구로구 고척동 331,태성빌라,15000,37.5075324025545,126.852817208483
서울특별시 성북구 돈암동 631,서초센트럴IPARK,80000,37.6033317626866,127.028043185355
서울특별시 강서구 내발산동 671-10,관악드림(삼성),88500,37.5537267840034,126.839528900487
서울특별시 양천구 목동 917,사이룩스,23000,37.5295042161977,126.875163391823
서울특별시 성북구 종암동 80,삼익세라믹,42000,37.6009876756256,127.030155293619
서울특별시 동작구 노량진동 323,타임730오피스텔,19000,37.5096291040511,126.947804247748
서울특별시 은평구 녹번동 283,,83000,37.6040543353051,126.936396889141
서울특별시 양천구 목동 917,새서울빌라3차,23000,37.5295042161977,126.875163391823
서울특별시 동대문구 답십리동 80,마포센트럴 아이파크,151500,37.5744481574591,127.059673242852
서울특별시 영등포구 신길동 3002,(309-11),35500,37.5022707105266,126.91237370729
서울특별시 도봉구 창동 603-49,울트라월드컵(참누리),113000,37.6420920554579,127.039397507048
서울특별시 강서구 화곡동 474-1,광양아트빌라트,79000,37.5374604065672,126.855266741248
서울특별시 관악구 신림동 759-62,송파파인타운1단지,124000,37.4758056968648,126.915479773694
서울특별시 은평구 신사동 29-56,서초 아르누보씨티,26100,37.5964265438838,126.91066294479
서울특별시 동대문구 이문동 311,삼호아트빌,24000,37.5935265008564,127.060218054769
서울특별시 강동구 고덕동 688,홍제원현대(459-0),79000,37.5589494593044,127.147082524967
서울특별시 서초구 양재동 275-4,신반포2,350000,37.4768770767714,127.043926411767
서울특별시 영등포구 영등포동7가 46-1,가온빌라트,49200,37.5239607571176,126.902706977756
서울특별시 성동구 행당동 304,서서울삼성,112500,37.5592547734197,127.029597017943
서울특별시 구로구 오류동 285-10,미아동부센트레빌,89700,37.4875677477451,126.832717239352
서울특별시 구로구 구로동 1260,연희웨스트팰리스,13200,37.4898358033032,126.893880128121
서울특별시 성동구 행당동 346,DMC래미안e편한세상,126000,37.5558804553964,127.029207383318
서울특별시 동대문구 장안동 95-1,하이랜드빌라,104000,37.5808826791312,127.069120244697
서울특별시 은평구 대조동 48-21,힐스테이트신촌,136500,37.6112423188238,126.919800308037
서울특별시 동대문구 장안동 371-1,장성미모아,44000,37.5716707486031,127.069859628795
서울특별시 마포구 공덕동 43,홍은미성,54000,37.5510235757328,126.959614890478
서울특별시 성북구 정릉동 1025,경서아트빌(658-41),20000,37.6028250097742,127.015555006077
서울특별시 양천구 신정동 1220-1,나산스위트홈A동,19000,37.5178569152645,126.849249034835
서울특별시 강동구 둔촌동 621,,45000,37.5331699961526,127.145855118684
서울특별시 강서구 화곡동 102-142,,64300,37.5388062018343,126.845089410106
서울특별시 성동구 하왕십리동 1070,구의현대2단지,173000,37.5663313038338,127.028440866987
서울특별시 동작구 사당동 105,,255924,37.4896946254326,126.975650061703
서울특별시 성동구 금호동1가 633,더엠하우스,45000,37.5516933617965,127.027222938391
서울특별시 성동구 하왕십리동 1066,청계산자연누리,17000,37.5684498209013,127.028040516397
서울특별시 광진구 자양동 861,동훈파크빌,18000,37.5374300374627,127.068800532801
서울특별시 종로구 평동 233,"현대(1,2차)",65000,37.5684690367064,126.965891423182
서울특별시 광진구 광장동 577,우성1,105000,37.5441456421547,127.101527301469
서울특별시 강동구 상일동 521,삼익세라믹아파트,30300,37.5523674571083,127.170868716845
서울특별시 송파구 문정동 64-15,헬리오시티,249000,37.4844718884371,127.125801963425
서울특별시 강서구 화곡동 361-1,북악빌라,41500,37.5336462319505,126.837356988102
서울특별시 강동구 천호동 414,로얄팰리스스위트,32000,37.5394152598787,127.126995720254
서울특별시 노원구 중계동 359-1,디아뜨 센트럴,17700,37.6528314028999,127.07592630319
서울특별시 구로구 구로동 187-3,방배래미안타워,208000,37.485683268026,126.899053661374
서울특별시 노원구 중계동 359-1,강남데시앙포레,175000,37.6528314028999,127.07592630319
서울특별시 도봉구 쌍문동 725,미도빌라,15000,37.646908502592,127.028189076552
서울특별시 종로구 무악동 60,필립하우스,15776,37.5770012392237,126.95744531003
서울특별시 동대문구 답십리동 464-1,청송나동,30000,37.5726924675573,127.044123220013
서울특별시 동대문구 장안동 581,용산케이씨씨스위첸,144000,37.5652943577914,127.065377531925
서울특별시 서초구 잠원동 70,역삼래미안,242000,37.5083533094199,127.005979601371
서울특별시 중랑구 망우동 583,아너스빌(231-8),37500,37.602359686168,127.104954882562
서울특별시 성북구 정릉동 559-80,서원,35000,37.5995863253214,127.008241620526
서울특별시 광진구 중곡동 191-77,구의강변우성아파트,140000,37.5663930801518,127.078867897689
서울특별시 양천구 신정동 311,신촌 르메이에르타운5,17500,37.5174039317093,126.858682558236
서울특별시 구로구 구로동 1269,한양1,62000,37.4988452187698,126.880552645833
서울특별시 송파구 거여동 290,신촌 르메이에르타운5,16000,37.4909745878818,127.144586186705
서울특별시 서대문구 남가좌동 389,홍제원현대(459-0),95200,37.5771753939051,126.919159886739
서울특별시 구로구 구로동 1280,레이크팰리스,243000,37.4885093277413,126.890801238217
서울특별시 은평구 갈현동 13-7,신촌 르메이에르타운5,16000,37.6291411118281,126.916489017399
서울특별시 양천구 목동 533-21,현대8(803동),128000,37.5449535276597,126.872508648033
서울특별시 성동구 옥수동 100,목화밀라트,30000,37.539617167963,127.015956898092
서울특별시 강서구 가양동 1461,한가람,205000,37.5704957193283,126.847174411361
서울특별시 서대문구 북가좌동 481,현대프라임,129500,37.5726489857162,126.910550761779
서울특별시 양천구 신월동 916-6,브라운스톤태릉,84200,37.5246652988804,126.832883546173
서울특별시 서초구 방배동 593-36,랜드마크Ⅱ,56000,37.476208577115,126.993359448149
서울특별시 동작구 사당동 1132,용산롯데캐슬센터포레,156000,37.4907773085387,126.972512085381
서울특별시 송파구 문정동 624,부띠크 모나코,265000,37.4798682885767,127.12174819551
서울특별시 동작구 상도동 214-150,쌍문동삼성래미안,60000,37.4955401243775,126.946099492027
서울특별시 성북구 길음동 1285,화림빌라(558-23),14000,37.6096747261883,127.019032016559
서울특별시 동작구 노량진동 325,성원,62500,37.5074254730822,126.945123370196
서울특별시 성동구 행당동 346,우성골든빌라,39700,37.5558804553964,127.029207383318
서울특별시 영등포구 신길동 4967,신촌푸르지오,145500,37.502798416692,126.913456416156
서울특별시 동작구 본동 487,성우테크노빌(688-20),22000,37.5090587317247,126.949798994942
서울특별시 강남구 자곡동 655,동아청솔,89000,37.4743936237496,127.104066621552
서울특별시 동작구 상도동 903,,70000,37.5053357229011,126.947797962972
서울특별시 도봉구 창동 30,지은아트빌(555-11),31000,37.6464611137803,127.051742474665
서울특별시 은평구 응암동 365-50,광화문시대,30300,37.5920229310858,126.918874231805
서울특별시 성동구 하왕십리동 1066,대영하이츠빌라(7차),27550,37.5684498209013,127.028040516397
서울특별시 서대문구 홍제동 461,랜드마크Ⅱ,56000,37.5783538682014,126.95129779809
서울특별시 강동구 암사동 442-1,우성7,242000,37.5552096720912,127.131924490362
서울특별시 양천구 신정동 312,성우스타팰리스(676-45),31300,37.5185420579875,126.862404579736
서울특별시 영등포구 양평동2가 45,광희동금호트윈 오피스텔,13500,37.5237774483018,126.883540257535
서울특별시 노원구 하계동 271-3,까사밀라,34600,37.6354452993831,127.064243687991
서울특별시 성동구 금호동1가 1823,청담현대3차아파트,377000,37.5542846887812,127.022691811161
서울특별시 중랑구 상봉동 1,사가정센트럴아이파크,120000,37.6039982711767,127.093545075406
서울특별시 동작구 동작동 333,덕수궁롯데캐슬,41000,37.4944065466474,126.980045806956
서울특별시 양천구 신정동 1326,엘림빌라,73000,37.5191734678965,126.851674813154
서울특별시 강동구 암사동 414-2,208-28,35000,37.5566230974592,127.143039980028
서울특별시 송파구 오금동 39-16,장미2,248000,37.505998263639,127.129074392935
서울특별시 노원구 상계동 1309,트윈타워,17000,37.6541782464313,127.07106577738
서울특별시 강남구 압구정동 513,서전빌라B,127400,37.5289385759485,127.042074950675
서울특별시 성동구 옥수동 561,,80000,37.5451371536209,127.013714834954
서울특별시 영등포구 양평동3가 105,신동아아파트1,37000,37.5305045311909,126.894195545144
서울특별시 성북구 정릉동 1032,팬타트럼-2단지,73000,37.6018362255029,127.008979537483
서울특별시 성동구 옥수동 428,신당KCC스위첸,114500,37.5433115020991,127.011630637835
서울특별시 노원구 공릉동 715,제이드힐,30000,37.6272668429353,127.068613417088
서울특별시 동대문구 휘경동 172,현대3,152000,37.5929682513999,127.062632237632
서울특별시 중구 황학동 787,테라팰리스건대2차,104000,37.5671059356091,127.023298555152
서울특별시 중랑구 망우동 457-2,인왕산아이파크,130000,37.5931806093141,127.098428183217
서울특별시 도봉구 창동 815,시티프라디움,60000,37.6610336966577,127.046089315065
서울특별시 양천구 목동 506-7,삼익,148500,37.5458055265303,126.871111158094
서울특별시 영등포구 신길동 4964,신당동 오피스텔,95350,37.5031181861687,126.907745237872
서울특별시 강동구 고덕동 688,약수하이츠,91000,37.5589494593044,127.147082524967
서울특별시 용산구 원효로1가 17-88,방배신삼호,306000,37.5414065403843,126.967344068717
서울특별시 도봉구 도봉동 569-2,르피에드 문정,78171,37.6853354362894,127.044263439531
서울특별시 구로구 개봉동 478,한솔리베르,129000,37.4846795429977,126.851939768222
서울특별시 구로구 개봉동 481,서초네이처힐3단지,180000,37.492077368255,126.858496444041
서울특별시 강북구 수유동 130-95,도봉 엠블렘,9800,37.6364555945728,127.019507551357
서울특별시 은평구 응암동 759,그린빌라,48000,37.5924138318716,126.925226536648
서울특별시 양천구 신월동 1036,신동아아파트1,43000,37.5445574100504,126.828496648213
서울특별시 관악구 신림동 1718,광화문스페이스본(101동~105동),154000,37.4891219909489,126.921922382389
서울특별시 구로구 고척동 141-1,한신빌,38500,37.5026965980834,126.860597588858
서울특별시 관악구 봉천동 882-4,서초트라팰리스,240000,37.4808933764346,126.948605040583
서울특별시 구로구 오류동 34-13,동명그린빌,34500,37.497053838161,126.844748687619
서울특별시 성동구 성수동1가 708,반포자이,467000,37.5509020576675,127.048016199008
서울특별시 강서구 내발산동 657,덕산빌리지,55500,37.5562956592551,126.838965102044
서울특별시 노원구 월계동 18,아남,163200,37.617995702515,127.068427518791
서울특별시 동대문구 신설동 96-48,"엘지,쌍용아파트",59900,37.5738687697392,127.026060394596
서울특별시 영등포구 신길동 67-1,신내9진흥,36300,37.5156952809645,126.918489883562
서울특별시 성북구 종암동 80,강남서해그랑블,90000,37.6009876756256,127.030155293619
서울특별시 성동구 금호동2가 1,동일스카이씨티빌(101동),44000,37.5554463365528,127.01862075193
서울특별시 동작구 흑석동 327,동일씨티빌,37000,37.501322376271,126.96309300422
서울특별시 강동구 성내동 420-38,(13-1),42000,37.529454792583,127.130792578506
서울특별시 동대문구 장안동 393-8,더스마트빌리지,18000,37.5688976780158,127.066563328894
서울특별시 강북구 미아동 1371,용궁빌라,13000,37.6198126206279,127.033045298587
서울특별시 중랑구 망우동 506-8,삼원빌라,52500,37.5957027428459,127.093340606275
서울특별시 금천구 시흥동 1-20,서초포레지움,24000,37.4635395308662,126.91083542524
서울특별시 동대문구 장안동 329-3,서초푸르지오써밋,345000,37.5739643441634,127.075387468834
서울특별시 양천구 목동 200,강남 푸르지오시티 2차(PRUGIO CITYⅡ),14800,37.541299390644,126.875505927686
서울특별시 중랑구 묵동 20,성우빌라,63000,37.6160515822467,127.088201260977
서울특별시 동대문구 답십리동 497-23,래미안방배아트힐(1008-2),238000,37.5689685801361,127.050596840747
서울특별시 노원구 월계동 13,새울센스빌,28000,37.6245905661541,127.065415722199
서울특별시 은평구 녹번동 281,미소지움(664-27),13050,37.6068385939235,126.93626654464
서울특별시 은평구 녹번동 105-2,한신,57000,37.6067942595596,126.928103217464
서울특별시 양천구 신정동 326,현대4,185000,37.5130367922481,126.86113248111
서울특별시 성동구 하왕십리동 1070,태영데시앙,80500,37.5663313038338,127.028440866987
서울특별시 중랑구 면목동 1548,마일스디오빌,39500,37.5724959931949,127.085315476234
서울특별시 송파구 문정동 618,"현대빌라(A,B동)",80500,37.4806047633012,127.12366621502
서울특별시 강동구 상일동 519,창동주공3단지(해등마을),57500,37.5555369138929,127.164445782028
서울특별시 노원구 상계동 691,이트리움송파(281-4),84930,37.6601571577107,127.06230852474
서울특별시 광진구 구의동 631-1,광희동금호트윈 오피스텔,11103,37.5373977464389,127.097621063329
서울특별시 강서구 내발산동 756,청파하우드,113000,37.5481491563284,126.822706623708
서울특별시 성동구 옥수동 250,(268-30),14000,37.5424312325016,127.014052103004
서울특별시 강동구 길동 415-13,구의현대2단지,155000,37.5366329512868,127.136153018438
서울특별시 구로구 구로동 1263,경희궁자이,34000,37.5034982286456,126.88421007151
서울특별시 영등포구 신길동 4964,개포자이프레지던스,347000,37.5031181861687,126.907745237872
서울특별시 동작구 신대방동 724,청구,139250,37.498559088724,126.926048617167
서울특별시 관악구 신림동 103-135,디에이치자이개포,360000,37.4720256638116,126.940050594964
서울특별시 강서구 마곡동 735,팰리스빌,28000,37.5693769643388,126.820606823603
서울특별시 노원구 하계동 256-5,천일빌라,96000,37.6398090940931,127.075557282958
서울특별시 성북구 종암동 134,,60000,37.5992882913524,127.038595496935
서울특별시 송파구 방이동 44-3,,63840,37.5169424586722,127.113106002269
서울특별시 양천구 신월동 957-11,,250000,37.5191106998541,126.831542360803
서울특별시 동작구 신대방동 724,,92001,37.498559088724,126.926048617167
서울특별시 동작구 노량진동 226-26,운현오피스텔,21450,37.5081880143411,126.942145968446
서울특별시 은평구 갈현동 514-3,,130000,37.6176051004037,126.91293739411
서울특별시 성동구 금호동4가 800,,450000,37.5459699809305,127.01982172766
서울특별시 마포구 상암동 1655,시그니처601,59900,37.5776864156328,126.888688773185
서울특별시 마포구 신수동 450,,450000,37.5512705046387,126.935580343312
서울특별시 서대문구 연희동 747,,450000,37.575684003261,126.928558106259
서울특별시 광진구 광장동 576,센토레아빌(678-12),30000,37.5424699220874,127.09773245669
서울특별시 성북구 석관동 410,동아청솔,94000,37.6060457872052,127.063614432719
서울특별시 서대문구 홍제동 471,주공19단지(창동리버타운),69000,37.584564968792,126.940867900154
서울특별시 동대문구 휘경동 372,인투파크거여 1단지,29000,37.5936190873694,127.066173973199
서울특별시 강동구 명일동 270,한일주택,13000,37.547202466583,127.147708870852
서울특별시 노원구 상계동 647,도성팰리스,25000,37.6661660800574,127.059319071937
서울특별시 광진구 자양동 844-8,위례24단지(꿈에그린),143000,37.5377609471602,127.065033281225
서울특별시 성북구 석관동 10,신주빌라,24800,37.6123138667374,127.06893164021
서울특별시 중구 신당동 852,창신쌍용2,59000,37.5604485958729,127.016730517193
서울특별시 동작구 사당동 105,,3200000,37.4896946254326,126.975650061703
서울특별시 성동구 옥수동 4,늘푸른동아,62000,37.5436917758825,127.018895964412
서울특별시 강북구 미아동 1357,천우네오젠1차,23000,37.6152263118285,127.01812709371
서울특별시 도봉구 쌍문동 199-1,르-메이에르 타운,13200,37.6591094842197,127.033494951089
서울특별시 동작구 흑석동 332,산호,171000,37.5066671249378,126.962188516358
서울특별시 강서구 내발산동 756,트리지움,365000,37.5481491563284,126.822706623708
서울특별시 강서구 등촌동 715,헤스티아빌,37000,37.5439005769284,126.859981715413
서울특별시 성동구 성수동2가 400,경일리치빌,25000,37.5364137307779,127.050993698376
서울특별시 노원구 공릉동 758,휴먼빌 시티,22000,37.6259281351867,127.083084399952
서울특별시 동작구 상도동 264-78,늘푸른동아,62000,37.4981966705536,126.936023463586
서울특별시 강동구 상일동 513,에르모소 용산,59000,37.5522479658082,127.166786120594
서울특별시 관악구 봉천동 1718,예다음(2단지),40000,37.4892878706206,126.944767004216
서울특별시 양천구 목동 956,광현홈타운,26775,37.5468252120401,126.867150717582
서울특별시 은평구 수색동 13-1,(386-2)청구빌라,69000,37.584645165353,126.899240699194
서울특별시 동작구 상도동 210-86,성원,63300,37.4980337398392,126.940987766782
서울특별시 중구 충무로4가 306,창동주공3단지(해등마을),55500,37.5625353854314,126.997667728847
서울특별시 마포구 아현동 800,케아하우스,28000,37.5530357624543,126.958539371542
서울특별시 성북구 보문동6가 458,사보이시티잠실,29400,37.5801292275843,127.018477572425
서울특별시 관악구 봉천동 1719,현대(2-4차),194000,37.4872048734348,126.950991136661
서울특별시 노원구 상계동 1282,래미안대치팰리스,440000,37.654962108265,127.068308213284
서울특별시 마포구 용강동 494-35,에르모소 용산,59900,37.5433779709593,126.939215566238
서울특별시 강서구 화곡동 361-1,서초한신,193000,37.5336462319505,126.837356988102
서울특별시 동작구 본동 492,한라비발디,223000,37.5100164382346,126.950079418788
서울특별시 양천구 신월동 77-9,모두가S,40500,37.5378360236083,126.830099490156
서울특별시 관악구 봉천동 1718,GEOville,16500,37.4892878706206,126.944767004216
서울특별시 양천구 목동 925,서초한신,173000,37.5288232909409,126.867840519363
서울특별시 강서구 염창동 287-1,대종팰리스,41000,37.5557240025396,126.8694909718
서울특별시 성북구 돈암동 633,한울마을,44500,37.6019579683172,127.026323062958
서울특별시 중구 묵정동 35,현대맨숀,294960,37.5615322366192,126.999280611633
서울특별시 강동구 명일동 15,"엘지,쌍용아파트",62000,37.5532947928121,127.148458988794
서울특별시 양천구 목동 941,올림픽선수기자촌2단지,307000,37.5321817245297,126.866836149715
서울특별시 마포구 상암동 1643,트리지움,283000,37.5726880929371,126.889779870573
서울특별시 관악구 봉천동 858-6,송파파인타운6단지,139700,37.4814566564271,126.95353482141
서울특별시 은평구 응암동 770,신내두산아파트,99700,37.5992916659593,126.934685022167
서울특별시 성북구 안암동1가 361,상지리츠빌역삼2차,230000,37.5893064316483,127.023748974341
서울특별시 은평구 녹번동 80-16,루체빌,29000,37.6056797663249,126.924263436904
서울특별시 노원구 상계동 652,우성캐릭터199,285000,37.6658310008746,127.055820883513
서울특별시 구로구 신도림동 435-10,상봉베스트원,24200,37.5068453722088,126.884118832903
서울특별시 성동구 용답동 28-10,석탑,60250,37.5609254369836,127.052749322146
서울특별시 관악구 신림동 90-68,광화문스페이스본(106동),197000,37.480518210226,126.931729587233
서울특별시 강북구 미아동 1353,파크리오,269000,37.6179760334621,127.01263074872
서울특별시 서대문구 연희동 745,경희궁자이(3단지),240000,37.5640976447281,126.928096279275
서울특별시 강동구 고덕동 652-5,로얄캐슬,37000,37.5602031428262,127.152381494962
서울특별시 서초구 방배동 841-1,우림빌라트,39000,37.4918381190078,126.993661338056
서울특별시 양천구 신정동 1278,LG선릉에클라트,24700,37.5157650231026,126.876370125698
서울특별시 송파구 풍납동 511,동양파라빌,12800,37.5310251132157,127.118533373628
서울특별시 광진구 광장동 108,프레스턴,45000,37.5514205243398,127.110030934525
서울특별시 송파구 석촌동 5-7,중화동건영아파트,44000,37.5050690949585,127.09844097975
서울특별시 성동구 금호동4가 800,금강프라임빌,60000,37.5459699809305,127.01982172766
서울특별시 서대문구 남가좌동 376,이편한세상화랑대,88000,37.5749918612212,126.920125943504
서울특별시 동대문구 장안동 391-25,청구e편한세상,158500,37.5703321603967,127.068129198617
서울특별시 강북구 미아동 812,아이린,43000,37.6173116384026,127.020401549408
서울특별시 송파구 삼전동 8-12,금호어울림(580-1),58000,37.5046546698397,127.089681443047
서울특별시 마포구 도화동 547,,88000,37.5402564246835,126.953870961641
서울특별시 서대문구 홍은동 468,,48000,37.5998131143961,126.944642936837
서울특별시 관악구 신림동 1700,펜타트럼1단지,53000,37.4770896764465,126.913175396196
서울특별시 성동구 하왕십리동 1002,태능에셈빌,59800,37.5608432938815,127.02668707042
서울특별시 강동구 명일동 44,정호빌라,60000,37.5537388436088,127.152109058036
서울특별시 은평구 불광동 645,,165000,37.6129093305885,126.93310434473
서울특별시 관악구 봉천동 1718,골든빌,53000,37.4892878706206,126.944767004216
서울특별시 강동구 상일동 519,더 나인 오피스텔,19000,37.5555369138929,127.164445782028
서울특별시 마포구 아현동 802,한마음빌라트,65000,37.5555439140394,126.959183184111
서울특별시 성동구 금호동4가 1250,THE테라나동,34500,37.5469990657171,127.017177776786
서울특별시 강서구 화곡동 424-79,창신쌍용2,61000,37.5315767060888,126.840648003608
서울특별시 성동구 행당동 380,세운푸르지오헤리시티,46000,37.5551406328318,127.038383152493
서울특별시 은평구 구산동 382,한가람,263000,37.6130165932898,126.905613429723
서울특별시 광진구 자양동 225-14,용산롯데캐슬센터포레,170000,37.5385934313907,127.078311339663
서울특별시 노원구 월계동 922,신반포2,350000,37.6231411562914,127.064911846997
서울특별시 성북구 정릉동 16-504,래미안하이베르,116600,37.6008821253945,127.018007992654
서울특별시 양천구 신정동 1273,용산 클라우드 나인 오피스텔,27900,37.5122899201757,126.854593164454
서울특별시 은평구 신사동 365,힐탑Ⅱ,12000,37.5989642121392,126.906169863044
서울특별시 구로구 구로동 650-4,초원빌라,68500,37.4958811119743,126.872722613749
서울특별시 마포구 용강동 501,리버힐삼성,110000,37.5409548676192,126.940721655411
서울특별시 영등포구 문래동3가 13,서초센트럴IPARK,173000,37.5171977306546,126.901390497317
서울특별시 마포구 대흥동 807,(26-11),45000,37.5535879847398,126.943735793607
서울특별시 영등포구 신길동 59-2,이촌코오롱(A),238000,37.5150711528812,126.91809489544
서울특별시 양천구 목동 505-4,남산타운,105600,37.5457297534953,126.870371231361
서울특별시 강동구 상일동 521,삼풍아파트,320000,37.5523674571083,127.170868716845
서울특별시 강동구 상일동 513,신당KCC스위첸,84500,37.5522479658082,127.166786120594
서울특별시 강서구 마곡동 773,이태원더힐,84000,37.5604157024356,126.827523168575
서울특별시 동작구 본동 150,경희궁자이(3단지),232000,37.5122226914266,126.953068073811
서울특별시 용산구 용문동 38-188,프라임51,59900,37.5370837539741,126.95778119109
서울특별시 영등포구 당산동4가 88,,215240,37.5310603162321,126.89638327158
서울특별시 성동구 하왕십리동 990,광화문오피시아빌딩,50000,37.5623533304177,127.028377895927
서울특별시 영등포구 여의도동 41,남산타운,140000,37.5221520969759,126.933684558017
서울특별시 광진구 능동 380,방배 리더스빌,14200,37.5532207874978,127.079925507868
서울특별시 중랑구 묵동 13,(210-7),300000,37.6164130659246,127.08487405604
서울특별시 양천구 신월동 987-1,서리풀크렘,154000,37.517094837206,126.832775211306
서울특별시 동작구 신대방동 707,서초더샵포레,118000,37.4945653935954,126.912248369811
서울특별시 강남구 개포동 187,현대맨숀,274960,37.4876228868467,127.068503584968
서울특별시 성동구 성수동1가 718,로얄맨션,72000,37.5388239825147,127.045045893181
서울특별시 성북구 길음동 1280,센트럴파크,374000,37.6118263552925,127.016166325966
서울특별시 노원구 월계동 13,신도아트빌,86500,37.6245905661541,127.065415722199
서울특별시 양천구 신정동 1198-15,하늘드리움,27000,37.5213314665429,126.849615006771
서울특별시 영등포구 여의도동 50,현대,240000,37.5206933527238,126.937105491683
서울특별시 동작구 상도동 279-77,한강타운,84700,37.4957822163014,126.935807046466
서울특별시 영등포구 대림동 1127,로얄그린빌라,48500,37.4943934373007,126.90677940214
서울특별시 성북구 돈암동 633,약수하이츠,148000,37.6019579683172,127.026323062958
서울특별시 강남구 삼성동 2,엘리시아,140000,37.5170298747364,127.04274514562
서울특별시 강동구 성내동 428-2,THE-Y321,58000,37.5269261388506,127.134714798864
서울특별시 동대문구 용두동 104-3,그린하이츠빌라,57000,37.5777705704062,127.032755692159
서울특별시 중랑구 망우동 467-36,Petiteville(쁘띠빌),30500,37.5975606300523,127.099250391869
서울특별시 동작구 신대방동 724,에버그린,80000,37.498559088724,126.926048617167
서울특별시 강동구 상일동 521,서초4현대,217000,37.5523674571083,127.170868716845
서울특별시 성북구 동소문동4가 279,남산중앙빌라,15000,37.592389569798,127.010468499624
서울특별시 성동구 응봉동 275,강촌,182500,37.5502521182132,127.029501454197
서울특별시 강서구 염창동 250-1,한가람,202000,37.5505356760612,126.873695190425
서울특별시 관악구 봉천동 1718,남산타운,162000,37.4892878706206,126.944767004216
서울특별시 은평구 불광동 234-2,우성아파트,195000,37.617078593053,126.931583175873
서울특별시 광진구 자양동 510-5,현대,109000,37.5369131584956,127.069680102229
서울특별시 마포구 성산동 200-283,서초이오빌,42000,37.5657527131428,126.90790133285
서울특별시 강북구 미아동 1354,Petiteville(쁘띠빌),44000,37.6211496720682,127.010827075164
서울특별시 영등포구 문래동3가 94,한진해모로,94500,37.5183596867889,126.890863632146
서울특별시 성동구 금호동2가 1217,메이플자이,470000,37.5512924647715,127.024541411946
서울특별시 은평구 응암동 769,서초센트럴IPARK,33200,37.5992189656793,126.930904468222
서울특별시 용산구 산천동 193,운현궁 에스케이 허브,35500,37.535002087034,126.95059340676
서울특별시 노원구 월계동 18,,22000,37.617995702515,127.068427518791
서울특별시 구로구 신도림동 648,서초어반하이 오피스텔,20500,37.5056826985762,126.8828227159
서울특별시 노원구 월계동 13,래미안 리더스원,370000,37.6245905661541,127.065415722199
서울특별시 강동구 암사동 509,e테크밸리,18500,37.5523963093311,127.125814420892
서울특별시 강서구 화곡동 354-54,,11500,37.532625045201,126.840266532089
서울특별시 노원구 상계동 437-4,방배현대빌라트(999-2),195000,37.6611734810487,127.068611065061
서울특별시 노원구 상계동 757,KCC 파크타운,78500,37.6516530389414,127.067422199148
서울특별시 은평구 대조동 171-19,루남산,100000,37.6115776199115,126.921607664252
서울특별시 영등포구 신길동 4967,,300000,37.502798416692,126.913456416156
서울특별시 노원구 중계동 588,서초삼성래미안,234000,37.6534324673993,127.072310927385
서울특별시 송파구 풍납동 281-4,,500000,37.5327655917766,127.114313553738
서울특별시 서대문구 홍은동 265-311,제이빌(85-8),78000,37.5841564237656,126.934325764718
서울특별시 강동구 둔촌동 630,주건축물제1동,17000,37.5341452290037,127.146518101181
서울특별시 구로구 신도림동 642,인왕산아이파크,136500,37.5058449867495,126.880590578918
서울특별시 서초구 우면동 788,디자인시티,30000,37.458461703115,127.023654863934
서울특별시 서대문구 홍제동 136-9,한강자이에클라트,120000,37.5873324591972,126.947540803751
서울특별시 관악구 봉천동 1708,한강타운,88000,37.4845267749186,126.942894626699
서울특별시 은평구 신사동 297,방배대우디오빌,30000,37.6003550347728,126.904106671617
서울특별시 성동구 행당동 302-22,청계천두산위브더제니스,178000,37.5599426200898,127.029853303533
서울특별시 동작구 상도동 279-145,대우 월드마크 용산,125000,37.4954582262275,126.934191145066
서울특별시 노원구 상계동 1256,신당상상헌,41800,37.6799630377746,127.053504710908
서울특별시 성동구 송정동 73-547,더원빌(727-6),32500,37.551173801456,127.066257856218
서울특별시 양천구 신정동 965-18,약수하이츠,154000,37.5227033965696,126.854924998453
서울특별시 동대문구 전농동 687,래미안신반포리오센트,280000,37.5783117738141,127.048527041801
서울특별시 영등포구 당산동 121-75,광희동금호트윈 오피스텔,15900,37.528586440993,126.907109526087
서울특별시 중랑구 면목동 1077-1,경희궁의 아침 3단지,63000,37.5813217157076,127.095949065546
서울특별시 강남구 삼성동 142-7,파크사이드,119000,37.5065582543402,127.050853385036
서울특별시 동작구 노량진동 57-1,신당KCC스위첸,110500,37.5128170490556,126.941666546213
서울특별시 양천구 목동 752-1,더하우스,480000,37.5385339193247,126.871438112842
서울특별시 송파구 잠실동 19,반포아트빌,73000,37.5129324772866,127.081460737023
서울특별시 성동구 성수동1가 656-234,용비어천가,30800,37.5420589174559,127.04532053837
서울특별시 송파구 삼전동 166-1,신반포2,545000,37.5005699423572,127.093654174547
서울특별시 양천구 신정동 1259,서초대우,182000,37.5137367146629,126.853687850909
서울특별시 강동구 상일동 519,,108000,37.5555369138929,127.164445782028
서울특별시 강동구 명일동 359,서전빌라B,106000,37.5524804591506,127.145208524251
서울특별시 강동구 고덕동 688,대림e-편한세상1,250000,37.5589494593044,127.147082524967
서울특별시 광진구 광장동 246-7,강남오피스텔,26000,37.5462494535212,127.102801161077
서울특별시 마포구 도화동 82,덕수궁롯데캐슬,31500,37.5363678259177,126.947063641704
서울특별시 성동구 용답동 23-18,서울역센트럴자이,163000,37.561692134387,127.054643863518
서울특별시 노원구 상계동 135,트윈시티 남산,35000,37.6660836140376,127.068667494845
서울특별시 강서구 등촌동 687,마로니에빌라,25250,37.5649734120019,126.842430453381
서울특별시 양천구 신정동 1197-2,서전빌라B,112000,37.5216541621244,126.849016055809
서울특별시 강동구 고덕동 210-1,강남역인앤인,19800,37.5576094801473,127.170103050262
서울특별시 강남구 역삼동 754,신당동하이츠,56500,37.4985712235437,127.046418558768
서울특별시 성북구 장위동 230-24,서전빌라B,112000,37.6157627753772,127.04258605759
서울특별시 노원구 상계동 740,서전빌라B,135000,37.6497540150085,127.058517787643
서울특별시 마포구 염리동 533,서울역풍림아이원플러스,40000,37.5508892423783,126.948512315027
서울특별시 마포구 공덕동 460,반포힐스테이트,420000,37.5471055264549,126.955448049561
서울특별시 노원구 공릉동 81,신반포4,460000,37.6236489350667,127.083557738377
서울특별시 성북구 종암동 104-1,신반포2,400000,37.6011857517073,127.036988885164
서울특별시 강서구 화곡동 100-18,한강타운,91000,37.5408030400135,126.846087571463
서울특별시 구로구 신도림동 271-25,신반포12,235000,37.514321541167,126.881393624446
서울특별시 구로구 신도림동 642,현대슈퍼빌,350000,37.5058449867495,126.880590578918
서울특별시 강동구 명일동 270,신반포2,505000,37.547202466583,127.147708870852
서울특별시 동작구 상도1동 725-1,용산파크맨션2차,170000,37.5023750643193,126.947089685969
서울특별시 금천구 독산동 1156,(76-6),21000,37.4610556426968,126.896801292984
서울특별시 은평구 진관동 2,로하스빌16차,53000,37.6489648175447,126.931865892719
서울특별시 강서구 염창동 293,한강로벽산메가트리움,29300,37.5539729003829,126.874209750249
서울특별시 동대문구 장안동 329-3,현대슈퍼빌,280000,37.5739643441634,127.075387468834
서울특별시 은평구 갈현동 512-2,창신쌍용2,62000,37.6171775061718,126.913816503429
서울특별시 광진구 자양동 861,(409-62),40000,37.5374300374627,127.068800532801
서울특별시 동작구 상도동 527,서초한빛삼성,134500,37.5060045181418,126.943824228081
서울특별시 노원구 월계동 13,골드캐슬Ⅲ,27000,37.6245905661541,127.065415722199
서울특별시 강동구 고덕동 693,용산더프라임,113500,37.5580690838901,127.163465686409
서울특별시 관악구 봉천동 1728,종로대우디오빌,19400,37.4827737545981,126.961294015978
서울특별시 노원구 상계동 626,,77000,37.6691340218574,127.057453609395
서울특별시 관악구 봉천동 622-87,평화빌리지2차,32500,37.4874826588085,126.943911370215
서울특별시 양천구 목동 961,인왕산아이파크,128000,37.5243483395844,126.869916701549
서울특별시 은평구 진관동 19,로얄팰리스스위트,38000,37.6444412427595,126.922786444814
서울특별시 노원구 상계동 1110,한강로벽산메가트리움,31300,37.677384417801,127.053148160922
서울특별시 영등포구 여의도동 40-4,남산타운,111000,37.5221528640161,126.935558553457
서울특별시 용산구 산천동 193,서울역한라비발디센트럴,141000,37.535002087034,126.95059340676
서울특별시 중랑구 면목동 1500,한신트리플,30000,37.5816188867372,127.083977859107
서울특별시 영등포구 신길동 4780,용산더프라임,102000,37.4948797805032,126.909888661947
서울특별시 마포구 염리동 532,약수하이츠,137500,37.5527919981747,126.947755600775
서울특별시 성북구 정릉동 1017,한강대우트럼프월드3,360000,37.5995194259025,127.018274910803
서울특별시 성북구 길음동 1281,약수하이츠,112000,37.6120673819839,127.019648869071
서울특별시 동대문구 답십리동 80,(64-28),130000,37.5744481574591,127.059673242852
서울특별시 용산구 효창동 287,약수하이츠,127500,37.5396272338792,126.963314009135
서울특별시 영등포구 당산동5가 12,경희궁자이(3단지),240000,37.530620458402,126.901773216588
서울특별시 강서구 마곡동 776,(432-743),57000,37.5686012057916,126.839375312516
서울특별시 도봉구 방학동 603-30,창신쌍용1,64900,37.6679074541284,127.033565664125
서울특별시 양천구 신정동 312,(5-1510),23000,37.5185420579875,126.862404579736
서울특별시 강남구 삼성동 4-6,광화문스페이스본(101동~105동),160000,37.5173889752862,127.045503680429
서울특별시 강동구 명일동 359,청계휴먼타운(1542-0),29500,37.5524804591506,127.145208524251
서울특별시 노원구 공릉동 747,운상하이츠,56000,37.6209351870697,127.079878214628
서울특별시 구로구 개봉동 60-101,완성주택,26000,37.5009278554889,126.843492595613
서울특별시 영등포구 당산동 376,토토빌리지3차,27900,37.5298247572871,126.908236508058
서울특별시 강서구 화곡동 158-9,정성하이츠빌라C동,15000,37.5333513028104,126.850561841306
서울특별시 동대문구 이문동 54,주건축물제1동,18500,37.6013509634573,127.07019199549
서울특별시 성북구 장위동 68-850,주건축물제1동,17500,37.6103741329937,127.048667805066
서울특별시 양천구 신월동 1075,인왕산아이파크,154000,37.5166217122062,126.841929272696
서울특별시 성북구 돈암동 636,노블하우스,170000,37.5980217244898,127.017576773103
서울특별시 노원구 하계동 271-3,청화1,330000,37.6354452993831,127.064243687991
서울특별시 강서구 내발산동 682-12,덕수궁롯데캐슬,94500,37.5533541060927,126.833907183947
서울특별시 은평구 수색동 417,삼성,102500,37.5848396509238,126.891865430054
서울특별시 구로구 구로동 186-7,남산타운,138000,37.4860432564088,126.898569356748
서울특별시 강서구 화곡동 367-93,한남더프라임,300000,37.5362779932566,126.841353750973
서울특별시 강동구 고덕동 693,(201-9),75000,37.5580690838901,127.163465686409
서울특별시 구로구 신도림동 290,한남더프라임,300000,37.5073342560063,126.876471231181
서울특별시 노원구 하계동 274,두원남산빌라,30000,37.6324803379916,127.071299559248
서울특별시 마포구 성산동 593-1,더큐브남산,60000,37.5650759483743,126.903910934859
서울특별시 서초구 양재동 275-4,한남더프라임,320000,37.4768770767714,127.043926411767
서울특별시 강서구 염창동 240-32,용산파크자이,34000,37.5563178192884,126.865134525013
서울특별시 동대문구 용두동 795,삼정아트테라스정동,40000,37.5716477982277,127.029219765505
서울특별시 강동구 명일동 15,아로마빌리지(A),114000,37.5532947928121,127.148458988794
서울특별시 은평구 갈현동 515-40,에르모소 용산,66000,37.618130452595,126.914148298938
서울특별시 성북구 장위동 233-266,삼성,102500,37.6135179248437,127.046045249804
서울특별시 동작구 대방동 98-4,주건축물제1동,17500,37.513830809541,126.928020449643
서울특별시 성북구 장위동 225-64,현대,100500,37.6143070944995,127.045363556405
서울특별시 광진구 중곡동 608-1,서울역센트럴자이,160000,37.5705024927665,127.085880314744
서울특별시 동작구 상도동 302-51,인왕산아이파크,148500,37.4942806644956,126.929899285211
서울특별시 성북구 정릉동 1031,종로 아인스빌,10000,37.6144302680147,127.007547825596
서울특별시 노원구 상계동 581-47,엔파크빌,28400,37.6596319847219,127.061777241977
서울특별시 성북구 정릉동 1031,서울역센트럴자이,170000,37.6144302680147,127.007547825596
서울특별시 동작구 상도동 521,후박빌라,22000,37.5020771686333,126.942973546609
서울특별시 영등포구 양평동2가 23,21스타캐슬,47000,37.5222797950425,126.882985680027
서울특별시 종로구 신문로2가 171,,90000,37.5686709353326,126.97200207461
서울특별시 종로구 부암동 129-40,SK리더스뷰남산,290000,37.5980333951553,126.964879627413
서울특별시 노원구 중계동 369,(55-13),31000,37.6568915639532,127.078983583783
서울특별시 광진구 군자동 466-10,디팰리스,180000,37.5582545515632,127.075009583636
서울특별시 영등포구 신길동 4964,르메이에르종로타운1,70000,37.5031181861687,126.907745237872
서울특별시 은평구 진관동 132,약수하이츠,152000,37.6274025388161,126.934086316438
서울특별시 송파구 방이동 225,힐스테이트 청계 센트럴,63000,37.5061373693844,127.122656614403
서울특별시 강서구 공항동 55-308,쌍용남산플래티넘,295000,37.5582800896231,126.811446700665
서울특별시 영등포구 당산동 374,롯데빌라,85000,37.5342052375202,126.905712391423
서울특별시 종로구 숭인동 1421-2,르메이에르종로타운1,70000,37.5736181490425,127.022370638814
서울특별시 영등포구 여의도동 525,쌍용 더 플래티넘 서울역,29000,37.5240734259401,126.929840195872
서울특별시 강서구 등촌동 695,우석캐스빌,21000,37.5604516606831,126.84486883674
서울특별시 강서구 염창동 281-22,두산,106000,37.5481830295131,126.873143646461
서울특별시 노원구 중계동 362-1,삼성사이버빌리지,147000,37.6463145257443,127.075327845357
서울특별시 노원구 중계동 502-1,삼성사이버빌리지,147000,37.6443713328952,127.063281683752
서울특별시 성동구 성수동1가 715,경희궁자이(3단지),235000,37.5478817306945,127.047793708999
서울특별시 광진구 능동 255-18,유니힐하이츠2,62000,37.5536993571029,127.087359522177
서울특별시 영등포구 당산동4가 96,경희궁롯데캐슬,140000,37.5273143682242,126.901285885351
서울특별시 송파구 방이동 51-2,사직타운71,22610,37.5152326415194,127.114677269718
서울특별시 동작구 사당동 1159,경희궁자이(4단지),115000,37.4885121810048,126.973323417623
서울특별시 강동구 고덕동 312,롯데미도파광화문빌딩,87000,37.5565174045034,127.152197097039
서울특별시 관악구 신림동 1714,현대,91490,37.46250743022,126.926129237992
