lot_address,road_address,mart_name,mart_type,longitude,latitude
서울특별시 용산구 용산동6가 69-167 신동아쇼핑,"서울특별시 용산구 이촌로 352, 신동아쇼핑 (용산동6가)",신동아쇼핑센터,복합쇼핑몰,126.98232123877584,37.5172556579229
서울특별시 강동구 둔촌동 170-1,,GS THE FRESH 둔촌포레온점,구분없음,127.13586071424326,37.526935900577385
서울특별시 강동구 둔촌동 170-1,,하나로마트 둔촌점,구분없음,127.13586071424326,37.526935900577385
"서울특별시 강동구 둔촌동 174-1 B102,B103호",,(주)이마트에브리데이 둔촌점,구분없음,127.13395460291696,37.52154401295179
서울특별시 광진구 구의동 66-25,서울특별시 광진구 광나루로39길 11 (구의동),구의 자이르네 판매시설,그 밖의 대규모점포,127.08588773512744,37.54549982110189
서울특별시 동작구 노량진동 119-68,"서울특별시 동작구 만양로 93, 주영빌딩 B1층 (노량진동)",GS THE FRESH 노량진역점,구분없음,126.94116890597414,37.51179920963134
서울특별시 강북구 수유동 472-304,서울특별시 강북구 삼양로79길 24-17 (수유동),GS THE FRESH 수유중앙점,구분없음,127.01327581521356,37.631106753587815
서울특별시 광진구 화양동 10번지 1호,서울특별시 광진구 능동로13길 39 (화양동),(주)지에스리테일GS수퍼 광진화양점,구분없음,127.0670102433251,37.54350264661168
,서울특별시 용산구 백범로 341 (원효로1가),롯데쇼핑(주)롯데슈퍼원효로점,복합쇼핑몰,126.96447297522222,37.53827568361393
서울특별시 은평구 불광1동 308번지 1호,서울특별시 은평구 통일로 842 (불광동),롯데쇼핑(주)롯데슈퍼범서점,그 밖의 대규모점포,126.91900930470273,37.61860693495705
서울특별시 성동구 상왕십리동 811 텐즈힐,"서울특별시 성동구 마장로 137, 221동 1층 1230호,1231호,1232(일부)호 (상왕십리동, 텐즈힐)",GS THE FRESH 성동텐즈힐점,구분없음,127.0218254713716,37.56936272159315
서울특별시 용산구 이촌동 302-52 LG프라자,"서울특별시 용산구 이촌로 200, LG프라자 지하1층 (이촌동)",GS THE FRESH 용산이촌점,구분없음,126.96646715160335,37.52094967001578
,"서울특별시 송파구 동남로 189 (가락동, 쌍용아파트)",(주)지에스리테일 송파점,구분없음,127.12522783123327,37.495542909720015
서울특별시 서대문구 대현동 144 신촌럭키아파트 상가동 101호,"서울특별시 서대문구 이화여대길 50-12, 상가동 1층 101호 (대현동, 신촌럭키아파트)",GS THE FRESH 신촌이대역점,그 밖의 대규모점포,126.94506757289636,37.55951834826818
서울특별시 서대문구 남가좌동 390 래미안 루센티아,"서울특별시 서대문구 거북골로 100, 지하3층 32,33,34,35호 (남가좌동, 래미안 루센티아)",GS THE FRESH 남가좌디엠씨점,구분없음,126.914592813109,37.57613284457893
서울특별시 송파구 거여동 202-180 송파시그니처롯데캐슬,"서울특별시 송파구 거마로 56(거여동, 송파시그니처롯데캐슬)",GS THE FRESH 송파시그니처점,구분없음,127.14659577465956,37.49546194914042
서울특별시 성북구 보문동2가 79 신한은행보문동지점,"서울특별시 성북구 보문로 121, 신한은행보문동지점 1층 일부 (보문동2가)",GS더프레시 보문역사거리점,구분없음,127.0156960948866,37.58586872776124
서울특별시 서초구 방배동 790-12,서울특별시 서초구 동광로 35 (방배동),GS THE FRESH 방배중앙점,구분없음,126.98374456630972,37.49151575686735
서울특별시 송파구 문정동 150번지 2호,서울특별시 송파구 중대로 80 (문정동),롯데쇼핑(주)롯데마트 송파점,대형마트,127.11486125119131,37.491738570839466
,서울특별시 강남구 역삼로8길 15 (역삼동),롯데슈퍼 역삼1동점,구분없음,127.03133909850658,37.4931372900276
,서울특별시 강남구 역삼로 230 (역삼동),롯데슈퍼 역삼2동점,구분없음,127.0390733100166,37.49689399427979
서울특별시 강동구 암사3동 414번지 18호 강동롯데캐슬퍼스트아파트,서울특별시 강동구 고덕로 133 (암사동),(주)지에스리테일 암사캐슬점,구분없음,127.13749542347742,37.55531088261707
,서울특별시 강남구 도산대로85길 30 (청담동),신원아침도시마인상가,그 밖의 대규모점포,127.04677697686272,37.526432646485645
,"서울특별시 강남구 언주로122길 25 (논현동, 두산위브아파트)",롯데슈퍼 논현점,구분없음,127.0354793746731,37.51253498309493
,서울특별시 강남구 선릉로 660 (삼성동),롯데쇼핑(주) 롯데슈퍼 삼성점,구분없음,127.03947732808876,37.515555526794536
서울특별시 송파구 방이동 103-15,"서울특별시 송파구 올림픽로32길 53, 1층 (방이동)",GS THE FRESH 송파나루역점,구분없음,127.10920878236492,37.512528587924734
,"서울특별시 송파구 올림픽로 435 (신천동, 파크리오아파트)",(주)지에스리테일 잠실파크리오점,구분없음,127.10326092657976,37.520536562525166
,서울특별시 송파구 오금로46길 49 (가락동),(주)지에스리테일 송파가락점,구분없음,127.13013254729783,37.49366099587731
서울특별시 송파구 잠실3동 35번지 2호,서울특별시 송파구 석촌호수로 61 (잠실동),롯데쇼핑(주)롯데슈퍼잠실3동점,구분없음,127.08333681744926,37.51064177195733
서울특별시 노원구 공릉동 388-2 1층,"서울특별시 노원구 동일로192길 23, 1층 (공릉동)",GS THE FRESH 공릉역점,구분없음,127.07126956870556,37.62632630879474
서울특별시 영등포구 양평동1가 30,서울특별시 영등포구 선유동1로 9-7 (양평동1가),양남시장정비사업,그 밖의 대규모점포,126.8882539681138,37.52286708085378
서울특별시 강남구 논현동 140 영동프라자,"서울특별시 강남구 강남대로128길 20, 영동프라자 (논현동)",GS THE FRESH 강남영동점,구분없음,127.02078377303586,37.50994546597568
,서울특별시 강남구 봉은사로103길 5 (삼성동),롯데슈퍼 코엑스점,구분없음,127.0585248966868,37.5149949686219
서울특별시 성북구 돈암2동 636번지,"서울특별시 성북구 북악산로 844 (돈암동, 돈암이수브라운스톤아파트)",GS더프레시 성북돈암점,구분없음,127.01489976112092,37.59787212478675
,"서울특별시 성북구 성북로4길 52 (돈암동, 한진아파트)",GS더프레시 동소문점,구분없음,127.007428640116,37.59480783005864
서울특별시 노원구 상계동 713호,서울특별시 노원구 동일로 1414 (상계동),롯데백화점 노원점,백화점,127.05818836673735,37.65514412747118
서울특별시 송파구 풍납2동 400번지 5호   101호,서울특별시 송파구 강동대로9길 20 (풍납동),롯데쇼핑(주)롯데슈퍼풍납점,구분없음,127.11413100308168,37.52795363500618
서울특별시 송파구 방이2동 63번지 11호,서울특별시 송파구 올림픽로32길 20 (방이동),롯데쇼핑(주)롯데슈퍼방이점,구분없음,127.1062196423701,37.514188956750615
서울특별시 송파구 잠실2동 19번지 8호,서울특별시 송파구 올림픽로 111 (잠실동),롯데쇼핑(주)롯데슈퍼신천점,구분없음,127.080129683177,37.512148145440456
서울특별시 강서구 마곡동 739-4 마곡헤리움1차,"서울특별시 강서구 마곡서1로 115-1, 마곡헤리움1차 111~114호 (마곡동)",GS THE FRESH 신방화역점,그 밖의 대규모점포,126.81567659581184,37.566712699927365
서울특별시 강북구 미아동 1357번지 6호,서울특별시 강북구 삼양로27길 35-21 (미아동),㈜지에스리테일 GS수퍼 강북미아점,구분없음,127.01604929948924,37.61794946600524
서울특별시 용산구 이태원동 254-5 일각빌딩,"서울특별시 용산구 회나무로13길 20-4, 일각빌딩 1층 (이태원동)",이마트에브리데이 이태원점,구분없음,126.98697445644406,37.54027949249583
서울특별시 서대문구 남가좌동 381 DMC센트레빌,"서울특별시 서대문구 거북골로 120(남가좌동, DMC센트레빌)",롯데슈퍼 남가좌점,복합쇼핑몰,126.91276909766634,37.57597383961061
서울특별시 종로구 낙원동 288번지 낙원상가,"서울특별시 종로구 삼일대로 428, 낙원상가 506호 (낙원동)",낙원상가,그 밖의 대규모점포,126.98475456657394,37.57221697499566
서울특별시 종로구 낙원동 288번지 낙원상가,"서울특별시 종로구 삼일대로 428, 낙원상가 (낙원동)",낙원상가,그 밖의 대규모점포,126.98475456657394,37.57221697499566
,"서울특별시 강남구 언주로 123 (도곡동, 개포한신아파트)",롯데슈퍼 도곡점,구분없음,127.04600702578264,37.486889874472105
서울특별시 종로구 예지동 6번지 1호,서울특별시 종로구 창경궁로 88 (예지동),광장시장,복합쇼핑몰,126.99605745634798,37.57005464817025
서울특별시 강남구 역삼동 796번지 22  호,서울특별시 강남구 역삼로52길 14 (역삼동),역삼시장,시장,127.04505874319136,37.498529441968905
서울특별시 종로구 숭인동 76번지 롯데캐슬천지인 1층,서울특별시 종로구 종로 347 (숭인동),홈플러스(주)익스프레스 숭인점,구분없음,127.01328775838935,37.57385170488804
서울특별시 종로구 종로6가 270번지 3호 동대문종합시장D동상가,"서울특별시 종로구 종로 266, 동대문종합시장D동상가  동 (종로6가)",동대문종합시장D동상가,그 밖의 대규모점포,127.00445648252165,37.57060610984493
서울특별시 종로구 서린동 33번지 영풍빌딩,서울특별시 종로구 청계천로 41 (서린동),(주)영풍문고,전문점,126.97924145046336,37.5695798364841
   호   ,,종로세운상가,대형마트,,
서울특별시 종로구 인의동 48번지 2호,"서울특별시 종로구 종로 183 (인의동, 효성주얼리시티)",효성주얼리시티,그 밖의 대규모점포,126.9957766270017,37.57148288658324
서울특별시 종로구 창신동 23번지 76호 브라운스톤 창신,"서울특별시 종로구 지봉로 81 (창신동, 브라운스톤 창신)",브라운스톤 창신상가,그 밖의 대규모점포,127.01213974242292,37.57737897010399
서울특별시 종로구 종로6가 289번지 3 호,서울특별시 종로구 종로 266 (종로6가),동대문종합시장,그 밖의 대규모점포,127.0060223981139,37.57039444707672
서울특별시 종로구 종로6가 289번지 57호,서울특별시 종로구 종로 272 (종로6가),동대문종합시장 신관,그 밖의 대규모점포,127.00522173818904,37.57078101683115
서울특별시 종로구 종로1가 1번지,서울특별시 종로구 종로 1 (종로1가),종로1번지아케이트,전문점,126.97518977011842,37.57058240188763
,서울특별시 종로구 종로44길 14 (창신동),동문시장,시장,127.00849775539244,37.570449033048895
서울특별시 종로구 인의동 112번지 2호,서울특별시 종로구 창경궁로 109 (인의동),세운스퀘어,그 밖의 대규모점포,126.99417337725195,37.57228585723755
서울특별시 종로구 신문로1가 24번지  고려빌딩 1층,"서울특별시  새문안로 91, 1층 (고려빌딩)",홈플러스(주)익스프레스 광화문점,복합쇼핑몰,126.97186332603988,37.57048749523897
서울특별시 종로구 예지동 6번지 1호,,광장주식회사,시장,126.99605745634798,37.57005464817025
서울특별시 종로구 서린동 33호   ,,영풍문고,대형마트,126.97924145046336,37.5695798364841
서울특별시 종로구 창신동 436번지 79  호   ,,동대문신발도매상가,그 밖의 대규모점포,,
서울특별시 종로구 숭인동 206-9 신설종합시장 숭인동,"서울특별시 종로구 난계로27길 51, 신설종합시장 숭인동 (숭인동)",신설종합시장,시장,127.01745478508404,37.572668668533794
서울특별시 종로구 숭인동 206-9 신설종합시장,"서울특별시 종로구 난계로27길 51, 신설종합시장 (숭인동)",신설종합시장(주),그 밖의 대규모점포,127.01745478508404,37.572668668533794
서울특별시 종로구 무악동 82 무악현대아파트,"서울특별시 종로구 통일로 246-10, 무악현대아파트 지하 1층 (무악동)",GS THE FRESH 무악현대점,구분없음,126.9579143487208,37.57538155227624
서울특별시 종로구 종로3가 175번지 4호   ,,종로세운상가,그 밖의 대규모점포,,
서울특별시 종로구 종로3가 175번지 4호   ,,종로세운상가,그 밖의 대규모점포,,
서울특별시 종로구 창신동 766호   ,,숭인제일아케이트,그 밖의 대규모점포,,
   호   ,,광장시장주식회사,그 밖의 대규모점포,,
서울특별시 종로구 창신동 328번지 18호,,크레타 망고 아울렛,전문점,127.01231786286058,37.571758227871456
서울특별시 종로구 중학동 62번지 외 66필지,,중학아케이드,그 밖의 대규모점포,,
서울특별시 강동구 천호동 563호   ,,동아코아,쇼핑센터,127.12299203254936,37.54127075136027
,서울특별시 중구 동호로37길 20 (방산동),방산종합시장,그 밖의 대규모점포,126.99793127394172,37.56869782202687
서울특별시 중구 남창동 49번지,서울특별시 중구 남대문시장4길 21 (남창동),서울남대문시장,그 밖의 대규모점포,126.9750698203194,37.55939313636234
,서울특별시 중구 마장로 30 (신당동),팀204,그 밖의 대규모점포,127.01059002419558,37.56764301275608
,"서울특별시 중구 청계천로 260-9 (을지로6가, 통일의류종합상가)",통일상가,그 밖의 대규모점포,127.00390114668242,37.56895554280753
서울특별시 중구 충무로4가 120번지 3   호,서울특별시 중구 퇴계로 217 (충무로4가),진양상가,그 밖의 대규모점포,126.99304914887344,37.56240265486773
,서울특별시 중구 삼일대로 363 (장교동),상제리제상가,그 밖의 대규모점포,126.98368604352255,37.56737722498538
서울특별시 중구 신당동 776호,서울특별시 중구 마장로 19 (신당동),(주)에리어식스,그 밖의 대규모점포,127.0091002819348,37.568145315596
서울특별시 중구 흥인동 3번지 4호,서울특별시 중구 다산로 274 (흥인동),우일타운,전문점,127.01363840840492,37.56743000761679
서울특별시 중구 을지로4가 9번지 6호,서울특별시 중구 을지로 157 (을지로4가),대림상가,그 밖의 대규모점포,126.99262696872124,37.566757757057125
서울특별시 중구 충무로1가 52번지 5호 신세계백화점건물,"서울특별시 중구 소공로 63 (충무로1가,신세계백화점건물)",신세계백화점,백화점,126.97824871813984,37.56092260884928
,서울특별시 중구 마장로1길 28 (신당동),아트프라자,그 밖의 대규모점포,127.0100206027176,37.56915772513796
,서울특별시 중구 다산로 32 (신당동),남산타운5상가,그 밖의 대규모점포,127.0063903966272,37.5490135732488
,서울특별시 중구 다산로 32 (신당동),남산타운2상가,그 밖의 대규모점포,127.0063903966272,37.5490135732488
,서울특별시 중구 장충단로 13-20 (을지로6가),현대시티타워,쇼핑센터,,
,서울특별시 중구 퇴계로 123 (충무로2가),하이해리엇,그 밖의 대규모점포,126.98246282385564,37.56132833388368
서울특별시 중구 신당1동 213번지 8호,서울특별시 중구 마장로1길 22 (신당동),올레오,쇼핑센터,127.00967389810876,37.56895508148848
서울특별시 중구 신당1동 773번지,서울특별시 중구 마장로 3 (신당동),맥스타일,전문점,127.00767310239294,37.5688231579331
서울특별시 중구 을지로6가 17번지,서울특별시 중구 장충단로13길 20 (을지로6가),통일상가,그 밖의 대규모점포,127.00484232182068,37.56864344723963
,서울특별시 중구 마장로 13 (신당동),제일평화시장,그 밖의 대규모점포,127.00852125335398,37.56846739294808
,서울특별시 중구 남대문로 81 (소공동),롯데백화점 본점,백화점,126.97819950053712,37.56480978484286
,서울특별시 중구 다산로 32 (신당동),(주)지에스리테일 남산타운점,구분없음,127.0063903966272,37.5490135732488
서울특별시 중구 을지로6가 21번지 31호,서울특별시 중구 을지로 264 (을지로6가),던던 동대문점,쇼핑센터,127.00410102394017,37.565761322905054
서울특별시 중구 봉래동2가 122번지 11호,서울특별시 중구 한강대로 405 (봉래동2가),롯데아울렛 서울역점,쇼핑센터,126.96654626619998,37.556031205337696
서울특별시 중구 봉래동2가 120번지 11호,서울특별시 중구 한강대로 405 (봉래동2가),롯데아울렛 서울역점,쇼핑센터,126.96654626619998,37.556031205337696
서울특별시 중구 신당1동 777번지,서울특별시 중구 마장로1길 21 (신당동),(주)광희패션몰,그 밖의 대규모점포,127.00902137107704,37.56864197008132
,서울특별시 중구 장충단로 275 (을지로6가),두타몰,그 밖의 대규모점포,127.0058623745638,37.56881406234709
서울특별시 중구 을지로6가 18번지 185호,서울특별시 중구 장충단로 263 (을지로6가),밀리오레,그 밖의 대규모점포,127.00542039609576,37.56832224038242
,서울특별시 중구 남대문로 30 (남창동),굳앤굳 디자이너월드,그 밖의 대규모점포,126.97634605651784,37.56073616941914
서울특별시 중구 신당동 772호,서울특별시 중구 장충단로 282-10 (신당동),남평화상가(주),그 밖의 대규모점포,127.00802273611636,37.56917991482462
서울특별시 중구 남창동 51번지 1호,,숭례문상가,그 밖의 대규모점포,126.97334956788116,37.55942198145683
서울특별시 중구 소공동 1번지,"서울특별시 중구 을지로 30 (소공동, 롯데호텔)",호텔롯데아케이드,그 밖의 대규모점포,126.97819950053712,37.56480978484286
서울특별시 중구 신당동 193번지 3호,서울특별시 중구 마장로 40 (신당동),에이피엠패션몰,그 밖의 대규모점포,127.00957333700784,37.5681182510985
서울특별시 중구 산림동 207번지 1호 세운청계상가,"서울특별시 중구 청계천로 160, 세운청계상가 (산림동)",청계상가,그 밖의 대규모점포,126.99247825789256,37.56804797632115
,서울특별시 중구 장충단로13길 34 (을지로6가),동화상가,그 밖의 대규모점포,127.00402877700354,37.56861595466616
,서울특별시 중구 을지로45길 62 (신당동),누죤,그 밖의 대규모점포,127.00988107278786,37.567195147420094
서울특별시 강동구 천호동 563호   ,,동아코아,쇼핑센터,127.12299203254936,37.54127075136027
,서울특별시 중구 을지로36길 35 (오장동),중부시장,그 밖의 대규모점포,126.998941083913,37.56496022504528
,서울특별시 중구 을지로45길 72 (신당동),디자이너크럽,그 밖의 대규모점포,127.01025081424388,37.5674315925699
,서울특별시 중구 명동8가길 27 (충무로2가),선싸인,그 밖의 대규모점포,126.98360925111932,37.56201479588435
서울특별시 중구 남대문로2가 123호,서울특별시 중구 남대문로 67 (남대문로2가),롯데쇼핑본점영플라자,백화점,126.97883232121968,37.563511958528
,서울특별시 중구 마장로1길 18 (신당동),혜양엘리시움,그 밖의 대규모점포,127.00958145484285,37.568767684379935
,서울특별시 중구 남대문시장8길 7 (남창동),삼익패션타운,그 밖의 대규모점포,126.976088950812,37.56016508285141
,서울특별시 중구 소월로 9 (남창동),남정종합상가,그 밖의 대규모점포,126.97349487283854,37.55872860013008
,"서울특별시 중구 을지로 276 (을지로7가, apMPLACE)",에이피엠플레이스,쇼핑센터,127.0055155192732,37.56527159144854
,서울특별시 중구 다산로 222 (신당동),홈플러스익스프레스 신당점,구분없음,127.01270839899718,37.562848063794455
,"서울특별시 중구 마장로 22 (신당동, DDP FASHION MALL)",DDP FASHION MALL,그 밖의 대규모점포,127.00920959640536,37.56717364990018
,서울특별시 중구 퇴계로85길 22 (황학동),서울중앙시장,그 밖의 대규모점포,127.01691448369527,37.5667811744112
서울특별시 중구 을지로6가 18번지 35호,서울특별시 중구 장충단로 253 (을지로6가),헬로우에이피엠,그 밖의 대규모점포,127.00525272836909,37.56749259122329
서울특별시 중구 봉래동2가 122호,서울특별시 중구 청파로 426 (봉래동2가),롯데쇼핑(주)롯데마트 제타플렉스 서울역점,대형마트,126.96669510716418,37.55820072719306
서울특별시 중구 신당1동 217번지 91호,서울특별시 중구 청계천로 334 (신당동),청평화시장,그 밖의 대규모점포,127.0120569756928,37.56946507485934
서울특별시 중구 신당동 193번지 2 호,서울특별시 중구 다산로 293 (신당동),디오트,그 밖의 대규모점포,127.01188887623614,37.56913745473148
,"서울특별시 중구 만리재로 175, 401동 9,10,11호 (만리동2가)",지에스수퍼마켓 중구만리점,구분없음,126.96051907506516,37.55421784609654
서울특별시 중구 황학동 2545번지,서울특별시 중구 청계천로 400-0 (황학동),주식회사 이마트 청계천점,대형마트,127.01854373612623,37.57097822274756
서울특별시 중구 황학동 2545번지,서울특별시 중구 청계천로 400 (황학동),베네치아메가몰,그 밖의 대규모점포,127.01854373612623,37.57097822274756
서울특별시 중구 명동2가 31번지 1호,"서울특별시 중구 명동8길 27 (명동2가, 엠 플라자)",엠플라자(M plaza),쇼핑센터,126.9822717191972,37.56249976149008
서울특별시 중구 을지로6가 17번지 48호,서울특별시 중구  청계천로  274 (을지로6가),평화시장,그 밖의 대규모점포,127.00519514120838,37.56946499109677
서울특별시 중구 명동2가 83번지 5호,서울특별시 중구 명동길 14 (명동2가),눈스퀘어,그 밖의 대규모점포,126.98000051200616,37.56341328305386
서울특별시 중구 남대문로2가 9-1,,센터포인트 명동,쇼핑센터,126.97980733086554,37.56464890117782
서울특별시 중구 을지로7가 105호   ,서울특별시 중구 을지로 276 (을지로7가),라모도 쇼핑몰,그 밖의 대규모점포,127.0055155192732,37.56527159144854
,서울특별시 중구 서소문로6길 34 (중림동),합동시장,그 밖의 대규모점포,126.96436726690096,37.55958752536071
,서울특별시 중구 마른내로 140 (쌍림동),(주)심풍유통,그 밖의 대규모점포,127.00069862585836,37.56445396600452
,서울특별시 중구 남대문로 84 (남대문로2가),케레스타,그 밖의 대규모점포,126.97980733086554,37.56464890117782
서울특별시 중구 을지로6가 18번지 21호 굿모닝시티쇼핑몰,"서울특별시 중구 장충단로 247 (을지로6가,굿모닝시티쇼핑몰)",굿모닝시티 쇼핑몰,쇼핑센터,127.00439089841292,37.56687321815724
,서울특별시 중구 세종대로9길 58-12 (서소문동),대한통운마트,그 밖의 대규모점포,,
,서울특별시 중구 청계천로 400 (황학동),신세계 이마트 청계천점,그 밖의 대규모점포,127.01854373612623,37.57097822274756
서울특별시 중구 회현동1가 204번지 메사빌딩,"서울특별시 중구 남대문시장10길 2 (회현동1가,메사빌딩)",신세계백화점메사점,쇼핑센터,126.97672690452976,37.56037702833541
,"서울특별시 중구 다산로 56, 제지2층 제비203호 (신당동, 남산정은스카이아파트)",롯데쇼핑(주)롯데슈퍼신당점,구분없음,127.00489689931491,37.54944901106226
서울특별시 중구 충무로1가 25번지 8호,서울특별시 중구 명동8나길 47 (충무로1가),롯데쇼핑(주)롯데슈퍼명동점,그 밖의 대규모점포,126.97938867734416,37.561059637373496
,서울특별시 중구 명동길 14 (명동2가),아바타,그 밖의 대규모점포,126.98000051200616,37.56341328305386
,서울특별시 중구 칠패로 5 (의주로2가),서소문화훼종합물류센터,그 밖의 대규모점포,126.96645985608129,37.560552747204646
,서울특별시 중구 동호로 249 (장충동2가),호텔신라아케이트,그 밖의 대규모점포,127.0031450195836,37.55674997726852
,서울특별시 중구 남대문시장10길 2 (회현동1가),메사,그 밖의 대규모점포,126.97672690452976,37.56037702833541
서울특별시 중구 충무로1가 24번지 1호,"서울특별시 중구 퇴계로 115 (충무로1가, 밀레오레 명동)",밀리오레명동,그 밖의 대규모점포,126.98162967219857,37.56105246696955
,서울특별시 중구 을지로 276 (을지로6가),라모도쇼핑몰,그 밖의 대규모점포,127.0055155192732,37.56527159144854
서울특별시 중구 신당동 22번지,서울특별시 중구 마장로 22 (신당동),패션몰 유어스,그 밖의 대규모점포,127.00920959640536,37.56717364990018
서울특별시 용산구 한강로2가 15-2 나진상가,"서울특별시 용산구 청파로 125, 나진상가 (한강로2가)","나진상가 17,18동",전문점,126.96251937997351,37.53388408736332
서울특별시 용산구 한남동 631번지 5호 허준빌딩,"서울특별시 용산구 대사관로34길 26, 허준빌딩 1층 (한남동)",롯데슈퍼 한남점(가맹점),구분없음,127.00277606723054,37.532116450321794
서울특별시 용산구 남영동 93번지 30호,서울특별시 한강대로77길 12,롯데프레시 갈월점,구분없음,126.96897500999948,37.54221782841724
서울특별시 용산구 한강로1가 191호   ,,국제센터아케이드,그 밖의 대규모점포,126.97127105427673,37.53342571077417
서울특별시 용산구 한강로2가 413호   ,서울특별시 용산구 청파로 113-12 (한강로2가),(주)전자타운,그 밖의 대규모점포,126.96141772180384,37.53410384324059
서울특별시 용산구 한강로3가 40번지 999호,서울특별시 용산구 한강대로23길 55 (한강로3가),아이파크몰(I PARK MALL),쇼핑센터,126.96126654334232,37.52955742609546
서울특별시 용산구 한강로2가 191호,서울특별시 용산구 한강대로 92 (한강로2가),LS Avenue,그 밖의 대규모점포,126.96508318656628,37.5281936487888
서울특별시 용산구 한강로2가 15번지 14호,"서울특별시 용산구 새창로 181 (한강로2가, 선인상가)",선인상가,전문점,126.96214237270284,37.53301024045151
서울특별시 용산구 한강로3가 40번지 999호,서울특별시 용산구 한강대로23길 55 (한강로3가),아이파크(I PARK)백화점,백화점,126.96126654334232,37.52955742609546
서울특별시 용산구 서계동 260번지 1호,서울특별시 용산구 효창원로 270 (서계동),만리시장,시장,126.96073613371482,37.55129386425684
서울특별시 용산구 이태원동 119번지 25호,서울특별시 용산구 이태원로 179 (이태원동),해밀톤 쇼핑몰,쇼핑센터,126.99069783622969,37.53470672292456
서울특별시 용산구 한강로3가 16번지 9호,서울특별시 용산구 청파로 74 (한강로3가),(주)에스와이에스홀딩스,전문점,126.95683746953844,37.532814469423805
서울특별시 용산구 한강로3가 1번지 1호 나진상가,"서울특별시 용산구 청파로 109, 나진상가 (한강로3가)",나진산업 주식회사,전문점,126.96052858606322,37.53362129147816
서울특별시 용산구 원효로3가 51번지 30호,서울특별시 용산구 청파로 77 (원효로3가),원효전자상가,전문점,126.95700087422412,37.53368392893002
서울특별시 용산구 용산동6가 69번지 167호,서울특별시 용산구 이촌로 352 (용산동6가),신동아 쇼핑센터,쇼핑센터,126.98232123877584,37.5172556579229
서울특별시 용산구 한강로2가 413호,서울특별시 용산구 청파로 113-12 (한강로2가),전자타운,전문점,126.96141772180384,37.53410384324059
서울특별시 용산구 이태원동 56번지 9호,서울특별시 용산구 이태원로14길 6 (이태원동),이태원시장,시장,126.9871630246532,37.53382954418872
서울특별시 용산구 한강로3가 2-8,"서울특별시 용산구 청파로 100, 12동 2층 (한강로3가)",(주)서부티엔디,전문점,126.95949356249974,37.53281151670074
서울특별시 용산구 용산동6가 69-167 신동아쇼핑,"서울특별시 용산구 이촌로 352, 신동아쇼핑 (용산동6가)",신동아쇼핑센터,쇼핑센터,126.98232123877584,37.5172556579229
서울특별시 용산구 한강로3가 63-70,"서울특별시 용산구 서빙고로 17, 용산해링턴스퀘어 C동 1층 111~115호 (한강로3가)",GS THE FRESH 용산해링턴점,복합쇼핑몰,126.9646016818608,37.52592820764722
서울특별시 용산구 한강로3가 1-1 나진상가,"서울특별시 용산구 청파로 109, 나진상가 14동 (한강로3가)",나진전자월드상가,전문점,126.96052858606322,37.53362129147816
서울특별시 용산구 용산동6가 69번지 167호,서울특별시 용산구 이촌로 352 (용산동6가),롯데쇼핑(주)롯데슈퍼 신동아점,구분없음,126.98232123877584,37.5172556579229
,서울특별시 용산구 한강대로 205 (한강로1가),롯데마켓999 용산파크자이가맹점,구분없음,126.96977221851432,37.53662614792345
서울특별시 용산구 이촌동 300번지 27  호,서울특별시 용산구 이촌로 224 (이촌동),한강상가,시장,126.96905608788694,37.52016368273121
서울특별시 용산구 한강로3가 40번지 969호,서울특별시 용산구 청파로20길 83 (한강로3가),터미널전자상가,전문점,126.9595523192615,37.53192026020864
서울특별시 용산구 한강로3가 3-23 나진상가,"서울특별시 용산구 청파로 112, 나진상가 (한강로3가)",나진상가 15동,전문점,126.9608740001171,37.53305395701685
서울특별시 용산구 보광동 260번지 8호,서울특별시 용산구 보광로 30 (보광동),보광시장,시장,126.99739403317533,37.52721283257035
서울특별시 용산구 한강로2가 15번지 19호,서울특별시 용산구 청파로 122 (한강로2가),(주)농협유통하나로클럽용산점,대형마트,126.96184379369888,37.53317898274998
서울특별시 용산구 산천동 202호,서울특별시 용산구 원효로 51 (산천동),삼성테마트,그 밖의 대규모점포,126.94751850923991,37.53402784077287
서울특별시 성동구 하왕십리동 1070 센트라스,"서울특별시 성동구 왕십리로 410, 상가(L)동 지하1층 B102,B103호 (하왕십리동, 센트라스)",GS THE FRESH 성동센트라스점,구분없음,127.02475652676304,37.56611043354589
,서울특별시 성동구 왕십리로 241 (행당동),파크에비뉴 엔터식스 한양대점,복합쇼핑몰,127.0373009510374,37.55648525821891
서울특별시 성동구 왕십리2동 966번지 11호,서울특별시 성동구 왕십리로 333 (하왕십리동),홈플러스(주) 익스프레스 왕십리점,구분없음,127.02965738975224,37.56271860230876
서울특별시 성동구 용답동 234번지 한국자동차매매센터,"서울특별시 성동구 자동차시장1길 70 (용답동, 장안평중고자동차시장)",자동차매매센타,전문점,127.063370867505,37.560210702927264
서울특별시 성동구 옥수동 220번지 1호 한남하이츠아파트,"서울특별시 성동구 독서당로 160, 한남하이츠아파트 (옥수동)",한남하이츠상가,구분없음,127.01126777163644,37.53973981690442
서울특별시 성동구 행당동 347번지 행당동 대림아파트,"서울특별시 성동구 행당로 87, 행당동 대림아파트 (행당동)",대림리빙프라자,그 밖의 대규모점포,127.02422842144254,37.55790166673219
서울특별시 강동구 천호동 563호   ,,동아코아,쇼핑센터,127.12299203254936,37.54127075136027
서울특별시 성동구 행당동 346번지 행당 한진타운 종합상가,"서울특별시 성동구 행당로 84, 행당 한진타운 종합상가 (행당동)",한진종합상가,그 밖의 대규모점포,127.02631735663064,37.55588045038522
서울특별시 성동구 성수동2가 289번지 4호,서울특별시 성동구 아차산로7길 28 (성수동2가),(주)인트램,그 밖의 대규모점포,127.05256563272752,37.54754752773186
서울특별시 성동구 마장동 510번지 3호 일대,"서울특별시 성동구 마장로31길 40 (마장동,일대)",마장축산물시장,시장,127.03552114391518,37.56974326971218
서울특별시 성동구 왕십리도선동 69번지,서울특별시 성동구 무학로6길 50 (도선동),성동삼성쉐르빌상가,그 밖의 대규모점포,127.03204634164808,37.56439311485288
서울특별시 성동구 행당동 168번지 1호,서울특별시 성동구 왕십리광장로 17 (행당동),(주)이마트 왕십리점,대형마트,127.03516008467312,37.56368446474169
서울특별시 성동구 행당동 168번지 151호 왕십리민자역사,"서울특별시 성동구 왕십리광장로 17, 왕십리민자역사 (행당동)",ENTER-6,그 밖의 대규모점포,127.0354917873672,37.56128897122646
서울특별시 성동구 금호동3가 1331번지,서울특별시 성동구 동호로 100 (금호동3가),홈플러스(주) 익프스레스 금호2점,구분없음,127.01354890324777,37.549963036494745
서울특별시 성동구 금호동1가 481번지 5호,서울특별시 성동구 행당로 6 (금호동1가),홈플러스(주) 익스프레스 금호점,구분없음,127.01796103094507,37.55452218412229
서울특별시 성동구 성수동1가 656-1208 성수만세주유소,"서울특별시 성동구 왕십리로 109, 성수만세주유소 1층 (성수동1가)",GS THE FRESG 서울숲점,구분없음,127.04136554667328,37.54753491852543
서울특별시 성동구 성수1가1동 72번지 91호,서울특별시 성동구 뚝섬로 345 (성수동1가),홈플러스(주)익스프레스 성수점,구분없음,127.046230533587,37.54094415529256
서울특별시 성동구 금호동1가 128번지 1호,서울특별시 성동구 행당로 35 (금호동1가),금북시장,그 밖의 대규모점포,127.02058300949798,37.55597319554249
서울특별시 성동구 금호동4가 548번지 1호,서울특별시 성동구 독서당로 302 (금호동4가),금호종합시장,그 밖의 대규모점포,127.01967346212282,37.547810111048655
서울특별시 성동구 성수동2가 333번지 16호,서울특별시 뚝섬로 379,(주)이마트 성수점,대형마트,127.05010800406842,37.53970992960027
서울특별시 성동구 마장동 439번지 1호,서울특별시 성동구 마장로35길 68 (마장동),토우마트마축일시장,그 밖의 대규모점포,127.03838325296604,37.570655524304485
서울특별시 성동구 성수1가1동 14번지 17호,서울특별시 성동구 아차산로 41 (성수동1가),홈플러스(주)익스프레스 뚝섬점,구분없음,127.04607672712754,37.546965530751216
서울특별시 성동구 옥수동 191번지 3호,서울특별시 성동구 한림말길 56 (옥수동),GS수퍼 성동옥수점,구분없음,127.01444357164944,37.54095081861693
서울특별시 성동구 행당동 155번지 1호 서울숲 더샵,"서울특별시 성동구 왕십리로 241 (행당동, 서울숲 더샵)",노브랜드 엔터식스한양대점,구분없음,127.0373009510374,37.55648525821891
서울특별시 성동구 성수동1가 656-1208 성수만세주유소,"서울특별시 성동구 왕십리로 109, 성수만세주유소 (성수동1가)",홈플러스익스프레스 뚝섬2점,구분없음,127.04136554667328,37.54753491852543
서울특별시 성동구 하왕십리동 1070 센트라스상가 L동 B102호,"서울특별시 성동구 왕십리로 410, L동 지하1층 B102, B103호 (하왕십리동, 센트라스)",GS THE FRESH 성동센트라스점,구분없음,127.02475652676304,37.56611043354589
서울특별시 성동구 성수동2가 231번지 1호,,성동마트,그 밖의 대규모점포,127.05742221512696,37.53783702163715
서울특별시 성동구 성수동2가 335번지,서울특별시 성동구 성수이로 32-15 (성수동2가),뚝도시장,시장,127.05192939305908,37.53780033705977
서울특별시 성동구 금호동3가 332번지,서울특별시 성동구 독서당로 303-11 (금호동3가),금남시장,시장,127.01984305384102,37.548564936605125
서울특별시 광진구 자양동 44번지 2호,서울특별시 광진구 뚝섬로 491 (자양동),노룬산시장,그 밖의 대규모점포,127.06197240065212,37.53648691573683
서울특별시 광진구 자양동 6번지 20호,서울특별시 광진구 아차산로30길 39 (자양동),조양시장,그 밖의 대규모점포,127.0644999733416,37.53889096101888
서울특별시 광진구 중곡동 229번지 5호,서울특별시 광진구 긴고랑로11길 11 (중곡동),중곡제일시장,그 밖의 대규모점포,127.07842352365262,37.56391829866956
서울특별시 광진구 군자동 503번지,서울특별시 광진구 광나루로 369 (군자동),파크에비뉴,그 밖의 대규모점포,127.06819694269768,37.54843787986941
서울특별시 광진구 중곡1동 229번지 5호,서울특별시 광진구 긴고랑로11길 11 (중곡동),(주)이마트에브리데이 중곡동점,구분없음,127.07842352365262,37.56391829866956
서울특별시 광진구 중곡4동 93번지 2호,서울특별시 광진구 용마산로 10 (중곡동),홈플러스익스프레스 중곡2점,구분없음,127.08593052471969,37.55454619100133
서울특별시 광진구 중곡2동 157번지 1호,서울특별시 광진구 능동로 314 (중곡동),홈플러스(주)익스프레스 중곡점,구분없음,127.07714215502853,37.55762633800754
서울특별시 광진구 중곡동 79번지 13호,서울특별시 광진구 영화사로 12 (중곡동),신성종합시장,그 밖의 대규모점포,127.08558573590584,37.55799510803415
서울특별시 광진구 자양동 602호,서울특별시 광진구 자양번영로6길 20 (자양동),자양종합시장,그 밖의 대규모점포,127.07354571917408,37.53199409392323
서울특별시 광진구 구의동 546번지 4호,서울특별시 광진구 광나루로56길 85 (구의동),테크노-마트21,그 밖의 대규모점포,127.0928747623562,37.53569970282162
서울특별시 광진구 자양동 663번지 21  호,서울특별시 광진구 자양로5길 33 (자양동),프라젠 스파,그 밖의 대규모점포,127.0812634021116,37.53090624772537
서울특별시 광진구 구의동 546번지 4호,서울특별시 광진구 광나루로56길 85 (구의동),롯데쇼핑(주)롯데마트 강변점,대형마트,127.0928747623562,37.53569970282162
서울특별시 광진구 자양동 17번지 1호,서울특별시 광진구 아차산로 200 (자양동),커먼그라운드,그 밖의 대규모점포,127.06305960261648,37.54115164994919
서울특별시 광진구 화양동 10번지 1호,서울특별시 광진구 능동로13길 39 (화양동),한아름시장,그 밖의 대규모점포,127.0670102433251,37.54350264661168
서울특별시 광진구 중곡동 229번지 15호,서울특별시 광진구 능동로47길 30 (중곡동),광성시장,그 밖의 대규모점포,127.07824769891263,37.56359763200503
서울특별시 광진구 구의동 546번지 1호,서울특별시 광진구 강변역로 50 (구의동),동서울터미널상가,복합쇼핑몰,127.09069544805536,37.53391763152814
서울특별시 광진구 광장동 484호,서울특별시 광진구 광나루로 635 (광장동),현대종합상가,그 밖의 대규모점포,127.09571426354492,37.54062083838449
서울특별시 광진구 구의동 611호,서울특별시 광진구 광나루로56길 34 (구의동),구의현대종합상가,그 밖의 대규모점포,127.09298400951184,37.5386274742487
서울특별시 광진구 구의동 631번지 1호,서울특별시 광진구 광나루로56길 63 (구의동),프라임프라자상가,그 밖의 대규모점포,127.0947310110651,37.53739770605889
서울특별시 광진구 구의2동 49번지 4호,서울특별시 광진구 자양로 293 (구의동),롯데 FRESH 아차산점,구분없음,127.0892866617378,37.55197768452067
서울특별시 광진구 구의3동 212번지 2호,서울특별시 광진구 아차산로 473 (구의동),홈플러스익스프레스 구의2점,구분없음,127.09137971465924,37.540533616927576
서울특별시 광진구 중곡2동 41번지 1호,서울특별시 광진구 긴고랑로 60 (중곡동),롯데쇼핑(주)롯데슈퍼 중곡점,구분없음,127.07979180755548,37.56189982308354
서울특별시 광진구 구의1동 236번지 53호,서울특별시 광진구 자양로 168 (구의동),홈플러스(주)익스프레스 구의점,구분없음,127.0816382146634,37.54260436091579
서울특별시 광진구 구의동 66번지 28호,서울특별시 광진구 광나루로 531-5 (구의동),구의시장,그 밖의 대규모점포,,
서울특별시 광진구 군자동 361번지 6호,,화양시장,그 밖의 대규모점포,,
서울특별시 광진구 광장동 145번지 8호,서울특별시 광진구 아차산로 635 (광장동),워커힐상가,그 밖의 대규모점포,127.10366135771272,37.550524875009046
서울특별시 광진구 구의3동 218번지 14호 나동,서울특별시 광진구 아차산로 450 (구의동),롯데쇼핑(주)롯데슈퍼 구의점,구분없음,127.08940738323452,37.5385752465363
서울특별시 광진구 자양동 227번지 7호,서울특별시 광진구 아차산로 272 (자양동),(주)이마트 자양점,대형마트,127.06974203287464,37.53780313525986
서울특별시 광진구 구의동 236-53 광진 더프레236,"서울특별시 광진구 자양로 168, 102호 (구의동, 광진 더프레236)",GS THE FRESH 광진구의점,구분없음,127.0816382146634,37.54260436091579
서울특별시 광진구 자양동 227번지 342호 롯데백화점 스타시티점,서울특별시 광진구 능동로 92 (자양동),롯데백화점 건대스타시티점,백화점,127.06824670604944,37.53878862240545
서울특별시 동대문구 용두동 33번지 1호,서울특별시 동대문구 천호대로 133 (용두동),홈플러스(주) 동대문점,대형마트,127.03589897942808,37.57451022953594
서울특별시 동대문구 신설동 109번지 5호,서울특별시 동대문구 천호대로4길 21 (신설동),서울풍물시장,그 밖의 대규모점포,127.02264835264404,37.5728315903354
서울특별시 동대문구 장안동 580번지,서울특별시 동대문구 한천로 42 (장안동),장안위더스빌,그 밖의 대규모점포,127.05929113822478,37.566273700919936
서울특별시 동대문구 이문동 292번지 10호,서울특별시 동대문구 이문로 136 (이문동),이마트에브리데이 이문점,복합쇼핑몰,127.05900468022875,37.59848835511636
서울특별시 동대문구 제기동 1140번지 5호,서울특별시 동대문구 왕산로 117 (제기동),불로장생타워,전문점,127.03362038979752,37.57852308777503
서울특별시 동대문구 용두동 787번지 동의보감타워,,건강백화점 동의보감,전문점,127.03478462857944,37.577797051463136
서울특별시 동대문구 이문1동 292번지 10호 (주)이문종합상가 이문동웰츠타워,,대규모점포 개설등록,그 밖의 대규모점포,127.05900468022875,37.59848835511636
서울특별시 동대문구 장안동 108-5,서울특별시 동대문구 한천로 190(장안동),전곡시장,시장,127.0656783323447,37.57788463981047
서울특별시 동대문구 휘경동 151-3,서울특별시 동대문구 휘경로 53(휘경동),이경시장,시장,127.0631415735198,37.59460577171887
서울특별시 동대문구 이문동 292번지 10호,서울특별시 동대문구 이문로 136 (이문동),이문제일시장,시장,127.05900468022875,37.59848835511636
서울특별시 동대문구 제기동 892번지 71호,서울특별시 동대문구 왕산로 109 (제기동),한솔동의보감,전문점,127.03271014758452,37.57856145602474
서울특별시 동대문구 장안동 368번지 1호,서울특별시 동대문구 답십리로 288 (장안동),(주)형지쇼핑 아트몰링 장안점,그 밖의 대규모점포,127.0694991041825,37.57192621558758
서울특별시 동대문구 회기동 346번지 18호,서울특별시 동대문구  이문로  37 (회기동),베라체캠퍼스 에비뉴,그 밖의 대규모점포,127.05316677521913,37.59081803158585
서울특별시 광진구 자양동 680-63 판매시설,"서울특별시 광진구 아차산로 402, 판매시설 (자양동)",자양1재정비촉진구역 도시정비형 재개발사업 판매시설,쇼핑센터,127.08581183360609,37.5353968207052
서울특별시 광진구 능동 234-1,"서울특별시 광진구 천호대로112길 25, 1층 (능동)",GS THE FRESH 광진능동점,대형마트,127.07834798695504,37.55491762116085
서울특별시 동대문구 전농1동 591번지 53호,서울특별시 동대문구 왕산로 214 (전농동),롯데쇼핑(주)롯데마트 청량리점,대형마트,127.04410236002587,37.58097729495557
서울특별시 동대문구 전농1동 591번지 53호,서울특별시 동대문구 왕산로 214 (전농동),롯데백화점 청량리역사점,백화점,127.04410236002587,37.58097729495557
서울특별시 동대문구 이문동 324번지 10호,서울특별시 동대문구 이문로 88 (이문동),롯데쇼핑(주) 롯데마켓 999 이문점,복합쇼핑몰,127.0564490331528,37.59466802989412
서울특별시 동대문구 용두동 231-5,서울특별시 동대문구 무학로37길 12(용두동),용두시장,시장,127.02662986989846,37.57840402003222
서울특별시 동대문구 제기동 1019 경동시장,"서울특별시 동대문구 고산자로36길 3, 경동시장 (제기동)",경동시장,시장,127.03642276044876,37.57916298642758
서울특별시 동대문구 제기동 650호,,동서시장,시장,127.0386288110756,37.57979460179543
서울특별시 동대문구 청량리동 738번지,서울특별시 동대문구 홍릉로 13 (청량리동),청량리현대코아,그 밖의 대규모점포,127.0414998270788,37.58143956526194
서울특별시 동대문구 전농동 10번지 외7필지 전농sk아파트 주상가동,"서울특별시 동대문구 사가정로 148 (전농동, SK아파트)",롯데쇼핑(주) 롯데슈퍼 전농점,구분없음,127.05757584481069,37.57664212040417
서울특별시 동대문구 전농동 647번지 1호,서울특별시 동대문구 서울시립대로 36 (전농동),전농프라자,그 밖의 대규모점포,127.04410783865409,37.574540602063
서울특별시 동대문구 전농동 295번지 52호,서울특별시 동대문구 전농로 147 (전농동),전농로타리시장,시장,127.05417159413744,37.5779585194555
서울특별시 동대문구 답십리동 495-1,서울특별시 동대문구 천호대로 281(답십리동),동부시장,시장,127.04941941918987,37.56762797771789
서울특별시 동대문구 이문동 292번지 10호,서울특별시 동대문구 이문로 136 (이문동),이문동웰츠타워,그 밖의 대규모점포,127.05900468022875,37.59848835511636
서울특별시 동대문구 장안동 94번지 27호 외1필지 예신프라자,서울특별시 동대문구 한천로46길 42 (장안동),롯데쇼핑(주) 롯데슈퍼 장안점,구분없음,127.06781939933887,37.5815126942596
,서울특별시 동대문구 경희대로 20 (회기동),홈플러스 익스프레스 서울회기점,구분없음,127.04997616925736,37.59327679973072
서울특별시 동대문구 신설동 109번지 5호,,서울특별시장,그 밖의 대규모점포,127.02264835264404,37.5728315903354
서울특별시 동대문구 제기동 1019번지 신관 2층,"서울특별시 동대문구 고산자로36길 3, 2층 (제기동)",노브랜드 경동시장점,구분없음,127.03642276044876,37.57916298642758
서울특별시 동대문구 답십리1동 530번지 11호  외1필지 지층1호~13호,서울특별시 동대문구 고미술로 49 (답십리동),이마트에브리데이 답십리점,구분없음,127.05040124737408,37.5675713500063
서울특별시 동대문구 장안동 580번지,서울특별시 동대문구 한천로 42 (장안동),노브랜드 동대문 장안점,대형마트,127.05929113822478,37.566273700919936
서울특별시 강남구 역삼동 754번지 2  호,서울특별시 강남구 역삼로52길 14 (역삼동),역삼시장,그 밖의 대규모점포,127.04505874319136,37.498529441968905
서울특별시 동대문구 장안동 310-8 희헌빌딩,"서울특별시 동대문구 장한로28가길 45, 희헌빌딩 (장안동)",GS THE FRESH 동대문장안점,구분없음,127.06968532321156,37.57504179568348
서울특별시 동대문구 용두동 39-1 청량리역한양수자인그라시엘,"서울특별시 동대문구 고산자로32길 78 (용두동, 청량리역한양수자인그라시엘)",청량리역 한양수자인 그라시엘 판매시설,그 밖의 대규모점포,127.04010102471112,37.57729886984459
   호   ,,기타대규모점포,그 밖의 대규모점포,,
서울특별시 동대문구 장안동 371번지 0001호,,쉐르빌쇼핑타운,그 밖의 대규모점포,127.06696963923883,37.57167075412606
서울특별시 동대문구 제기동 892번지 71호,,(주)미도파마트,대형마트,127.03271014758452,37.57856145602474
서울특별시 동대문구 용두동 39번지 1호,"서울특별시 동대문구 왕산로34길 26 (용두동, 청량리동부청과시장)",동부청과(주),그 밖의 대규모점포,127.04010102471112,37.57729886984459
서울특별시 동대문구 장안동 217번지 2호,,장안시장,그 밖의 대규모점포,,
서울특별시 동대문구 회기동 346번지 18 호,,휘경시장,시장,127.05316677521913,37.59081803158585
서울특별시 동대문구 이문동 292번지 10호,,이문종합상가,그 밖의 대규모점포,127.05900468022875,37.59848835511636
서울특별시 동대문구 답십리동 68번지 1 호,,답십리시장,그 밖의 대규모점포,127.05488088686286,37.57317826949365
서울특별시 동대문구 제기동 892번지 71 호,,미도파마트,대형마트,127.03271014758452,37.57856145602474
서울특별시 동대문구 회기동 346번지 17호,,휘경시장,그 밖의 대규모점포,127.0532736847268,37.59113319656358
서울특별시 동대문구 이문동 292번지 10호,,주-이문종합상가,그 밖의 대규모점포,127.05900468022875,37.59848835511636
서울특별시 동대문구 이문동 292번지 10호,,주-이문종합상가,그 밖의 대규모점포,127.05900468022875,37.59848835511636
서울특별시 동대문구 장안2동 368번지 1호 바우하우스,서울특별시 동대문구 답십리로 288 (장안동),롯데쇼핑(주) 롯데슈퍼 장안2동점,구분없음,127.0694991041825,37.57192621558758
서울특별시 동대문구 장안동 368번지 1호 바우하우스,서울특별시 동대문구  답십리로  288 (장안동),롯데쇼핑(주) 롯데슈퍼 장안 2동점,구분없음,127.0694991041825,37.57192621558758
서울특별시 동대문구 전농동 620번지 69호,"서울특별시 동대문구 왕산로 205-0 (전농동, 롯데백화점(청량리점))",롯데백화점 청량리플라자,백화점,127.04313633955424,37.57981782947527
서울특별시 동대문구 제기동 135번지 90호,서울특별시 동대문구 제기로 18 (제기동),제기시장,그 밖의 대규모점포,127.03182646417744,37.58623455278951
서울특별시 동대문구 답십리동 265번지 5호,,답십리중앙시장,그 밖의 대규모점포,127.05456278034,37.56860168305157
서울특별시 동대문구 이문1동 258번지 24호,서울특별시 동대문구 이문로 144 (이문동),홈플러스(주) 익스프레스 이문점,그 밖의 대규모점포,127.05908927940402,37.59928634992121
서울특별시 동대문구 용두동 787호,,건강백화점 동의보감,전문점,127.03478462857944,37.577797051463136
서울특별시 동대문구 장안동 368번지 1호,,바우하우스,대형마트,127.0694991041825,37.57192621558758
서울특별시 동대문구 장안동 310-8 희헌빌딩,"서울특별시 동대문구 장한로28가길 45, 희헌빌딩 (장안동)",GS THE FRESH 동대문장안점,구분없음,127.06968532321156,37.57504179568348
서울특별시 중랑구 신내1동 786번지 동성타워프라자,서울특별시 중랑구 봉화산로 221 (신내동),동성타워프라자,복합쇼핑몰,127.09438928121853,37.60805315630301
서울특별시 중랑구 중화2동 314번지 1호,서울특별시 중랑구 동일로129길 35 (중화동),태능엔터피아 번영회,시장,127.074574006062,37.599293008975415
,"서울특별시 중랑구 망우로 353-0 (상봉동, 프레미어스 엠코)",이노시티,복합쇼핑몰,127.08762368028492,37.598101159737865
,서울특별시 중랑구 면목로74길 45 (면목동),동원,시장,127.08700083803464,37.58983595585816
서울특별시 중랑구 중화2동 314번지 1호,서울특별시 중랑구 동일로129길 35 (중화동),홈플러스(주) 익스프레스 태릉점,그 밖의 대규모점포,127.074574006062,37.599293008975415
서울특별시 중랑구 면목3.8동 499번지 4호,서울특별시 중랑구 면목로 357 (면목동),홈플러스(주)익스프레스 면목점,그 밖의 대규모점포,127.08516844447615,37.58400278337198
서울특별시 중랑구 망우3동 410번지 1호,서울특별시 중랑구 용마산로 494 (망우동),홈플러스(주)익스프레스 망우점,그 밖의 대규모점포,127.09733810588538,37.594939169404725
서울특별시 중랑구 면목7동 650번지 카멜리아 쇼핑센타 1층,서울특별시 중랑구 면목로39길 11 (면목동),(주)이마트에브리데이 면목동점,그 밖의 대규모점포,127.08340635019538,37.57954755711983
서울특별시 중랑구 신내2동 645번지,서울특별시 중랑구 신내로 201 (신내동),홈플러스 신내점,대형마트,127.09087324152529,37.6157946307416
서울특별시 동대문구 이문동 257-42 래미안라그란데아파트 F동 101~4호,"서울특별시 동대문구 이문로35길 12, F동 101~4호 (이문동, 래미안라그란데아파트)",GS THE FRESH 이문라그란데점,복합쇼핑몰,127.05734022819888,37.60008365174537
서울특별시 중랑구 망우동 580 중랑숲금호어울림,"서울특별시 중랑구 양원역로 18, 103~106호 (망우동, 중랑숲금호어울림)",GS THE FRESH 중랑망우점,그 밖의 대규모점포,127.10637935921464,37.60221987826296
서울특별시 중랑구 면목동 168번지 2호,서울특별시 중랑구 사가정로 332 (면목동),홈플러스(주)면목점,대형마트,127.07817307200784,37.57992799373431
서울특별시 중랑구 묵1동 170번지 1호 외 35필지,서울특별시 중랑구 동일로 932 (묵동),주식회사 이마트 묵동점,대형마트,127.07466258151506,37.61384588748609
서울특별시 중랑구 상봉1동 500번지,"서울특별시 망우로 353-0 (상봉동, 프레미어스 엠코)",홈플러스(주) 서울 상봉점,대형마트,127.08762368028492,37.598101159737865
서울특별시 중랑구 상봉동 81호,서울특별시 중랑구 망우로 336 (상봉동),코스트코홀세일 상봉점,대형마트,127.08732229768496,37.59686384169581
서울특별시 중랑구 신내동 646 금강리빙스텔,"서울특별시 중랑구 신내로 211, 금강리빙스텔 비01호 (신내동)",롯데프레시앤델리 봉화산역점,그 밖의 대규모점포,127.0897873899956,37.616325654327824
서울특별시 중랑구 신내동 502-5 대명프라자,"서울특별시 중랑구 봉화산로56길 153, 대명프라자 (신내동)",GS THE FRESH 신내점,그 밖의 대규모점포,127.0939454571168,37.60175657752346
,서울특별시 중랑구 면목로 470 (상봉동),한남프라자,시장,127.0838397531491,37.59367935124579
서울특별시 중랑구 상봉2동 129번지 9호,서울특별시 중랑구 망우로32길 23 (상봉동),롯데쇼핑(주)롯데슈퍼 상봉점,그 밖의 대규모점포,127.07422495320934,37.59294657532894
서울특별시 중랑구 망우동 506번지 1호,서울특별시 중랑구 상봉로 118 (망우동),주식회사 이마트 상봉점,대형마트,127.09056373198862,37.59648191297325
서울특별시 중랑구 묵1동 170번지 1호 외 35필지,,신세계 이마트 묵동점,대형마트,127.07466258151506,37.61384588748609
서울특별시 성북구 돈암동 609번지 1호 스카이프라자상가,"서울특별시 성북구 성북로4길 52 (돈암동, 한신한진아파트)",동소문스카이상가,그 밖의 대규모점포,127.007428640116,37.59480783005864
"서울특별시 성북구 길음동 535-8,535-26,540-2,540-7",,길음시장,그 밖의 대규모점포,,
"서울특별시 성북구 길음동 535번지8호, 535번지26호, 540번지2호",,길음시장,그 밖의 대규모점포,,
서울특별시 성북구 보문동7가 25번지 1호,서울특별시 성북구 보문로 61 (보문동7가),홈플러스익스프레스 보문점,그 밖의 대규모점포,127.01857003990943,37.580758952519616
서울특별시 성북구 장위동 316번지 3호,서울특별시 성북구 월계로40길 7 (장위동),롯데슈퍼 장위점,구분없음,127.0455704459814,37.62293507459277
서울특별시 성북구 정릉3동 1034번지,서울특별시 성북구 정릉로 307 (정릉동),롯데슈퍼 정릉점,구분없음,127.01543342445646,37.603261004491706
서울특별시 성북구 길음동 1285번지 두산아파트상가,서울특별시 성북구 길음로13길 22 (길음동),홈플러스익스프레스 길음점,그 밖의 대규모점포,127.01593882493214,37.60977636935964
서울특별시 성북구 하월곡동 230번지 동일하이빌뉴시티아파트,"서울특별시 성북구 종암로 167 (하월곡동, 동일하이빌뉴시티아파트)",이마트 하월곡점,대형마트,127.02810592321048,37.605052403184345
서울특별시 성북구 돈암동 609번지 1호,서울특별시 성북구 성북로4길 52 (돈암동),동소문스카이상가,복합쇼핑몰,127.007428640116,37.59480783005864
서울특별시 성북구 길음동 25번지 2호,서울특별시 성북구 도봉로 17 (길음동),이마트 미아점,대형마트,127.02683784095623,37.61085634829917
서울특별시 성북구 보문동4가 1번지 1   호   ,,보문시장,그 밖의 대규모점포,,
서울특별시 성북구 하월곡동 88번지 345호   ,,미아시장,그 밖의 대규모점포,,
서울특별시 성북구 석관동 270호   ,,석관시장,그 밖의 대규모점포,,
,"서울특별시 성북구 보문사길 111 (보문동6가, 보문파크뷰자이)",GS더프레시 성북보문점,구분없음,127.0155875805964,37.58012925399375
서울특별시 성북구 석관동 338번지 18호   ,,새석관시장,그 밖의 대규모점포,127.04979738734104,37.60821568852999
서울특별시 성북구 장위동 301호   ,,번동시장,그 밖의 대규모점포,127.04505003695836,37.6213190477255
서울특별시 성북구 길음동 540번지 2   호   ,,길음시장,그 밖의 대규모점포,,
서울특별시 성북구 돈암동 609번지 1  호   ,,동소문스카이프라자,그 밖의 대규모점포,,
서울특별시 성북구 길음동 20번지 1호,"서울특별시 성북구 동소문로 315 (길음동, 현대백화점미아점)",현대백화점 미아점,백화점,127.02583462053671,37.60837442819217
서울특별시 성북구 길음동 535번지 8호,서울특별시 성북구 동소문로 227 (길음동),길음시장,시장,127.01887697064096,37.60271203283409
서울특별시 성북구 길음동 25번지 2호,,신세계이마트미아점,대형마트,127.02683784095623,37.61085634829917
서울특별시 성북구 길음동 25번지 2호,서울특별시 성북구  도봉로  17 (길음동),이마트 미아점,대형마트,127.02683784095623,37.61085634829917
서울특별시 성북구 장위동 60번지 1호,,삼익아파트상가,그 밖의 대규모점포,127.05476090593504,37.61337542942581
서울특별시 성북구 종암동 132번지,"서울특별시 성북구 종암로 132 (종암동, 종암우림카이저팰리스)",종암우림카이저팰리스주상복합,그 밖의 대규모점포,127.03059906534244,37.60196393709111
서울특별시 성북구 길음동 25번지 2호 신세계 이마트 미아점,"서울특별시 성북구 도봉로 17, 신세계 이마트 미아점 (길음동)",이마트 미아점,대형마트,127.02683784095623,37.61085634829917
서울특별시 성북구 길음2동 230번지 동일하이빌뉴시티아파트,"서울특별시 성북구 종암로 167,  동 (하월곡동)",이마트 하월곡점,대형마트,127.02810592321048,37.605052403184345
서울특별시 성북구 하월곡동 46-73 코업스타클래스,"서울특별시 성북구 화랑로 76, 코업스타클래스 (하월곡동)",홈플러스 월곡점,대형마트,127.03755514654458,37.601820976665
서울특별시 성북구 길음동 508-16,"서울특별시 성북구 숭인로8길 80, 롯데캐슬클라시아 상가 101~104호 (길음동)",GS더프레시 성북클라시아점,구분없음,127.0231116752908,37.608075724480656
서울특별시 성북구 길음1동 1284번지 삼성래미안3차아파트,"서울특별시 성북구 길음로 33 (길음동, 길음뉴타운8단지아파트)",GS더프레시 길음뉴타운점,구분없음,127.01505472074308,37.60756130522957
서울특별시 성북구 길음1동 1280번지 6호,서울특별시 성북구 길음로 103 (길음동),GS수퍼마켓 길음점,그 밖의 대규모점포,127.01508279285974,37.6108720478642
서울특별시 성북구 월곡1동 62번지 1호,,롯데슈퍼하월곡점,,127.03587802072389,37.60420775454403
서울특별시 성북구 동선동1가 1번지 2호,서울특별시 성북구 동소문로 106 (동선동1가),유타쇼핑몰,쇼핑센터,127.01428654773156,37.59260509731219
서울특별시 성북구 길음동 1286-10 길음뉴타운9단지래미안 상가,"서울특별시 성북구 길음로7길 6, 길음뉴타운9단지래미안 상가 지하1층 B04~B08호 (길음동)",이마트에브리데이 길음점,그 밖의 대규모점포,127.0195551492035,37.60430587479762
서울특별시 성북구 삼선동1가 21,서울특별시 성북구 삼선교로 6 (삼선동1가),홈플러스익스프레스 삼선점,그 밖의 대규모점포,127.00366811666892,37.58786268109334
서울특별시 성북구 장위동 68번지 1014호   ,,코코마트,그 밖의 대규모점포,127.0473617666631,37.612920823522565
서울특별시 성북구 장위동 68번지 1014호   ,,코코마트,그 밖의 대규모점포,127.0473617666631,37.612920823522565
서울특별시 성북구 길음동 25번지 2호   ,,신세계백화점 미아점,백화점,127.02683784095623,37.61085634829917
서울특별시 성북구 길음동 540번지 2호   ,,길음시장,그 밖의 대규모점포,127.01914816141284,37.603303821566726
서울특별시 성북구 길음1동 1285번지 7호,서울특별시 성북구 오패산로4길 17 (하월곡동),롯데마켓999 하월곡점,구분없음,127.01625955814022,37.60877889530202
서울특별시 성북구 길음동 1274번지 67호,"서울특별시 성북구 길음로13길 22 (길음동, 길음뉴타운7단지두산위브아파트)",롯데마이슈퍼 길음점,구분없음,127.01593882493214,37.60977636935964
서울특별시 성북구 장위동 60번지 1호,,장석시장,시장,127.05476090593504,37.61337542942581
서울특별시 성북구 종암동 3번지 75  호,,종암시장,시장,,
서울특별시 성북구 삼선동5가 55번지 1  호,,돈암시장,시장,,
서울특별시 성북구 하월곡동 16번지 1 호,,월곡시장,시장,,
서울특별시 성북구 정릉동 405번지 1  호,,정릉시장,시장,127.00629872212,37.60855464542991
서울특별시 성북구 장위동 238번지 496 호,,장위시장,그 밖의 대규모점포,127.04786511469096,37.61310571051137
서울특별시 성북구 삼선동1가 29호,,삼선시장,시장,127.00436445494115,37.58919583674465
서울특별시 성북구 장위동 68번지 1014호,,코코마트,시장,127.0473617666631,37.612920823522565
서울특별시 성북구 동소문동5가 75번지,서울특별시 성북구 동소문로 98 (동소문동5가),롯데마이슈퍼 동소문점,구분없음,127.0132841271,37.59226268754715
서울특별시 성북구 하월곡동 62-1,서울특별시 성북구 오패산로4길 17 (하월곡동),롯데마켓 999 하월곡점,구분없음,127.03587802072389,37.60420775454403
서울특별시 성북구 길음동 1286-10 길음뉴타운9단지래미안 상가,"서울특별시 성북구 길음로7길 6, 길음뉴타운9단지래미안 상가 지하1층 B04~B08호 (길음동)",이마트에브리데이 길음점,구분없음,127.0195551492035,37.60430587479762
서울특별시 강북구 수유동 54번지 5호 수유시장,"서울특별시 강북구 도봉로67길 18, 수유시장 (수유동)",수유시장,그 밖의 대규모점포,127.02005814588244,37.63078114474392
서울특별시 강북구 수유동 32번지 2호 수유중앙시장,"서울특별시 강북구 노해로17길 21, 수유중앙시장 (수유동)",수유중앙시장,그 밖의 대규모점포,127.01843755660106,37.64034645265025
서울특별시 강북구 미아동 701번지 3호 동북프라자,"서울특별시 강북구 솔샘로 233, 동북프라자 (미아동)",동북프라자,그 밖의 대규모점포,127.01590485397466,37.620246988940536
,서울특별시 강북구 도봉로33길 18 (미아동),(주)농협유통 미아점,대형마트,127.023569984226,37.6215673696814
,서울특별시 강북구 도봉로 172 (미아동),홈플러스(주)익스프레스미아점,구분없음,127.02445068062688,37.62421939325106
서울특별시 강북구 번1동 413번지 3호,서울특별시 강북구 한천로123길 26 (번동),북부시장,시장,127.02745506869914,37.63623647882298
서울특별시 강동구 천호동 563호   ,,동아코아,쇼핑센터,127.12299203254936,37.54127075136027
서울특별시 강북구 미아동 701번지 3호 동북프라자,"서울특별시 강북구 솔샘로 233, 동북프라자 (미아동)",동북시장,그 밖의 대규모점포,127.01590485397466,37.620246988940536
,서울특별시 강북구 노해로23길 68 (수유동),우이시장,그 밖의 대규모점포,127.01707893338566,37.64598744214755
서울특별시 강북구 미아동 71번지 1호,서울특별시 강북구 도봉로 52 (미아동),연이스퀘어,쇼핑센터,127.0276239971694,37.61370132969098
서울특별시 강북구 수유동 63번지,"서울특별시 강북구 도봉로 261 (수유동, 삼호아파트,수유프라자)",수유프라자,그 밖의 대규모점포,127.02056064450731,37.6316965539822
서울특별시 강북구 수유동 63번지,서울특별시 강북구 도봉로 261 (수유동),수유프라자,그 밖의 대규모점포,127.02056064450731,37.6316965539822
"서울특별시 강북구 미아동 7-5 대지쇼핑프라자 1층 101~104호, 106호~122호","서울특별시 강북구 오패산로30길 10, 대지쇼핑프라자 1층 101~104호, 106호~122호 (미아동)",GS THE FRESH 북서울숲점,구분없음,127.0319684967562,37.61361116575439
서울특별시 강북구 미아동 58호,서울특별시 강북구 도봉로 45 (미아동),숭인시장,그 밖의 대규모점포,127.02687570357692,37.61272002047807
서울특별시 강북구 수유동 405번지 5호,서울특별시 강북구 삼양로91길 11-12 (수유동),수유북부시장,그 밖의 대규모점포,127.01324357896812,37.6362170416198
서울특별시 강북구 송중동,서울특별시 강북구 도봉로 34 (미아동),트레지오,복합쇼핑몰,127.02782528416616,37.612056593715984
서울특별시 강북구 수유3동 179번지 5호,서울특별시 강북구 한천로148길 12-43 (수유동),강북종합시장,그 밖의 대규모점포,,
서울특별시 강북구 번1동 413번지 3호,서울특별시 강북구 한천로123길 26 (번동),강북 북부시장,그 밖의 대규모점포,127.02745506869914,37.63623647882298
서울특별시 강북구 미아동 1359번지,서울특별시 강북구 삼양로 247 (미아동),롯데쇼핑(주) 롯데마트 삼양점,복합쇼핑몰,127.0148282326308,37.62557410754406
서울특별시 강북구 미아동 1351번지,"서울특별시 강북구 도봉로 157, 112호 (미아동, 두원프라자)",(주)이마트에브리데이 미아동점,구분없음,127.02411444273196,37.62273898434033
서울특별시 강북구 수유동 63호   ,,수유프라자,그 밖의 대규모점포,127.02056064450731,37.6316965539822
   호   ,,강북종합시장,그 밖의 대규모점포,,
서울특별시 강북구 미아동 35번지 4   호 도봉로32  ,,트레지오,쇼핑센터,,
서울특별시 강북구 미아동 70번지 6   호,서울특별시 강북구 도봉로 62 (미아동),롯데백화점 미아점,복합쇼핑몰,127.0276358515983,37.614215984414464
,"서울특별시 강북구 삼양로19길 25, 110동 지하1층 5호,6호 (미아동, 삼성래미안트리베라1차)",롯데쇼핑(주)롯데슈퍼미아점,대형마트,127.01783626041735,37.61394228450622
서울특별시 강북구 송천동,서울특별시 강북구 도봉로33길 18 (미아동),성북프라자,그 밖의 대규모점포,127.023569984226,37.6215673696814
서울특별시 강북구 번2동 433번지 1호,서울특별시 강북구 덕릉로 176 (번동),(주)지에스리테일번동점,대형마트,127.03061982002038,37.635130545639385
서울특별시 강북구 수유1동 54번지 5호,서울특별시 강북구 도봉로67길 18 (수유동),롯데쇼핑(주)롯데슈퍼수유점,대형마트,127.02005814588244,37.63078114474392
서울특별시 강북구 삼각산동 812번지 삼성래미안트리베라2차아파트 상가 204동 115-119,서울특별시 강북구 삼양로27길 19 (미아동),롯데쇼핑(주)롯데슈퍼삼양점,대형마트,127.01751149440356,37.61731166124413
서울특별시 도봉구 쌍문동 711번지 금강아미움파크타운,"서울특별시 도봉구 방학로5길 33, 금강아미움파크타운 (쌍문동, 금강아미움파크타운)",금강아미움쇼핑센터,그 밖의 대규모점포,127.0352533925011,37.66140604657626
서울특별시 도봉구 창동 628번지 20호,서울특별시 도봉구 도봉로104길 53 (창동),(주)이마트에브리데이 창동점,구분없음,127.03220190481376,37.64348257266518
서울특별시 도봉구 방학동 271번지 2호,서울특별시 도봉구 방학로 223 (방학동),신동아프라자,그 밖의 대규모점포,127.02426021839436,37.66143190471009
서울특별시 도봉구 창동 804번지,서울특별시 도봉구 덕릉로63가길 61 (창동),대우상가,그 밖의 대규모점포,127.03464131191248,37.64237061371983
서울특별시 도봉구 쌍문2동 19번지,서울특별시 도봉구 도당로 10 (쌍문동),롯데슈퍼 쌍문점,쇼핑센터,127.03244744600734,37.65918857254101
서울특별시 도봉구 도봉동 657번지,서울특별시 도봉구 마들로 724 (도봉동),도봉한양프라자,그 밖의 대규모점포,127.04478626771956,37.6745500734023
서울특별시 도봉구 창2동 628번지 20호,서울특별시 도봉구 도봉로104길 53 (창동),(주)에브리데이리테일 창동점,구분없음,127.03220190481376,37.64348257266518
서울특별시 도봉구 창동 297-16,서울특별시 도봉구 해등로12길 3 (창동),GS THE FRESH 창동점,구분없음,127.0385684185862,37.65366099511821
서울특별시 도봉구 방학동 484-7,"서울특별시 도봉구 시루봉로 103-1, 1층 (방학동)",GS THE FRESH 방학신동아점,구분없음,127.0244849846773,37.66008933793717
서울특별시 도봉구 도봉동 30번지 1호 도봉한신쇼핑상가,서울특별시 도봉구 도봉로180나길 41 (도봉동),도봉한신쇼핑상가,복합쇼핑몰,127.04517030326268,37.68573651593075
서울특별시 노원구 월계3동 18번지 그랑빌아파트주상가 지층동 101호,서울특별시 노원구 마들로 31 (월계동),(주)지에스리테일 GS슈퍼 노원월계점,구분없음,127.0656779876374,37.61780285234586
서울특별시 도봉구 창1동 651번지 36호,서울특별시 도봉구 도봉로110길 65 (창동),롯데프레쉬 창동점,구분없음,127.03424281418242,37.646467983846414
서울특별시 도봉구 방학동 707번지 7호,서울특별시 도봉구 도봉로 678 (방학동),홈플러스(주)방학점,대형마트,127.04085228035484,37.66484189955164
서울특별시 도봉구 창동 581번지 28호,서울특별시 도봉구 덕릉로57길 30 (창동),삼익쇼핑,그 밖의 대규모점포,127.03439041166038,37.64008079655384
서울특별시 도봉구 창동 135번지 26호,서울특별시 도봉구 노해로65길 4 (창동),(주) 이마트 창동점,복합쇼핑몰,127.0444380971713,37.65202172781135
서울특별시 도봉구 창2동 628번지 20호,서울특별시 도봉구 도봉로104길 53 (창동),(주)에브리데이리테일 창동점,구분없음,127.03220190481376,37.64348257266518
서울특별시 도봉구 방학3동 271번지 2호,서울특별시 도봉구 방학로 223 (방학동),롯데슈퍼 방학점,구분없음,127.02426021839436,37.66143190471009
서울특별시 도봉구 쌍문동 311번지,서울특별시 도봉구 시루봉로 2 (쌍문동),롯데슈퍼 쌍문4동 가맹점,구분없음,127.02591121812117,37.65100774625287
서울특별시 도봉구 방학동 717번지 6호,서울특별시 도봉구 마들로 645 (방학동),롯데쇼핑(주)VIC마켓도봉점,대형마트,127.04233232643143,37.66786023218914
서울특별시 노원구 중계동 160-1 기업은행,"서울특별시 노원구 덕릉로 690, 1층 (중계동)",(주)이마트에브리데이 상계역점,구분없음,127.07287928377104,37.65917275001665
서울특별시 노원구 공릉동 323번지 35호,서울특별시 노원구 동일로 1101 (공릉동),홈플러스(주)익스프레스 공릉점,구분없음,127.0683826106621,37.62814129617168
서울특별시 노원구 공릉2동 89번지 1호  대덕프라자 지층 101~102호,서울특별시 노원구 노원로1길 67 (공릉동),(주)이마트에브리데이 공릉동점,구분없음,127.0807120736863,37.62081085050528
서울특별시 노원구 하계동 284번지 2호,"서울특별시 노원구 한글비석로 57 (하계동, 세이브존)",세이브존,그 밖의 대규모점포,127.06638170853893,37.63658857038254
서울특별시 노원구 중계2.3동 509번지 2001아울렛,서울특별시 노원구 동일로204가길 46 (중계동),이천일아울렛 중계점,복합쇼핑몰,127.06509747859816,37.64130429033735
서울특별시 노원구 상계동 453-2 1층,"서울특별시 노원구 한글비석로 452, 1층 (상계동)",GS THE FRESH 노원비석로점,구분없음,127.0649297055086,37.66403286521137
서울특별시 노원구 중계동 509번지 2호,서울특별시 노원구 동일로204가길 12 (중계동),홈플러스(주) 중계점,복합쇼핑몰,127.06571826409112,37.63991860183286
서울특별시 노원구 상계동 1258 희성오피앙,"서울특별시 노원구 동일로 1701 (상계동, 희성오피앙)",오피앙,그 밖의 대규모점포,127.05199866889654,37.68027003047857
서울특별시 노원구 월계동 333번지 1호,"서울특별시 노원구 마들로3길 15 (월계동, 월계이마트)",이마트타운 월계점,쇼핑센터,127.0589680448907,37.627340551277605
서울특별시 노원구 중계동 517호,"서울특별시 노원구 노원로 330 (중계동, 롯데마트)",롯데마트 중계점,복합쇼핑몰,127.06738467756811,37.647295499541634
서울특별시 노원구 상계동 292번지 1호,서울특별시 노원구 노해로 507 (상계동),와우패션클럽,복합쇼핑몰,127.06087122206104,37.65533921070781
서울특별시 노원구 중계동 506번지 1   호,,건영옴니백화점,백화점,127.0618644292018,37.63882671623933
서울특별시 노원구 상계동 1318번지,서울특별시 노원구 상계로23다길 13-8 (상계동),노원아이파크 상가,그 밖의 대규모점포,127.0662695814164,37.65978391028074
서울특별시 노원구 중계동 364번지 17호 유경데파트,"서울특별시 노원구 한글비석로 232 (중계동, 유경데파트)",유경데파트,그 밖의 대규모점포,127.07403890580238,37.64837733757775
,"서울특별시 노원구 동일로180길 14 (공릉동, 공릉종합상가)",공릉종합상가,그 밖의 대규모점포,127.07241946793664,37.62194843245892
서울특별시 노원구 상계동 173번지,서울특별시 노원구 한글비석로 396 (상계동),상계역전종합상가,쇼핑센터,127.06907810565274,37.660387358735
서울특별시 노원구 중계동 360번지 2호,서울특별시 노원구 중계로 225 (중계동),홈플러스(주)익스프레스 중계점,구분없음,127.07144160749904,37.64982754825054
서울특별시 노원구 상계동 713호   ,,롯데백화점 상계점,백화점,127.05818836673735,37.65514412747118
서울특별시 노원구 하계동 284호   ,,세이브존,대형마트,127.0658167830603,37.63786618725365
서울특별시 노원구 월계동 333번지 1호   ,,신세계 이마트 월계덤,그 밖의 대규모점포,127.0589680448907,37.627340551277605
서울특별시 노원구 월계동 333번지 1호,,신세계 이마트 월계점,대형마트,127.0589680448907,37.627340551277605
서울특별시 노원구 상계동 684번지,서울특별시 노원구 한글비석로 471 (상계동),(주)지에스리테일 GS수퍼상계점,구분없음,127.06267523571542,37.6641184501122
서울특별시 노원구 상계동 95-3,"서울특별시 노원구 덕릉로 753, 노원롯데캐슬시그니처아파트 근린생활시설 2동 16,17호 (상계동)",GS THE FRESH 노원캐슬점,구분없음,127.07495596104611,37.66495289461748
서울특별시 노원구 공릉동 238번지 53호,"서울특별시 노원구 공릉로 144 (공릉동, 공릉빌딩)",롯데쇼핑(주) 롯데슈퍼공릉점,구분없음,127.07665059118334,37.62264996122352
서울특별시 노원구 하계동 284호   ,,세이브존,대형마트,127.0658167830603,37.63786618725365
서울특별시 노원구 상계동 389번지 234호   ,,상계중앙시장,그 밖의 대규모점포,,
서울특별시 노원구 공릉동 90번지 4호,서울특별시 노원구 노원로 3 (공릉동),(주)지에스리테일  공릉점,구분없음,127.08373028490875,37.621986772579845
서울특별시 노원구 상계2동 1318번지 노원아이파크 지하1층,,(주)지에스리테일 GS수퍼상계중앙점,대형마트,127.0662695814164,37.65978391028074
서울특별시 은평구 수색동 205번지 21  호   ,,수일시장,그 밖의 대규모점포,,
서울특별시 은평구 대조동 240호,서울특별시 은평구 불광로 20 (대조동),팜스퀘어,쇼핑센터,126.92611364779032,37.60972137406473
서울특별시 은평구 대조동 240호,서울특별시 은평구 불광로 20 (대조동),엔씨백화점 불광점,쇼핑센터,126.92611364779032,37.60972137406473
서울특별시 은평구 응암동 300번지 11 호   ,,양지시장,그 밖의 대규모점포,,
서울특별시 은평구 불광동 310번지 131 호,서울특별시 은평구 통일로 850 (불광동),연서시장,그 밖의 대규모점포,126.91909041532472,37.61944901182918
서울특별시 은평구 응암동 427번지 126호,서울특별시 은평구 응암로 252 (응암동),응암시장,그 밖의 대규모점포,126.91567328969585,37.59439512829487
서울특별시 은평구 불광동 631번지 1호,서울특별시 은평구 불광로 90-0 (불광동),대호프라자상가,복합쇼핑몰,126.92997065564724,37.61475429755956
서울특별시 은평구 불광동 248호   ,서울특별시 은평구 통일로 780 (불광동),불광미성상가,그 밖의 대규모점포,126.92541945760102,37.61492897479722
서울특별시 은평구 신사1동 20번지 7호,서울특별시 은평구 갈현로 10 (신사동),홈플러스(주)익스프레스 신사점,그 밖의 대규모점포,126.90744526352955,37.59888321906639
서울특별시 은평구 갈현2동 527번지 13호,서울특별시 은평구 서오릉로 222 (갈현동),홈플러스 익스프레스 갈현점,그 밖의 대규모점포,126.90676569109252,37.61494705030886
서울특별시 은평구 불광동 308번지 1   호,서울특별시 은평구 통일로 842 (불광동),범서쇼핑,쇼핑센터,126.91900930470273,37.61860693495705
서울특별시 은평구 구산동 182번지 6  호   ,,현대화유통기업(주),대형마트,,
서울특별시 은평구 진관내동 500번지 2  호   ,,(주)미소종합유통,대형마트,,
서울특별시 은평구 불광동 311번지 13호,서울특별시 은평구 통일로 856 (불광동),메트로,쇼핑센터,126.9185882398322,37.61963451975198
서울특별시 은평구 역촌동 17번지 1호,서울특별시 은평구 진흥로 103 (역촌동),롯데쇼핑(주) 롯데슈퍼 역촌점,그 밖의 대규모점포,126.91957173973448,37.60610258403721
서울특별시 은평구 진관동 79번지 15호,"서울특별시 은평구 통일로 1050 (진관동, 롯데몰은평점)",롯데몰 은평,쇼핑센터,126.91513305312584,37.63748268452829
서울특별시 은평구 수색동 75번지,서울특별시 은평구 수색로 217 (수색동),(주)이마트 수색점,대형마트,126.89575893636685,37.579593293627
서울특별시 은평구 응암동 90번지 1호,서울특별시 은평구 은평로 111 (응암동),(주)이마트 은평점,대형마트,126.91730250270884,37.60035754806895
서울특별시 은평구 역촌동 31번지 6호,서울특별시 은평구 진흥로1길 28 (역촌동),서부종합시장,그 밖의 대규모점포,126.91606684268343,37.602972635811305
서울특별시 은평구 구산동 1번지 24호,서울특별시 은평구 서오릉로 145 (구산동),홈플러스(주)익스프레스구산점,그 밖의 대규모점포,126.9136779568427,37.6114329675926
서울특별시 은평구 응암3동 124번지 17호,서울특별시 은평구 응암로 247 (응암동),홈플러스(주)익스프레스응암점,그 밖의 대규모점포,126.91494594518043,37.59426188471656
서울특별시 은평구 불광1동 239번지 9호,서울특별시 은평구 불광로 121 (불광동),홈플러스(주)익스프레스 불광점,그 밖의 대규모점포,126.92998136857268,37.61766621920408
서울특별시 은평구 진관외동 424번지 1호   ,,진관시장,그 밖의 대규모점포,,
서울특별시 은평구 증산동 184번지 9호   ,서울특별시 은평구 증산로3길 12 (증산동),증산시장,그 밖의 대규모점포,126.902177737618,37.58145872375861
서울특별시 은평구 응암동 300번지 10 호   ,,대림시장,그 밖의 대규모점포,,
서울특별시 은평구 응암동 90번지 1호   ,서울특별시 은평구 은평로 111 (응암동),신세계이마트 은평점,대형마트,126.91730250270884,37.60035754806895
서울특별시 은평구 응암동 90번지 1호   ,서울특별시 은평구 은평로 111 (응암동),신세계이마트 은평점,대형마트,126.91730250270884,37.60035754806895
서울특별시 은평구 대조동 14번지 24호   ,,"불광시장(법인, 대표자, 관리자변경)",그 밖의 대규모점포,,
서울특별시 은평구 갈현동 424번지 16 호,서울특별시 은평구 갈현로 300 (갈현동),갈현시장,그 밖의 대규모점포,126.91453327677776,37.62360849936973
서울특별시 은평구 응암동 74번지 7 호,,녹번시장,그 밖의 대규모점포,126.92761654223555,37.60059401290868
서울특별시 은평구 갈현동 467번지 1호,서울특별시 은평구 연서로17길 18-6 (갈현동),역촌중앙시장,그 밖의 대규모점포,126.91334495183727,37.613267398316765
서울특별시 은평구 역촌동 31-6 아그네스 풍림아이원,"서울특별시 은평구 진흥로1길 28(역촌동, 아그네스 풍림아이원)",서부종합시장,시장,126.91606684268343,37.602972635811305
서울특별시 은평구 불광1동 554번지 1호,서울특별시 은평구 불광로 60 (불광동),(주)이마트 에브리데이 불광동점,그 밖의 대규모점포,126.92921880944684,37.61237763764337
서울특별시 은평구 신사동 228-5,"서울특별시 은평구 가좌로 331, 1층 (신사동)",GS THE FRESH 은평가좌점,구분없음,126.90555387062332,37.5964562137448
서울특별시 은평구 갈현2동 456번지 27호,서울특별시 은평구 연서로 215 (갈현동),롯데쇼핑(주)롯데슈퍼갈현점,그 밖의 대규모점포,126.91645134186986,37.61778865772728
서울특별시 은평구 갈현1동 395번지 6호,서울특별시 은평구 통일로 867 (갈현동),롯데쇼핑(주)롯데슈퍼연신내점,그 밖의 대규모점포,126.91701472040036,37.62022627223819
서울특별시 은평구 역촌동 14번지 7호,서울특별시 은평구 서오릉로 95 (역촌동),홈플러스(주) 익스프레스 역촌점,그 밖의 대규모점포,126.91772301013091,37.60826553840553
서울특별시 은평구 대조동 14번지 37  호   ,,대조시장,그 밖의 대규모점포,,
서울특별시 은평구 대조동 14번지 24호   ,,불광시장(주),그 밖의 대규모점포,,
서울특별시 서대문구 홍제3동 294번지 6호,서울특별시 통일로 484 (유진상가),유진상가,시장,126.939153100028,37.59100214242204
서울특별시 서대문구 남가좌동 290번지 2   호,서울특별시 서대문구 수색로2길 45 (남가좌동),모래내시장(주),시장,126.91303659871588,37.57071870866521
,서울특별시 서대문구 수색로2길 47 (남가좌동),서중시장,시장,,
서울특별시 서대문구 창천동 30번지 33호,서울특별시 서대문구 신촌로 83 (창천동),현대백화점 신촌점,백화점,126.9329937361326,37.55615726201479
서울특별시 서대문구 신촌동 74번지 12  호,서울특별시 서대문구 신촌역로 30 (신촌동),신촌 밀리오레,그 밖의 대규모점포,126.93902740895078,37.55979470008764
서울특별시 서대문구 대현동 145번지,서울특별시 서대문구 이화여대1길 10 (대현동),예스에이피엠,그 밖의 대규모점포,126.94203238130515,37.55764121301208
서울특별시 서대문구 연희동 131번지 1호,서울특별시 서대문구 연희맛로 23 (연희동),연희슈퍼마켓,시장,126.92677304219524,37.56714455975786
서울특별시 서대문구 북가좌동 279번지 11호,서울특별시 서대문구 응암로 112 (북가좌동),홈플러스(주) 익스프레스 북가좌점,구분없음,126.91073633823196,37.58245501046027
서울특별시 서대문구 홍제동 294번지 46호 유진상가,"서울특별시 서대문구 통일로 484, 유진상가 (홍제동)",롯데슈퍼 유진점(X),구분없음,126.93958989527503,37.59139602755116
서울특별시 서대문구 홍제동 469번지 인왕산 한신휴플러스,"서울특별시 서대문구 통일로 397, 지4층 (홍제동, 인왕산 한신휴플러스)",롯데슈퍼 홍제2점,구분없음,126.94447484353437,37.58520952397699
서울특별시 서대문구 홍제동 294번지 46호 유진상가,"서울특별시 서대문구 통일로 484, 유진상가 1층 (홍제동)",롯데슈퍼 유진점,구분없음,126.93958989527503,37.59139602755116
서울특별시 강남구 수서동 707호,"서울특별시 강남구 광평로51길 49 (수서동, 주공아파트)",수서종합상가,그 밖의 대규모점포,127.09728758480531,37.49113262496014
,서울특별시 서대문구 응암로 54 (북가좌동),(주)GS리테일 북가좌점,복합쇼핑몰,126.9073433644593,37.577892938012425
서울특별시 서대문구 남가좌동 50-3 명지대학교,"서울특별시 서대문구 거북골로 34, 명지대학교 (남가좌동)",이마트에브리데이 명지대점,구분없음,126.9202303449462,37.58022668527122
서울특별시 서대문구 남가좌동 396 DMC금호리첸시아,"서울특별시 서대문구 수색로2길 39, B1,1,2층 (남가좌동, DMC금호리첸시아)",DMC금호리첸시아몰,그 밖의 대규모점포,126.91280119760223,37.57154942027292
서울특별시 서대문구 홍은동 400-12,서울특별시 서대문구 가좌로 99(홍은동),롯데프레시 홍은점,구분없음,126.9236368954778,37.58158419237306
서울특별시 서대문구 대현동 144 신촌럭키아파트 상가동 101호,"서울특별시 서대문구 이화여대길 50-12, 상가동 1층 101호 (대현동, 신촌럭키아파트)",GS THE FRESH 신촌이대역점,그 밖의 대규모점포,126.94506757289636,37.55951834826818
서울특별시 서대문구 창천동 506-20 아륭빌딩,"서울특별시 서대문구 신촌로 13, 아륭빌딩 (창천동)",롯데슈퍼 창천점,구분없음,126.92573641496402,37.55852309445758
서울특별시 서대문구 홍은동 11-419,서울특별시 서대문구 홍은중앙로 89(홍은동),이마트에브리데이 홍은점,구분없음,126.94445705919534,37.599043951232645
서울특별시 서대문구 남가좌동 286-1 DMC금호리첸시아,"서울특별시 서대문구 수색로2길 39(남가좌동, DMC금호리첸시아)",이마트에브리데이 남가좌점,구분없음,126.91280119760223,37.57154942027292
서울특별시 서대문구 홍제동 158-33 연세24시사우나,"서울특별시 서대문구 통일로 413, 연세24시사우나 (홍제동)",롯데슈퍼 홍제점,구분없음,126.94351515963814,37.5861746790758
서울특별시 마포구 동교동 190번지 1호,서울특별시 마포구 양화로 188 (동교동),AK PLAZA 홍대,쇼핑센터,126.92190473479792,37.55952821306618
서울특별시 마포구 구수동 61번지,서울특별시 마포구 토정로 193 (구수동),롯데슈퍼 마포점,복합쇼핑몰,126.92979176435225,37.5459562362009
서울특별시 마포구 연남동 573번지 코오롱아파트,"서울특별시 마포구 연남로 30 (연남동, 코오롱하늘채아파트)",홈플러스익스프레스 연남점,복합쇼핑몰,126.91753128767115,37.564499554448304
서울특별시 마포구 염리동 14-149,"서울특별시 마포구 대흥로24길 24, 마포 프레스티지 자이 아파트 단지 내 상가 A동 115~119호 (염리동)",GS THE FRESH 마포염리점,구분없음,126.94483166640336,37.552977697179735
서울특별시 마포구 신수동 93번지 102호 신촌숲아이파크,"서울특별시 마포구 광성로 17, 상가동 127호 (신수동, 신촌숲아이파크)",GS THE FRESH 신촌숲아이파크점,구분없음,126.93152121394708,37.55107110034907
서울특별시 서대문구 홍제동 474 홍제역해링턴플레이스,"서울특별시 서대문구 세무서8길 30, 32동 1호 (홍제동, 홍제역해링턴플레이스)",GS THE FRESH 홍제해링턴점,구분없음,126.94567410835327,37.59002053854867
서울특별시 마포구 동교동 166번지 14호,서울특별시 마포구 양화로 176 (동교동),스타피카소 아울렛,전문점,126.92186843617394,37.55719200037008
서울특별시 마포구 공덕동 256번지 5호 마포시장,"서울특별시 마포구 마포대로6길 16, 마포시장 (공덕동)",마포시장,시장,126.95042380960244,37.5451971841154
서울특별시 마포구 연남동 227번지 15호,서울특별시 마포구 성미산로 198 (연남동),동진시장,시장,126.92383787433724,37.56238464922389
서울특별시 마포구 공덕동 173번지 대우월드마크마포,서울특별시 마포구 백범로 212 (신공덕동),(주)이마트 마포점,대형마트,126.95047469933986,37.54244404343058
서울특별시 마포구 신공덕동 173번지,서울특별시 마포구  백범로  212 (신공덕동),(주)이마트 마포점,대형마트,126.95047469933986,37.54244404343058
서울특별시 마포구 서교동 490번지 1호,"서울특별시 마포구 양화로 45 (서교동, 메세나폴리스)",홈플러스 합정점,대형마트,126.91089226711584,37.55093476054122
서울특별시 마포구 성산동 515호 월드컵경기장내,"서울특별시 마포구 월드컵로 240 (성산동,월드컵경기장내)",홈플러스(주)월드컵점,대형마트,,
서울특별시 마포구 공덕동 256번지 10호,서울특별시 마포구 만리재로 19 (공덕동),공덕시장,시장,126.95048647047238,37.5448139695638
서울특별시 마포구 합정동 375번지 1호,서울특별시 마포구 양화진길 5 (합정동),합정시장,시장,126.91028156025,37.54822088375087
,서울특별시 마포구 토정로 282 (용강동),홈플러스익스프레스 용강점,대형마트,,
서울특별시 마포구 노고산동 57번지 1호,서울특별시 마포구  신촌로  94 (노고산동),정도진흥기업(주),그 밖의 대규모점포,126.9330911853484,37.55512147590787
서울특별시 마포구 망원2동 480번지 1호,,성산시장,시장,,
서울특별시 마포구 서교동 485번지 14호,서울특별시 마포구 동교로12길 21 (서교동),영진시장,시장,126.90978859238112,37.55346812477362
,"서울특별시 마포구 마포대로 109 (공덕동, 롯데캐슬프레지던트)",롯데프리미엄푸드마켓 공덕점,구분없음,126.94770609711782,37.54493134964455
,서울특별시 마포구 큰우물로 3 (대흥동),롯데슈퍼 대흥점,복합쇼핑몰,126.93734491797628,37.54539837965824
서울특별시 강남구 역삼동 701호,,서울상록회관,대형마트,127.0402697707902,37.50385993142061
서울특별시 마포구 신수동 288번지 1호,서울특별시 마포구 토정로17길 17 (신수동),신수시장,시장,126.9326825329456,37.54543053838693
서울특별시 마포구 망원2동 517번지,서울특별시 마포구 월드컵로25길 26 (망원동),성산프라자(마포영화블렌하임),그 밖의 대규모점포,126.9034124466114,37.55848970999407
서울특별시 마포구 동교동 166번지 15호,서울특별시 마포구 양화로 176 (동교동),YZ Park 홍대점,전문점,126.9220342319501,37.55731510282244
서울특별시 마포구 도화동 353번지,"서울특별시 마포구 도화4길 73 (도화동, 현대홈타운)",홈플러스익스프레스 도화점,그 밖의 대규모점포,126.948897197935,37.53778451408307
서울특별시 마포구 서교동 357번지 1호,서울특별시 마포구 홍익로3길 20 (서교동),서교시장,시장,126.9187835477188,37.55352208528477
서울특별시 마포구 성산동 533번지 1호,서울특별시 마포구 월드컵로 235 (성산동),마포농수산물시장,그 밖의 대규모점포,126.8952486088356,37.56508636010932
서울특별시 마포구 창전동 442번지,서울특별시 마포구 창전로 45 (창전동),마포종합시장(서강한화오벨리스크),그 밖의 대규모점포,126.9289325783298,37.54659367115415
서울특별시 마포구 성산동 533번지 1호   ,서울특별시 마포구 월드컵로 235 (성산동),마포농수산물시장,그 밖의 대규모점포,126.8952486088356,37.56508636010932
서울특별시 마포구 도화동 559번지,서울특별시 마포구 마포대로 53 (도화동),마포트라팰리스 아케이드,그 밖의 대규모점포,126.9443331399942,37.54144038188395
서울특별시 마포구 염리동 36번지 249호,서울특별시 마포구 숭문길 96 (염리동),염리시장,시장,,
서울특별시 마포구 노고산동 49번지 55호,서울특별시 마포구 신촌로 86 (노고산동),신촌상가,시장,126.93178748987464,37.554710524422255
,서울특별시 마포구 신촌로 88 (노고산동),롯데슈퍼 신촌점,구분없음,126.93247523240096,37.55537237957893
서울특별시 마포구 서교동 441번지 6호,서울특별시 마포구 월드컵로 80 (서교동),홈플러스익스프레스 망원점,구분없음,126.90756318514318,37.556278597911856
서울특별시 마포구 서교동 487호,서울특별시 마포구 월드컵북로5나길 18 (서교동),신교시장,그 밖의 대규모점포,126.91389912701077,37.557370266012434
서울특별시 마포구 동교동 190번지 1호,서울특별시 마포구 와우산로35길 50-4 (동교동),홍대복합역사 상업시설,쇼핑센터,126.92190473479792,37.55952821306618
서울특별시 양천구 신정동 1290-4 대우미래사랑5차아파트,"서울특별시 양천구 신정로13길 3, 대우미래사랑5차아파트 103~105호 (신정동)",롯데프레시 신정점,그 밖의 대규모점포,126.84036772165666,37.50979712275823
서울특별시 양천구 신월5동 26번지,서울특별시 양천구 화곡로 59 (신월동),(주)이마트 신월점,백화점,126.82587820046663,37.5397565166573
서울특별시 양천구 목5동 904번지 목동4단지아파트 관리동 105호,"서울특별시 양천구 목동서로 130, 관리동 105호 (목동,목동4단지아파트)",(주)이마트에브리데이 목동점,구분없음,126.86870137750678,37.53193181329412
서울특별시 양천구 신월5동 20번지 28호 외 1필지,"서울특별시 양천구 월정로46길 11 (신월동,외 1필지)",롯데쇼핑(주)롯데슈퍼 신월점,구분없음,126.83003443612202,37.54093961458588
서울특별시 양천구 목동 739번지 1호,서울특별시 양천구 목동중앙본로7길 45 (목동),목동시장아울렛,그 밖의 대규모점포,126.8634486182408,37.53915318236973
서울특별시 양천구 신월동 928번지 1 호,서울특별시 양천구 지양로 78 (신월동),우성상가시장,시장,126.83072487064968,37.522662349681696
서울특별시 양천구 목동 916호,서울특별시 양천구 목동동로 257 (목동),현대백화점목동점,백화점,126.87214469362011,37.526854337887
서울특별시 양천구 목동 917번지 6호,서울특별시 양천구 목동동로 309 (목동),행복한백화점,백화점,126.87319365653178,37.52937343183936
서울특별시 양천구 신정동 201번지 1호,서울특별시 양천구 목동남로4길 2 (신정동),신정동세양청마루2차상가,그 밖의 대규모점포,126.86165896535778,37.50825729863264
서울특별시 양천구 목3동 657번지 21호,서울특별시 양천구 등촌로 172 (목동),홈플러스(주)익스프레스 목동2점,구분없음,126.85972050102936,37.5450201252474
서울특별시 양천구 목5동 903번지 목동3단지아파트 관리동상가 105호,"서울특별시 양천구 목동서로 100, 105호 (목동,목동3단지아파트 관리동상가)",롯데슈퍼 목동2점,구분없음,126.87005901064146,37.53435918481243
서울특별시 양천구 신정7동 324번지 10호 굿모닝탑  103~108호,"서울특별시 양천구 목동동로 53, 103~108호 (신정동,굿모닝탑)",홈플러스(주)익스프레스 신정3점,구분없음,126.85786640291948,37.51505467065059
서울특별시 양천구 목3동 960번지,서울특별시 양천구 목동중앙북로 7 (목동),신한이모르젠상가,그 밖의 대규모점포,126.8615949497547,37.549026147562856
"서울특별시 양천구 목4동 727번지 ,736,726,738,725,739,724,723일대",,목4동시장상인회,시장,,
"서울특별시 양천구 신월2동 446번지 ,447,484,463, 신월4동427,428번지일대",,경창시장상인회,시장,,
"서울특별시 양천구 신월1동 105번지 ,106,113,114,115,118,119일대",,신영시장상인회,시장,,
서울특별시 양천구 목1동 962번지 1호 목동트라팰리스 내,서울특별시 양천구 오목로 299 (목동),(주)이마트 목동점,대형마트,126.86838176107467,37.52585374389694
서울특별시 양천구 신정3동 1183번지 12호,서울특별시 양천구 중앙로 255-1 (신정동),홈플러스(주)익스프레스 신정점,구분없음,126.85010056322412,37.519168346692005
서울특별시 양천구 목동 966번지 목동에버하임,"서울특별시 양천구 목동중앙북로 68 (목동, 목동에버하임)",목동에버하임,그 밖의 대규모점포,126.86779786826423,37.54658809733543
서울특별시 양천구 신정동 995-2,서울특별시 양천구 목동로 183(신정동),(주)이마트에브리데이 목동역점,구분없음,126.86134816628604,37.52483955745095
서울특별시 양천구 목동 960호   ,서울특별시 양천구 목동중앙북로 7 (목동),신한이모르젠상가,그 밖의 대규모점포,126.8615949497547,37.549026147562856
서울특별시 양천구 신정동 201번지 1호 세양청마루2차 지상1층,"서울특별시 양천구 목동남로4길 2 (신정동, 세양청마루2차주상복합)",(주)지에스리테일 신정2점,구분없음,126.86165896535778,37.50825729863264
서울특별시 양천구 신정동 1297,"서울특별시 양천구 목동동로 190(신정동, 길훈로즈빌)",홈플러스 익스프레스 신정4점,구분없음,126.86842881586212,37.52247918486665
,"서울특별시 양천구 오목로 354, 지하1층 (목동, 목동센트럴푸르지오)",(주)이마트SSG목동점,그 밖의 대규모점포,126.87382145712478,37.523713436178085
서울특별시 양천구 신정1동 1022번지 9호,서울특별시 양천구 중앙로32길 55 (신정동),롯데쇼핑(주)롯데슈퍼 신목동점,,126.8567667678555,37.51982483258906
서울특별시 양천구 신정4동 899번지 7호,서울특별시 양천구 목동로 223 (신정동),롯데쇼핑(주)롯데슈퍼목동점,구분없음,126.86088838712185,37.52832584657303
서울특별시 양천구 신정4동 991번지 5호,서울특별시 양천구 오목로 224 (신정동),롯데쇼핑(주)롯데슈퍼신정점,구분없음,126.859543016899,37.525642017431856
서울특별시 양천구 목동 919번지 7호,서울특별시 양천구 목동서로 170 (목동),(주)이랜드리테일,쇼핑센터,126.87038654527912,37.53032776804417
서울특별시 양천구 목동 919번지 7호,서울특별시 양천구 목동서로 170 (목동),홈플러스(주)목동점,쇼핑센터,126.87038654527912,37.53032776804417
서울특별시 양천구 신정4동 988번지 5호,,(주)지에스리테일 GS수퍼 목동오거리점,구분없음,126.8584173360106,37.52543033210422
"서울특별시 양천구 목1동 926번지 9261호 목동트라팰리스 내(지하1,2층)",,신세계 이마트 목동점,대형마트,,
서울특별시 양천구 목1동 962번지 1호  목동트라팰리스 내,"서울특별시 양천구 오목로 299 (목동,목동트라팰리스 내)",(주)신세계이마트 목동점,대형마트,126.86838176107467,37.52585374389694
서울특별시 양천구 목동 966번지 목동에버하임,"서울특별시 양천구 목동중앙북로 68 (목동, 목동에버하임)",목동에버하임,그 밖의 대규모점포,126.86779786826423,37.54658809733543
서울특별시 양천구 신정동 86-1,서울특별시 양천구 목동동로 196(신정동),홈플러스 익스프레스 오목교점,구분없음,126.86854269089916,37.52292202773396
서울특별시 양천구 목동 547-12,서울특별시 양천구 목동중앙본로 95 (목동),GS THE FRESH 양천목2동점,구분없음,126.8672769916694,37.54420216407805
서울특별시 강서구 가양동 54번지 5호,서울특별시 강서구 양천로 410 (가양동),노브랜드 강서가양점,구분없음,126.84367461196784,37.565061734612925
서울특별시 강서구 마곡동 759번지 마곡센트럴타워Ⅱ,"서울특별시 강서구 마곡서로 158, 마곡센트럴타워Ⅱ 103~110, 118, 119호 (마곡동)",이마트에브리데이 마곡점,구분없음,126.82254030253311,37.568106712725175
서울특별시 강서구 마곡동 776번지 2호 마곡센트럴대방디엠시티오피스텔,"서울특별시 강서구 양천로 344, 마곡센트럴대방디엠시티오피스텔 121-1,2호 (마곡동)",롯데쇼핑㈜ 마켓999 양천향교역가맹점,구분없음,126.8374737938264,37.56829201893871
서울특별시 강서구 가양동 1458번지 9호 동남빌딩,"서울특별시 강서구 허준로 16-12, 동남빌딩 (가양동)",㈜이마트에브리데이 양천향교역점,구분없음,126.84034159600628,37.569921993188736
서울특별시 강남구 역삼동 755번지,서울특별시 강남구 역삼로 310 (역삼동),(주)신세계마트 이마트 역삼점,대형마트,127.04554957427716,37.4992173604236
서울특별시 강서구 마곡동 768번지 2호 동익드미라벨복합빌딩,"서울특별시 강서구 마곡서로 101, 동익드미라벨복합빌딩 (마곡동)",노브랜드 강서마곡점,구분없음,126.8207175938238,37.5626871355351
서울특별시 강서구 화곡동 370-76,,화곡 더리브스카이,그 밖의 대규모점포,126.8366224084049,37.53540106049175
,"서울특별시 강서구 화곡로 274 (화곡동, 외4필지 크라운뷰 1층 104~109)",(주)이마트에브리데이 화곡동점,구분없음,126.84463273017434,37.54897313182392
서울특별시 강서구 화곡3동 1051번지 27호,서울특별시 강서구 강서로 179 (화곡동),롯데쇼핑(주)롯데슈퍼화곡3동점,그 밖의 대규모점포,126.83637461270116,37.54234711550234
서울특별시 강서구 등촌3동 689번지 외 2,서울특별시 강서구 강서로56길 17 (등촌동),(주) 이랜드리테일 강서점,백화점,126.8374599201388,37.55996284067811
서울특별시 강서구 화곡3동 1065번지 8호,서울특별시 강서구 화곡로 153 (화곡동),홈플러스(주) 익스프레스 화곡점,그 밖의 대규모점포,126.83587822059752,37.541465054218655
서울특별시 강서구 방화동 620호,,(주)공항시장,시장,,
서울특별시 강서구 등촌동 639번지 11호,서울특별시 강서구  화곡로  398 (등촌동),홈플러스(주) 강서점,대형마트,126.85212554545744,37.5584082902276
서울특별시 강서구 화곡4동 830번지 1호,서울특별시 강서구 등촌로5길 80 (화곡동),씨에스유통 (롯데슈퍼화곡2점),구분없음,126.85607225141558,37.53306029387261
서울특별시 강서구 방화동 567번지 4호,서울특별시 강서구 방화동로 126 (방화동),삼정프라자,그 밖의 대규모점포,126.80903428919925,37.57197504890966
서울특별시 강서구 화곡1동 1071번지 19호,"서울특별시 강서구 화곡로18길 24 (화곡동, 강서 뉴타워)",강서 뉴타워,그 밖의 대규모점포,126.83252512760308,37.53910594252291
서울특별시 강서구 방화1동 187번지 1호,서울특별시 강서구 방화대로34길 83 (방화동),롯데쇼핑(주)롯데슈퍼 방화점,그 밖의 대규모점포,126.81794776186352,37.57102681350448
서울특별시 강서구 내발산동 719번지 6호,서울특별시 강서구 강서로 267 (내발산동),롯데쇼핑(주)롯데슈퍼 우장산점,그 밖의 대규모점포,126.83303085355816,37.54958237544495
서울특별시 강서구 화곡1동 343번지 52호,서울특별시 강서구 강서로 43 (화곡동),롯데쇼핑(주)롯데슈퍼화곡점,그 밖의 대규모점포,126.84364821026128,37.53162221128459
서울특별시 강서구 방화2동 533번지 9호,서울특별시 양천로6길 15,롯데쇼핑(주)롯데슈퍼개화산점,그 밖의 대규모점포,126.80483659023,37.571997621291
서울특별시 강서구 가양동 18번지 24호,"서울특별시 강서구 양천로 431 (가양동, 홈플러스)",홈플러스(주) 가양점,대형마트,126.8472152085442,37.5642691549316
서울특별시 강서구 내발산동 719번지 6호,서울특별시 강서구 강서로 267 (내발산동),송화시장,그 밖의 대규모점포,126.83303085355816,37.54958237544495
서울특별시 강서구 염창동 249번지 8호 1층,"서울특별시 강서구 양천로 687, 1층 (염창동)",(주)지에스리테일 염창점,그 밖의 대규모점포,126.86980051572594,37.55066327647958
서울특별시 강서구 염창동 264번지 18호,서울특별시 강서구 공항대로71길 49 (염창동),스페이스프라자,그 밖의 대규모점포,126.86993323507168,37.54949337992982
서울특별시 강서구 화곡동 970번지 2호,서울특별시 강서구 까치산로 106 (화곡동),홈플러스익스프레스 화곡2점,그 밖의 대규모점포,126.8464264581274,37.54749604640477
서울특별시 강서구 등촌동 73-1 금부빌딩,"서울특별시 강서구 양천로 476, 금부빌딩 (등촌동)",(주)이마트에브리데이 가양역점,구분없음,126.85037727375696,37.56161087174255
서울특별시 강서구 마곡동 769,"서울특별시 강서구 공항대로 165, (마곡동 769 및 769-1)        [마곡지구 특별계획구역 CP4블록] (마곡동)",원그로브몰,쇼핑센터,126.82189815724392,37.56128199326085
서울특별시 강서구 방화2동 886번지 외6필지,"서울특별시 강서구 하늘길 38 (방화동, 롯데몰 김포공항)",롯데몰 김포공항,쇼핑센터,126.80010176408638,37.565059576801474
서울특별시 강서구 염창동 242-11 한희빌딩,"서울특별시 강서구 양천로67길 15, 한희빌딩 1층 (염창동)",GS THE FRESH 강서증미역점,구분없음,126.86478469751974,37.55502203605851
서울특별시 강서구 방화동 567번지 4호   ,,방신종합시장 재건축조합,그 밖의 대규모점포,126.80903428919925,37.57197504890966
서울특별시 강서구 가양동 18번지 24호   ,,(주)이랜드리테일홈에버가양점,쇼핑센터,126.8472152085442,37.5642691549316
서울특별시 강서구 과해동 272호   ,,신세계이마트(공항점),대형마트,,
서울특별시 강서구 방화동 620호   ,,(주)공항시장,그 밖의 대규모점포,,
서울특별시 강서구 화곡동 1095호   ,,그랜드패션아울렛,그 밖의 대규모점포,126.84836020711133,37.55485464729349
서울특별시 강서구 화곡동 1095호   ,,그랜드백화점(주)마트화곡점,대형마트,126.84836020711133,37.55485464729349
서울특별시 강서구 등촌동 639번지 11호   ,,삼성테스코(주)홈플러스강서점,대형마트,126.85212554545744,37.5584082902276
서울특별시 강서구 염창동 267번지 22호,서울특별시 강서구 공항대로59다길 101 (염창동),롯데쇼핑(주)롯데슈퍼 염창2점,그 밖의 대규모점포,126.86572247046506,37.5516281837665
,"서울특별시 강서구 강서로 287, 1층 (내발산동, 호경빌딩)",(주)에브리데이리테일 발산동점,그 밖의 대규모점포,126.83311547837909,37.5514369674897
서울특별시 강서구 방화2동 589번지 21호,,GS수퍼마켓 강서방화점,그 밖의 대규모점포,126.8066736436959,37.56795230529629
서울특별시 강서구 염창동 75번지 8호,서울특별시 강서구 양천로67길 99 (염창동),롯데쇼핑(주)롯데슈퍼 염창점,그 밖의 대규모점포,126.86847853287968,37.55563510293216
서울특별시 강서구 등촌동 678번지 14호,,그랜드백화점(주)마트강서점,대형마트,126.8364182712402,37.56012608497233
서울특별시 강서구 가양동 449번지 19  호,서울특별시 양천로 559 (가양이마트(E-MART)),(주)이마트 가양점,대형마트,126.85938380982869,37.55795415658488
서울특별시 강서구 방화동 712번지 1호,서울특별시 강서구 하늘길 38 (방화동),테크노스카이시티,그 밖의 대규모점포,126.80248595399952,37.56644531486445
서울특별시 강서구 등촌동 685번지,서울특별시 강서구  강서로68길  23 (등촌동),대지종합유통물류시장,그 밖의 대규모점포,126.83937601915538,37.5665445129446
서울특별시 강서구 화곡동 370번지 76호,서울특별시 강서구 월정로30길 69 (화곡동),화곡중앙시장,시장,126.8366224084049,37.53540106049175
서울특별시 강서구 과해동 676번지,"서울특별시 강서구 하늘길 70 (공항동, (주)이마트 공항점)",(주)이마트 공항점,대형마트,126.79576851998266,37.56181071961991
서울특별시 강서구 등촌동 73번지 1호 외 3필지,,아름다운아울렛,전문점,126.85037727375696,37.56161087174255
"서울특별시 강서구 마곡동 특별계획구역 CP2, CP3-1, CP3-2",,LEWEST B관,그 밖의 대규모점포,,
서울특별시 강서구 마곡동 특별계획구역 CP1,,LEWEST A관,그 밖의 대규모점포,,
서울특별시 구로구 고척동 100-7,,고척아이파크쇼핑센터,쇼핑센터,126.85628691873612,37.49853065673472
서울특별시 구로구 구로동 573,서울특별시 구로구 구로중앙로 152 (구로동),이랜드리테일 NC구로점,복합쇼핑몰,126.87994924558916,37.5011765059269
서울특별시 구로구 고척동 269번지 1   호   ,,개봉프라자,그 밖의 대규모점포,,
서울특별시 구로구 구로동 614번지 33  호   ,,라이프공구종합상가,그 밖의 대규모점포,,
서울특별시 구로구 고척동 50번지 48  호   ,,고척시장,그 밖의 대규모점포,,
서울특별시 구로구 구로동 169번지 2   호   ,,배영설비(주),그 밖의 대규모점포,,
서울특별시 구로구 개봉동 324번지 1   호   ,,개봉중앙시장,그 밖의 대규모점포,,
서울특별시 구로구 개봉동 361번지 1   호   ,,개봉제일시장,그 밖의 대규모점포,,
서울특별시 구로구 고척동 103번지 4호,"서울특별시 구로구 중앙로3길 50 (고척동, 고척산업용품종합상가)",고척산업용품상가,그 밖의 대규모점포,126.8578905453243,37.4998086452612
서울특별시 구로구 구로동 685번지 140호   ,서울특별시 구로구 구일로10길 93 (구로동),사모아종합상가,그 밖의 대규모점포,126.87409703583828,37.49587466546406
서울특별시 구로구 구로동 604번지 1   호   ,,서울구로기계공구상가,그 밖의 대규모점포,,
서울특별시 구로구 구로동 636번지 62  호   ,,공구상가일번지,그 밖의 대규모점포,,
서울특별시 구로구 고척동 73번지 3   호,"서울특별시 구로구 경인로 393-7 (고척동, 123전자타운)",일이삼전자타운,그 밖의 대규모점포,126.86023695938384,37.49745622192136
서울특별시 구로구 구로동 1258번지,서울특별시 구로구 경인로53길 15 (구로동),중앙유통단지,그 밖의 대규모점포,126.8716958591758,37.50090411243628
서울특별시 구로구 신도림동 337번지 신도림1차푸르지오,"서울특별시 구로구 경인로 661, 신도림1차푸르지오 (신도림동)",홈플러스(주) 신도림점,대형마트,126.88485358565,37.50942084020815
서울특별시 구로구 구로동 604번지 1호,서울특별시 구로구 구로중앙로 198 (구로동),서울구로기계공구상가,그 밖의 대규모점포,126.8766353166704,37.504195981613016
서울특별시 구로구 구로동 614번지 33호,서울특별시 구로구 구로중앙로 237 (구로동),라이프공구상가,그 밖의 대규모점포,126.87244968323743,37.50623519064853
서울특별시 구로구 고척동 103번지 4호,"서울특별시 구로구 경인로43길 42 (고척동, 고척산업용품상가)",고척산업용품상가,복합쇼핑몰,126.8578905453243,37.4998086452612
서울특별시 구로구 고척동 269번지 1호,서울특별시 구로구 고척로40길 19 (고척동),개봉프라자,시장,126.8482738387592,37.50201594188468
서울특별시 구로구 고척동 50번지 48호,서울특별시 구로구 중앙로 64 (고척동),고척스카이프라자,그 밖의 대규모점포,126.85991052151262,37.50380048758876
서울특별시 구로구 개봉동 361번지 1호,서울특별시 구로구 개봉로3길 51 (개봉동),개봉제일시장,그 밖의 대규모점포,126.85055233027288,37.485969202481066
서울특별시 구로구 구로동 3번지 25호 외 31필지,"서울특별시 구로구 새말로 97 (구로동,외 31필지)",(주) 이마트 신도림점,대형마트,126.88742908395564,37.506973877046
서울특별시 구로구 구로동 501번지,서울특별시 구로구 구로중앙로 134 (구로동),나인스에비뉴,그 밖의 대규모점포,126.88122282104275,37.4998966372037
서울특별시 구로구 구로동 685번지 140호,서울특별시 구로구 구일로10길 93 (구로동),사모아종합상가,그 밖의 대규모점포,126.87409703583828,37.49587466546406
서울특별시 구로구 구로동 3번지 25호 외 31필지,"서울특별시 구로구 새말로 97 (구로동,외 31필지)",신도림 테크노마트,그 밖의 대규모점포,126.88742908395564,37.506973877046
서울특별시 구로구 구로동 188번지 26호,서울특별시 구로구 디지털로32길 43 (구로동),(주)이마트 구로점,대형마트,126.89503180072796,37.48434887079664
서울특별시 구로구 개봉1동 156번지 18호 외 1필지 대림프라자 101호,"서울특별시 구로구 경인로 319 (개봉동,외 1필지 대림프라자 101호)",홈플러스 익스프레스 개봉점,구분없음,126.85267956387212,37.497690732385365
"서울특별시 구로구 구로1동 650번지 4호 SK허브수 제B동 제118호,제119호,제121호~126호","서울특별시  구일로10길 27, B동 1층 (제118호,제119호,제121호~126호)",홈플러스 익스프레스 서울구로점,구분없음,126.869832611229,37.49588111944704
서울특별시 구로구 구로동 736번지 1   호   ,,구로시장,그 밖의 대규모점포,,
서울특별시 구로구 오류동 38번지 7   호   ,,오류시장,그 밖의 대규모점포,,
서울특별시 구로구 신도림동 692번지,서울특별시 구로구 경인로 662 (신도림동),주식회사 현대백화점 디큐브시티,백화점,126.88600750573391,37.50858480716947
"서울특별시 구로구 개봉동 324-1, 324-11,324-13  1층",서울특별시 구로구 개봉로17길 34 (개봉동),(주)이마트에브리데이 개봉동점,구분없음,126.8510105033179,37.49167940326912
서울특별시 구로구 오류2동 160번지  외 2필지,"서울특별시 구로구 서해안로 2293 (오류동,외 2필지)",홈플러스 익스프레스 서울오류점,복합쇼핑몰,126.83683533808605,37.49150309601461
서울특별시 구로구 고척동 83번지 6호,서울특별시 구로구 중앙로3길 49 (고척동),동국종합상가,그 밖의 대규모점포,126.85901460596742,37.49863934488717
서울특별시 구로구 구로동 636번지 62호,서울특별시 구로구 경인로54길 4 (구로동),공구상가일번지관리단,복합쇼핑몰,126.87501708800605,37.50061894325031
서울특별시 구로구 고척동 73번지 3호,서울특별시 구로구 경인로 393-7 (고척동),일이삼전자타운,복합쇼핑몰,126.86023695938384,37.49745622192136
서울특별시 구로구 구로동 573호   ,서울특별시 구로구 구로중앙로 152 (구로동),애경백화점,백화점,126.87994924558916,37.5011765059269
서울특별시 구로구 고척동 83번지 6호   ,서울특별시 구로구 중앙로3길 49 (고척동),동국종합상가,그 밖의 대규모점포,126.85901460596742,37.49863934488717
서울특별시 구로구 구로동 636번지 89호   ,서울특별시 구로구 경인로 482 (구로동),롯데마트 구로점,대형마트,126.8697662513226,37.49823477397855
서울특별시 구로구 구로동 636번지 89호   ,서울특별시 구로구 경인로 482 (구로동),롯데마트 구로점,대형마트,126.8697662513226,37.49823477397855
서울특별시 구로구 구로동 636번지 89호   ,서울특별시 구로구 경인로 482 (구로동),비엔큐홈(구로점),대형마트,126.8697662513226,37.49823477397855
서울특별시 구로구 고척동 75번지 1호   ,서울특별시 구로구 중앙로1길 42 (고척동),일이삼전자타운,그 밖의 대규모점포,126.85944724604664,37.49779143927045
서울특별시 구로구 오류동 47번지 1   호,,삼익쇼핑센터,쇼핑센터,126.83976293069388,37.495016596675086
서울특별시 구로구 구로동 1258호   ,서울특별시 구로구 경인로53길 15 (구로동),중앙유통단지,그 밖의 대규모점포,126.8716958591758,37.50090411243628
서울특별시 구로구 구로동 188번지 26호   ,서울특별시 구로구 디지털로32길 43 (구로동),(주)신세계이마트구로점,대형마트,126.89503180072796,37.48434887079664
서울특별시 구로구 구로동 188번지 26호   ,서울특별시 구로구 디지털로32길 43 (구로동),(주)신세계이마트구로점,대형마트,126.89503180072796,37.48434887079664
서울특별시 구로구 고척동 76번지 41호   ,서울특별시 구로구 중앙로1길 36 (고척동),이천일아울렛구로점,그 밖의 대규모점포,126.85977372713508,37.49810089399914
서울특별시 구로구 오류동 47번지 1호,서울특별시 구로구 경인로 192 (오류동),삼익쇼핑센타,쇼핑센터,126.83976293069388,37.495016596675086
서울특별시 구로구 구로동 636번지 89호,서울특별시 구로구 경인로 482 (구로동),롯데쇼핑(주) 롯데마트 구로점,대형마트,126.8697662513226,37.49823477397855
서울특별시 구로구 구로동 636번지 89호 롯데마트 지하1층,"서울특별시 구로구 경인로 482 (구로동,롯데마트 지하1층)",롯데쇼핑(주) TRU구로점,전문점,126.8697662513226,37.49823477397855
서울특별시 구로구 구로동 573번지,서울특별시 구로구 구로중앙로 152 (구로동),AK PLAZA,백화점,126.87994924558916,37.5011765059269
서울특별시 구로구 고척동 76번지 41호,서울특별시 구로구 중앙로1길 36 (고척동),이천일 아울렛 구로점,그 밖의 대규모점포,126.85977372713508,37.49810089399914
서울특별시 구로구 구로동 188번지 26  호   ,,이마트구로점,대형마트,,
서울특별시 금천구 독산동 1156번지 금천롯데캐슬골드파크4차,"서울특별시 금천구 시흥대로 315, 금천롯데캐슬골드파크4차 (독산동)",롯데캐슬 골드파크 4차 마르쉐도르 960,그 밖의 대규모점포,126.893909343557,37.46109415835403
서울특별시 금천구 시흥동 1002번지 1호   ,서울특별시 금천구 시흥대로47길 43 (시흥동),럭키남서울상가,그 밖의 대규모점포,126.89648742509353,37.45042188506926
서울특별시 금천구 시흥동 966호,서울특별시 금천구 시흥대로 46 (시흥동),시흥중앙철재상가,그 밖의 대규모점포,126.90061949735194,37.43762539456518
서울특별시 금천구 시흥동 984번지 6호   ,서울특별시 금천구 시흥대로 109 (시흥동),시흥산업용재유통센타,그 밖의 대규모점포,126.9005413738406,37.44398974644965
서울특별시 금천구 독산동 293번지 5호   ,서울특별시 금천구 범안로 1209 (독산동),유창상가,그 밖의 대규모점포,126.89358223952108,37.46676773936562
서울특별시 금천구 시흥동 884번지 5호   ,서울특별시 금천구 시흥대로52길 70 (시흥동),대명합동시장,그 밖의 대규모점포,126.89890534565646,37.45435942035305
서울특별시 금천구 독산동 291-7 홈플러스 금천점,"서울특별시 금천구 시흥대로 391, 홈플러스 금천점 (독산동)",홈플러스(주) 금천점,대형마트,126.89400812314038,37.468684670437966
서울특별시 금천구 시흥동 992-47 홈플러스테스테스코(주)시흥점,"서울특별시 금천구 시흥대로 201, 홈플러스테스테스코(주)시흥점 (시흥동)",홈플러스 주식회사,대형마트,126.89790710788864,37.451900348269454
서울특별시 금천구 독산동 295-10 롯데마트 맥스 금천점,"서울특별시 금천구 두산로 71, 롯데마트 맥스 금천점 (독산동)",롯데쇼핑(주) 롯데마트맥스 금천점,대형마트,126.89282297909608,37.47059376096384
서울특별시 금천구 가산동 60번지 22호,서울특별시 금천구 디지털로 185 (가산동),마리오아울렛 1관,쇼핑센터,126.88420115343872,37.47818895226855
서울특별시 금천구 독산동 1155 금천롯데캐슬골드파크3차,"서울특별시 금천구 시흥대로 291(독산동, 금천롯데캐슬골드파크3차)",롯데쇼핑(주) 금천 독산점,쇼핑센터,126.89434597482526,37.459972079415
서울특별시 금천구 가산동 60번지 19호,서울특별시 금천구 벚꽃로 278 (가산동),롯데쇼핑(주) 아울렛 가산점,쇼핑센터,126.88170007523917,37.47941840044647
서울특별시 금천구 독산동 1150번지 금천롯데캐슬골드파크2차,"서울특별시 금천구 벚꽃로 30 (독산동, 금천롯데캐슬골드파크2차)",롯데캐슬 골드파크 2차 마르쉐도르,그 밖의 대규모점포,126.8912864393136,37.45823976695184
서울특별시 금천구 독산동 291번지 5호,서울특별시 금천구 시흥대로 399 (독산동),시티렉스,쇼핑센터,126.894562625684,37.46940739565322
서울특별시 금천구 독산동 957번지,서울특별시 금천구 남부순환로120길 23 (독산동),푸른터시장,그 밖의 대규모점포,126.89852869216205,37.47806308043045
서울특별시 금천구 시흥동 984번지,"서울특별시 금천구 시흥대로 97 (시흥동, 시흥유통상가)",시흥산업용재유통센터,그 밖의 대규모점포,126.8987531766358,37.443331614663535
서울특별시 금천구 시흥동 992번지 47호,서울특별시 금천구 시흥대로 201 (시흥동),홈플러스 시흥점,대형마트,126.89790710788864,37.451900348269454
,서울특별시 금천구 가산로 106 (가산동),홈플러스(주)익스프레스 가산점,구분없음,126.89081521211884,37.47549773815999
서울특별시 금천구 가산동 60번지 20호,서울특별시 금천구 벚꽃로 266 (가산동),마리오아울렛 3관,쇼핑센터,126.88212592546498,37.47845603927781
서울특별시 금천구 가산동 60번지 8호,서울특별시 금천구 디지털로10길 9 (가산동),현대아울렛,쇼핑센터,126.8861944340273,37.47758212249128
서울특별시 강동구 천호동 421번지 1호   ,,천호시장,그 밖의 대규모점포,127.12458320326576,37.5406938214179
서울특별시 금천구 가산동 60-26,서울특별시 금천구 디지털로 178 (가산동),가산퍼블릭 상업시설,그 밖의 대규모점포,126.8840595822634,37.4766770530504
서울특별시 금천구 시흥동 992번지 47호 외 1  ,"서울특별시 금천구 시흥대로 201 (시흥동,외 1)",(주)이랜드리테일 홈에버 시흥점,대형마트,126.89790710788864,37.451900348269454
서울특별시 금천구 독산동 988번지 7호 외 27  ,"서울특별시 금천구 시흥대로142길 24 (독산동,외 27)",남문시장,그 밖의 대규모점포,126.89759612352982,37.47297240051227
서울특별시 금천구 시흥동 879호 외 87필지  ,"서울특별시 금천구 시흥대로62길 18 (시흥동,외 87필지)",현대시장,그 밖의 대규모점포,126.89871821455374,37.45534790818041
서울특별시 금천구 시흥동 956호,서울특별시 금천구 시흥대로18길 16 (시흥동),박미종합시장,그 밖의 대규모점포,126.90182307143512,37.4401642388694
서울특별시 금천구 시흥동 831번지 6호,서울특별시 금천구 금하로 705 (시흥동),플라자 카멜리아,그 밖의 대규모점포,126.90548624548634,37.4516292102309
서울특별시 금천구 가산동 60번지 27호,서울특별시 금천구 디지털로 188 (가산동),(주)원신더블유몰,쇼핑센터,126.88481547369632,37.47732092273868
서울특별시 금천구 독산1동 145번지 8호,서울특별시 금천구 시흥대로 473 (독산동),롯데쇼핑(주)롯데슈퍼독산점,구분없음,126.8950377584678,37.4759657612756
,서울특별시 금천구 독산로 210 (독산동),홈플러스(주)익스프레스 독산점,구분없음,126.8994501380487,37.46574900891041
서울특별시 금천구 시흥5동 912번지 20호,서울특별시  금하로 720,롯데쇼핑(주)롯데슈퍼 시흥점,구분없음,126.9065548628625,37.45041726236733
서울특별시 금천구 시흥동 831번지 6호   ,서울특별시 금천구 금하로 705 (시흥동),시흥중앙시장,그 밖의 대규모점포,126.90548624548634,37.4516292102309
서울특별시 금천구 독산동 291번지 7호   ,서울특별시 금천구 시흥대로 391 (독산동),삼성테스코(주)홈플러스 금천점,대형마트,126.89400812314038,37.468684670437966
서울특별시 금천구 독산동 291번지 7호   ,서울특별시 금천구 시흥대로 391 (독산동),삼성테스코(주)홈플러스 금천점,대형마트,126.89400812314038,37.468684670437966
서울특별시 영등포구 당산동2가 165 한화포레나당산,"서울특별시 영등포구 당산로 83, 지하 102~103호 (당산동2가, 한화포레나당산)",(주)이마트에브리데이 영등포구청점,구분없음,,
서울특별시 영등포구 신길동 3608 비스타동원,"서울특별시 영등포구 신풍로 28, B137호 (신길동, 비스타동원)",(주)이마트에브리데이 신풍역점,구분없음,126.90632285469364,37.499590161406246
서울특별시 영등포구 문래동3가 55번지 3호,서울특별시 영등포구  당산로  42 (문래동3가),홈플러스(주) 영등포점,대형마트,126.89303405683052,37.518226989563225
서울특별시 영등포구 문래동3가 55호,서울특별시 영등포구 당산로 34 (문래동3가),로데오 왁,전문점,126.8920697719648,37.51712555875135
서울특별시 영등포구 양평동3가 65호,서울특별시 영등포구 선유로 156 (양평동3가),코스트코 홀세일,대형마트,126.8893889970486,37.52787285243379
서울특별시 영등포구 영등포동5가 18번지 1호,서울특별시 영등포구 영등포로 225 (영등포동5가),영신상가,그 밖의 대규모점포,126.90390989519015,37.51989343043139
서울특별시 영등포구 영등포동 618-496,서울특별시 영등포구 경인로 846 (영등포동),롯데백화점 영등포점,백화점,126.90448248903456,37.515923205497714
서울특별시 영등포구 양평동3가 65호   ,서울특별시 영등포구 선유로 156 (양평동3가),코스트코홀세일,그 밖의 대규모점포,126.8893889970486,37.52787285243379
서울특별시 영등포구 영등포동5가 20호   ,,영등포지하상가,그 밖의 대규모점포,,
서울특별시 영등포구 여의도동 42번지 1   호   ,,한화스토아여의점,그 밖의 대규모점포,,
서울특별시 영등포구 당산동3가 2번지 7 호   ,,홍익상가,그 밖의 대규모점포,,
서울특별시 영등포구 도림동 176호   ,,도림시장,그 밖의 대규모점포,,
서울특별시 영등포구 신길동 259호   ,,신동시장,그 밖의 대규모점포,,
서울특별시 영등포구 신길동 116번지 15호   ,서울특별시 영등포구 도신로60길 7 (신길동),대신시장,그 밖의 대규모점포,126.91469471391744,37.51107645360584
서울특별시 영등포구 대림동 963호   ,,대림시장,그 밖의 대규모점포,,
서울특별시 영등포구 대림동 717호   ,서울특별시 영등포구 대림로29길 13 (대림동),두암종합시장,그 밖의 대규모점포,126.89518555258364,37.49529573376957
서울특별시 영등포구 당산동1가 9번지 1   호   ,,영등포농축수산물쎈타,그 밖의 대규모점포,,
서울특별시 영등포구 영등포동5가 20호   ,,영등포역앞지하상가,그 밖의 대규모점포,,
서울특별시 영등포구 영등포동5가 20호   ,,영등포로타리지하상가,그 밖의 대규모점포,,
서울특별시 영등포구 영등포동5가 20호   ,,삼구시장,그 밖의 대규모점포,,
서울특별시 영등포구 영등포동5가 24호   ,서울특별시 영등포구 영등포로37길 4 (영등포동5가),동남시장,그 밖의 대규모점포,126.90277452990686,37.52059900725232
서울특별시 영등포구 문래동3가 16호   ,,영일시장,그 밖의 대규모점포,,
서울특별시 영등포구 당산동2가 30번지 2호,서울특별시 영등포구 영등포로 109 (당산동2가),영등포유통상가,그 밖의 대규모점포,126.89106270727623,37.522475559088825
,서울특별시 영등포구 선유로 138 (양평동3가),롯데쇼핑(주) 롯데마트 양평점,대형마트,126.8887560195338,37.52604882462423
서울특별시 영등포구 양평동1가 30호,서울특별시 영등포구 선유동1로 5 (양평동1가),양남시장,그 밖의 대규모점포,126.8882539681138,37.52286708085378
서울특별시 영등포구 당산동5가 16번지 7호,서울특별시 영등포구 양평로 47 (당산동5가),이랜드리테일 당산점,그 밖의 대규모점포,126.89808151712036,37.53389581584955
서울특별시 영등포구 문래동3가 55-16 영등포 SK 리더스뷰,"서울특별시 영등포구 문래로 164, 영등포 SK 리더스뷰 (문래동3가)",룩스쇼핑센터,전문점,126.89708731654991,37.517603110303504
서울특별시 영등포구 여의도동 47번지 여의도자이(아) 지하 1층,"서울특별시 영등포구 여의동로3길 10 (여의도동,여의도자이(아) 지하 1층)",신세계 이마트 여의도점,대형마트,126.92316362110948,37.5181723140552
서울특별시 영등포구 영등포동4가 441번지 10호 타임스퀘어,서울특별시 영등포구 영중로 15 (영등포동4가),타임스퀘어,쇼핑센터,126.9004509054287,37.517075435258
서울특별시 영등포구 대림3동 784번지,서울특별시 영등포구 대림로 251 (대림동),롯데슈퍼 대림점,구분없음,126.8929635872468,37.503312676766605
,서울특별시 영등포구 여의대방로 65 (신길동),홈플러스(주) 익스프레스 신길점,구분없음,126.91054419147471,37.49719403361544
서울특별시 영등포구 여의도동 23번지,서울특별시 영등포구 국제금융로 10 (여의도동),아이에프씨몰(IFC Mall),복합쇼핑몰,126.9224082596647,37.52497858431004
서울특별시 영등포구 대림동 717 대림동 쌍용 플래티넘-S,"서울특별시 영등포구 대림로29길 13 (대림동, 대림동 쌍용 플래티넘-S)",두암상가,그 밖의 대규모점포,126.89518555258364,37.49529573376957
서울특별시 영등포구 영등포동4가 434번지 5호 신세계백화점,"서울특별시 영등포구 영중로 9 (영등포동4가, 신세계백화점)",(주)신세계 타임스퀘어점,백화점,126.90267283699534,37.51716962457022
서울특별시 영등포구 대림1동 909번지 2호,서울특별시 영등포구 신길로 41 (대림동),썬프라자,쇼핑센터,126.9051784442376,37.4964574033344
,서울특별시 영등포구 여의동로3길 10 (여의도동),(주)이마트 여의도점,대형마트,126.92316362110948,37.5181723140552
서울특별시 영등포구 도림동 251번지 5호,서울특별시 영등포구 도신로 75 (도림동),홈플러스(주) 익스프레스 도림점,구분없음,126.8978866987326,37.50675190383439
서울특별시 영등포구 신길3동 259번지 4호,서울특별시 영등포구 가마산로69가길 12 (신길동),홈플러스(주) 익스프레스 신길3점,구분없음,126.9066991401771,37.50614788519949
서울특별시 영등포구 신길동 101번지 7호,서울특별시 영등포구 영등포로 364 (신길동),홈플러스(주) 익스프레스 신길2점,구분없음,126.9154725127276,37.51412761732061
서울특별시 영등포구 여의도동 22번지,서울특별시 영등포구 여의대로 108 (여의도동),THE HYUNDAI SEOUL,백화점,126.92540584589976,37.52605009514856
서울특별시 영등포구 신길동 4902-6,"서울특별시 영등포구 신길로 162, 1층 일부 (신길동)",GS THE FRESH 신길사러가점,구분없음,126.90865137954628,37.50668084206508
서울특별시 영등포구 영등포동8가 62번지 1호,서울특별시 영등포구 영중로 125 (영등포동8가),롯데쇼핑(주) 롯데마트맥스 영등포점,대형마트,126.90177550330787,37.52780731039309
서울특별시 영등포구 당산동2가 165 한화포레나당산,"서울특별시 영등포구 당산로 83 (당산동2가, 한화포레나당산)",포레나당산동역세권청년주택 상업시설,그 밖의 대규모점포,,
서울특별시 영등포구 양평동1가 247 영등포 중흥 S-CLASS,"서울특별시 영등포구 선유서로24길 6 (양평동1가, 영등포 중흥 S-CLASS)",영등포 중흥 에스클래스,그 밖의 대규모점포,126.8833849892267,37.52339805671224
서울특별시 영등포구 여의도동 60호   ,서울특별시 영등포구 63로 50 (여의도동),63씨티,그 밖의 대규모점포,126.9371822053401,37.51983360935228
서울특별시 영등포구 여의도동 20호   ,서울특별시 영등포구 여의대로 128 (여의도동),(주)LG,그 밖의 대규모점포,126.92634013421667,37.52788506709088
서울특별시 영등포구 신길동 2363번지 메트하임,"서울특별시 영등포구 신풍로 93, 메트하임 (신길동)",메트하임,그 밖의 대규모점포,126.9137406669999,37.5002845061848
서울특별시 영등포구 당산동3가 2번지 7호,,코레일유통주식회사,그 밖의 대규모점포,126.89916187698344,37.52578094131459
서울특별시 영등포구 신길동 254번지 1호,서울특별시 영등포구 신길로 155 (신길동),(주)사러가,그 밖의 대규모점포,126.9078841651598,37.50614551757107
서울특별시 영등포구 신길동 255번지 9   호,"서울특별시 영등포구 가마산로69가길 17, 1층 (신길동)",(주)신영사러가,그 밖의 대규모점포,126.90735741683028,37.50658078428951
서울특별시 영등포구 양평동1가 247호,서울특별시 영등포구 영등포로 39 (양평동1가),영등포기계상가,그 밖의 대규모점포,,
서울특별시 영등포구 대림1동 909번지 2호,서울특별시 영등포구 신길로 41 (대림동),롯데슈퍼 썬프라자점,구분없음,126.9051784442376,37.4964574033344
서울특별시 영등포구 양평동2가 29번지 23호,서울특별시 영등포구 영등포로 33 (양평동2가),홈플러스(주) 익스프레스 양평점,대형마트,126.88235072516258,37.523350889723424
서울특별시 영등포구 당산동 9번지 13호,,에쉐르아이시네마쇼핑몰,쇼핑센터,,
서울특별시 영등포구 영등포동3가 7호,서울특별시 영등포구 영중로 28 (영등포동3가),영등포 점프밀라노,쇼핑센터,126.9026607335023,37.519078924891794
서울특별시 동작구 대방동 501번지,,대림쇼핑타운,시장,126.92182175746925,37.50729467519184
서울특별시 동작구 흑석동 332번지,서울특별시 동작구 서달로 150 (흑석동),해가든프라자,그 밖의 대규모점포,126.95929819629448,37.50666622764779
서울특별시 동작구 사당3동 252번지 22호,서울특별시 동작구 사당로 215 (사당동),홈플러스(주) 익스프레스 남성점,복합쇼핑몰,126.96972094411112,37.48442783486328
서울특별시 영등포구 문래동6가 33,"서울특별시 영등포구 문래북로 8, 1층 101~106호 (문래동6가)",GS THE FRESH 문래점,구분없음,126.88280621610564,37.52134477182784
서울특별시 동작구 상도4동 255번지 4호,서울특별시 동작구 성대로 43 (상도동),홈플러스(주) 익스프레스 상도점,쇼핑센터,126.93078121803092,37.49899825731782
서울특별시 동작구 상도동 324번지 1호,"서울특별시 동작구 상도로 102 (상도동, 성대시장)",성대종합시장,그 밖의 대규모점포,126.928873570412,37.49995803013298
서울특별시 동작구 대방동 335번지 17호,서울특별시 동작구 상도로 81 (대방동),(주)이마트에브리데이 대방동점,복합쇼핑몰,126.9266435715913,37.499905874408505
서울특별시 동작구 사당동 147번지 29호 이수자이,"서울특별시 동작구 사당로 300 (사당동, 이수자이)",(주)이마트에브리데이 이수점,복합쇼핑몰,126.9775748840838,37.48443230109429
서울특별시 동작구 상도동 527번지,서울특별시 동작구 상도로31길 19 (상도동),(주)이마트에브리데이 상도동점,그 밖의 대규모점포,126.94093422921024,37.50600447372585
"서울특별시 동작구 사당동 105번지 신동아상가 제1층 101~105, 110호","서울특별시 동작구 동작대로29길 110 (사당동, 신동아아파트)",(주)이마트에브리데이 사당동점,그 밖의 대규모점포,126.97305009380504,37.48963894924623
서울특별시 동작구 대방동 341번지 2호,서울특별시 동작구 노량진로 4 (대방동),(주)홈플러스 대방점,그 밖의 대규모점포,126.92317180854724,37.51239755918732
서울특별시 동작구 상도2동 414번지,서울특별시 동작구 만양로 26 (상도동),홈플러스 익스프레스 상도2점,구분없음,126.94688405004165,37.50716798498471
서울특별시 동작구 상도동 530번지,서울특별시 동작구  양녕로  170 (상도동),홈플러스 익스프레스 상도3점,구분없음,126.94068974650966,37.49682528303976
서울특별시 강남구 청담동 4번지 1호 외 9필지,서울특별시 강남구 도산대로 442 (청담동),SSG Food Market 백화점,백화점,127.04076762973791,37.523393813425066
서울특별시 동작구 상도동 531번지 상가2동 지상1층 101~105호,"서울특별시 동작구 상도로 346-1 (상도동, 상도엠코타운 센트럴파크)",(주)지에스리테일 상도 엠코타운점,구분없음,126.94798329565248,37.49540970906215
서울특별시 동작구 상도동 535 상도2차두산위브트레지움아파트,"서울특별시 동작구 상도로30길 40, 판매/근생시설동 1층 125~131호 (상도동, 상도2차두산위브트레지움아파트)",GS THE FRESH 동작구청점,구분없음,126.93988532545076,37.50388000848928
서울특별시 동작구 노량진동 16-1 노량진 드림스퀘어 복합빌딩,"서울특별시 동작구 노들로2길 7, 노량진 드림스퀘어 복합빌딩 (노량진동)",노량진 드림스퀘어,그 밖의 대규모점포,126.9364925186492,37.51432476938597
서울특별시 동작구 신대방동 565호   ,서울특별시 동작구 여의대방로 22 (신대방동),신대방우성상가,그 밖의 대규모점포,126.90871700898708,37.49226689543528
서울특별시 동작구 사당동 136-1 태평백화점,"서울특별시 동작구 동작대로 115, 태평백화점 (사당동)",태평백화점,백화점,126.97871681121022,37.48687585005176
서울특별시 동작구 노량진동 16번지 0001호   ,,서울노량진종합시장,그 밖의 대규모점포,126.9364925186492,37.51432476938597
서울특별시 동작구 노량진동 13번지 0008호   ,,서울노량진종합시장,그 밖의 대규모점포,126.93916896575512,37.51532502360709
,"서울특별시 동작구 여의대방로 30, 에이동동 101호 (신대방동, 현대상가)",롯대슈펴 신대방점,그 밖의 대규모점포,126.90935830617614,37.494565340183385
서울특별시 동작구 상도동 188번지 14호,서울특별시 동작구 상도로 147 (상도동),롯데쇼핑(주) 롯데슈퍼 상도3동점,복합쇼핑몰,126.93287774034536,37.50320338372763
서울특별시 동작구 사당동 105번지 우성아파트3단지  제비101호,서울특별시 동작구 동작대로29길 119 (사당동),(주)지에스리테일 GS수퍼 사당점,구분없음,126.97305009380504,37.48963894924623
서울특별시 동작구 사당1동 1042번지 19호,서울특별시 동작구 동작대로 9 (사당동),롯데쇼핑(주)롯데슈퍼 사당점,그 밖의 대규모점포,126.97821639276678,37.47744879085759
서울특별시 동작구 사당동 136번지 1호,서울특별시 동작구 동작대로 115 (사당동),(주) GS리테일 GS수퍼 사당태평점,구분없음,126.97871681121022,37.48687585005176
,서울특별시 관악구 조원로16길 27 (신림동),신림중앙시장,시장,126.90853733898736,37.48321026456886
서울특별시 관악구 대학동 1523번지,서울특별시 관악구 신림로23길 16 (신림동),일성트루엘상가,그 밖의 대규모점포,126.9316071654206,37.470419040726775
서울특별시 관악구 봉천동 1717-3 관악푸르지오,"서울특별시 관악구 청림6길 3, 관악푸르지오 상가동 110,113,114호 (봉천동)",지에스 더 프레시(GS THE FRESH) 관악청림점,구분없음,126.9570186822512,37.48759602412605
,서울특별시 관악구 난곡로26길 4 (신림동),우림시장,그 밖의 대규모점포,126.91756242668822,37.47028387128863
서울특별시 관악구 봉천동 10번지 4호 외14필지,서울특별시 관악구 청림3길 10 (봉천동),관악쇼핑,그 밖의 대규모점포,126.9565947070814,37.48863871116258
서울특별시 관악구 봉천동 1638번지 20호,서울특별시 관악구 남부순환로248길 35 (봉천동),원당종합시장,그 밖의 대규모점포,126.9629983111119,37.4744065301288
서울특별시 관악구 중앙동 463번지 4호 메카플러스 지하1층,서울특별시 관악구 양녕로 46 (봉천동),홈플러스 익스프레스 봉천점,구분없음,126.94446668087888,37.48615400651905
서울특별시 관악구 은천동 937번지 6호 동영빌딩 1층,서울특별시 관악구 은천로 51 (봉천동),(주)이마트에브리데이 봉천동점,구분없음,126.93876880804396,37.486271385615495
서울특별시 관악구 미성동 607번지 73호,서울특별시 관악구 난곡로 220 (신림동),(주)천성세이브마트,그 밖의 대규모점포,126.91508897288637,37.47432669142685
서울특별시 관악구 남현동 산 69번지 51호,서울특별시 관악구 과천대로 909 (남현동),홈플러스 서울남현점,대형마트,126.97952291186402,37.47147867224443
서울특별시 관악구 서원동 1641번지 2호,서울특별시 관악구 신림로 330 (신림동),타임스트림,복합쇼핑몰,126.92728352870944,37.48383563940915
서울특별시 관악구 보라매동 729호 22통 롯데백화점,서울특별시  봉천로 209,롯데쇼핑(주) 관악점,백화점,126.92216006717558,37.49053912268687
서울특별시 관악구 봉천동 951번지 25호   ,,봉일시장,그 밖의 대규모점포,126.93555635302005,37.485870014211045
서울특별시 관악구 봉천동 1629번지 2호,서울특별시 관악구 봉천로 576 (봉천동),(주)지에스리테일 낙성대점,구분없음,126.9583429708376,37.47694575231155
서울특별시 관악구 봉천동 1567번지 1호,서울특별시 관악구 쑥고개로 111 (봉천동),(주)지에스리테일 관악점,구분없음,126.94624805137848,37.4792423665853
서울특별시 관악구 봉천동 951번지 25호   ,,봉일시장,그 밖의 대규모점포,126.93555635302005,37.485870014211045
서울특별시 관악구 봉천동 502번지 4호,서울특별시 관악구 양녕로 49 (봉천동),봉천현대시장,시장,126.9436942339856,37.48662940626407
서울특별시 관악구 신림동 1426번지 7호,,가야쇼핑,시장,126.92723984361918,37.486953238290006
서울특별시 관악구 봉천동 31번지 1호,서울특별시 관악구 관악로 212 (봉천동),관악프라자,쇼핑센터,126.9522585310794,37.48361683535077
,서울특별시 송파구 오금로32길 32 (송파동),(주)지에스리테일 송파2점,구분없음,127.11588645409807,37.50358315551451
서울특별시 관악구 봉천동 1000호,서울특별시 관악구 관악로40길 47 (봉천동),관악현대상가,그 밖의 대규모점포,126.95558328542832,37.49226628775629
서울특별시 관악구 신림동 1694호,서울특별시 관악구 신림로29길 8 (신림동),신림현대종합상가,시장,126.9295926131653,37.47510246261576
서울특별시 관악구 신림동 1422번지 5호,서울특별시 관악구 신림로 340 (신림동),르네상스쇼핑몰(주),복합쇼핑몰,126.927196784873,37.484768788293245
서울특별시 관악구 봉천동 862번지 1호,서울특별시 관악구 남부순환로 1820 (봉천동),라붐아울렛,복합쇼핑몰,126.94931727296684,37.48102571383148
   호   ,,관악종합시장,그 밖의 대규모점포,,
서울특별시 관악구 봉천동 952-1,"서울특별시 관악구 국회단지길 7, 1층 (봉천동)",GS THE FRESH 관악은천점,구분없음,126.93631967528827,37.48665378196532
서울특별시 관악구 신림동 1422번지 5호   ,,르네상스쇼핑몰(주),쇼핑센터,126.927196784873,37.484768788293245
서울특별시 관악구 신림동 1422번지 5호   ,,르네상스쇼핑몰(주),쇼핑센터,126.927196784873,37.484768788293245
서울특별시 관악구 신림동 1602번지 2호   ,,관악종합시장,그 밖의 대규모점포,126.92531783373612,37.48146903371405
서울특별시 관악구 대학동 240번지 4호,서울특별시 관악구 신림로 101 (신림동),홈플러스 익스프레스 신림점,구분없음,126.93524407664404,37.47035544323867
서울특별시 관악구 남현동 1078번지 2호,서울특별시 관악구 남현길 79 (남현동),롯데쇼핑(주)롯데슈퍼 남현2점,구분없음,126.97291598272471,37.47326211575189
서울특별시 관악구 신림동 505-1,,신림종합시장,그 밖의 대규모점포,126.91420085223191,37.484650678115415
서울특별시 관악구 신림동 240-3,,GS THE FRESH 관악신림점,구분없음,126.9357062730274,37.47022491956046
서울특별시 서초구 잠원동 70번지 2호,서울특별시 서초구 잠원로 51 (잠원동),뉴코아아울렛,전문점,127.0044200384162,37.50939763598007
서울특별시 서초구 방배본동 755번지 5호,서울특별시 서초구 방배중앙로 198 (방배동),롯데쇼핑(주)롯데슈퍼 방배점,전문점,126.98275225865927,37.49690594716431
서울특별시 서초구 반포동 1141번지,서울특별시 서초구 신반포로 23 (반포동),엘루체,그 밖의 대규모점포,126.98423467216512,37.50174539419189
서울특별시 서초구 서초2동 1332번지 2호,서울특별시 서초구 사임당로 151 (서초동),무지개쇼핑,그 밖의 대규모점포,127.02295706559242,37.49236753532716
서울특별시 서초구 방배1동 816번지 1호,서울특별시 방배로33길 29,롯데슈퍼 방배2점,그 밖의 대규모점포,126.98641425506258,37.49126848946981
서울특별시 서초구 잠원동 70번지 5호 뉴코아백화점빌딩,"서울특별시 서초구 잠원로 37-6 (잠원동, 뉴코아백화점빌딩)",뉴코아백화점,백화점,127.00206043088538,37.50908927240978
,서울특별시 서초구 효령로 304 (서초동),국제전자도매센타,전문점,127.01487743529134,37.48474239124853
,서울특별시 서초구 신반포로3길 8 (반포동),반포프라자,그 밖의 대규모점포,126.98405733712173,37.50210264214761
,서울특별시 서초구 사임당로 130 (서초동),신동아종합상가,그 밖의 대규모점포,127.02164100323108,37.49044478961368
,서울특별시 서초구 방배천로16길 18 (방배동),방배종합시장,그 밖의 대규모점포,126.98085802695724,37.48198236278631
,서울특별시 서초구 신반포로15길 29 (반포동),신반포종합시장,그 밖의 대규모점포,126.99166132153982,37.50542104093957
,서울특별시 서초구 나루터로 37 (잠원동),신사쇼핑,그 밖의 대규모점포,127.01181911591782,37.51615957124549
,서울특별시 서초구 서초중앙로22길 25 (서초동),대림서초리시온,그 밖의 대규모점포,127.01255021173276,37.493472947620944
서울특별시 강동구 천호동 422번지 1호   ,,동서울시장,그 밖의 대규모점포,127.12515425604336,37.542652412872776
,서울특별시 서초구 서초중앙로 188 (서초동),아크로비스타 아케이드,그 밖의 대규모점포,127.01042433418188,37.49819930135566
,서울특별시 서초구 매헌로 16 (양재동),하이브랜드,그 밖의 대규모점포,127.0341233654835,37.46339529692584
,서울특별시 서초구 강남대로 465 (서초동),교보타워 지하아케이드,전문점,127.02118094063434,37.50377582178518
,서울특별시 서초구 방배로33길 29 (방배동),이수시장,그 밖의 대규모점포,126.98641425506258,37.49126848946981
,서울특별시 서초구 양재대로 159 (양재동),코스트코코리아,대형마트,127.03320846102696,37.46202663919294
"서울특별시 서초구 서초동 1498-5 마제스타시티, 힐스테이트 서리풀","서울특별시 서초구 서초대로38길 12 (서초동, 마제스타시티, 힐스테이트 서리풀)",롯데쇼핑(주) 롯데마트 서초점,대형마트,127.00287399682767,37.4903215121989
,서울특별시 서초구 신반포로3길 8 (반포동),반포프라자,그 밖의 대규모점포,126.98405733712173,37.50210264214761
서울특별시 서초구 서초동 1335번지,"서울특별시 서초구 효령로 391 (서초동, 무지개아파트)",무지개종합상가,그 밖의 대규모점포,127.02328761905768,37.48908748767109
서울특별시 서초구 반포동 19번지 4   호,서울특별시 서초구 신반포로 194 (반포동),터미널상가,그 밖의 대규모점포,127.00417245550028,37.50551855046981
,서울특별시 서초구 잠원로 69 (잠원동),(주)이랜드킴스클럽 강남점,대형마트,127.00399278319182,37.51024251071732
서울특별시 서초구 양재동 215호 하이브랜드 지하1층,"서울특별시 서초구 매헌로 16 (양재동,하이브랜드 지하1층)",(주)이마트 양재점,대형마트,127.0341233654835,37.46339529692584
,서울특별시 서초구 나루터로 32 (잠원동),대림상가,그 밖의 대규모점포,,
,서울특별시 서초구 고무래로 90-7 (서초동),서초쇼핑,그 밖의 대규모점포,127.01455273008992,37.49994855610103
,서울특별시 서초구 서초중앙로 220 (반포동),한양스토아,그 밖의 대규모점포,127.01034532371652,37.50160027192885
서울특별시 서초구 반포동 19번지 3호,서울특별시 서초구 신반포로 176 (반포동),신세계백화점 강남점,구분없음,127.00073092406278,37.50436408414911
서울특별시 서초구 반포1동 705번지,서울특별시 서초구 신반포로 326 (반포동),홈플러스(주) 익스프레스 서울논현역점,복합쇼핑몰,127.01665975689863,37.51029605750676
서울특별시 서초구 잠원동 60번지 3호,"서울특별시 서초구 잠원로4길 54 (잠원동, 매일종합상가)",매일종합상가,그 밖의 대규모점포,127.00948593461928,37.5116536981798
,서울특별시 서초구 서초대로 385 (서초동),진흥종합상가,그 밖의 대규모점포,127.01972406142131,37.49734561310854
서울특별시 서초구 방배동 950번지 1호,서울특별시 서초구 서초대로 34 (방배동),홈플러스익스프레스 방배점,복합쇼핑몰,126.9833040540061,37.48558640241002
서울특별시 서초구 방배동 795번지 1호,"서울특별시 서초구 방배로37길 11, 1층 (방배동, 삼호회관)",(주)지에스리테일 서초방배점,대형마트,126.98625651834408,37.49352150425662
서울특별시 송파구 잠실동 40번지 1호,서울특별시 송파구 올림픽로 240 (잠실동),롯데백화점 잠실점,백화점,127.0950490201458,37.51128661020394
서울특별시 강남구 신사동 638-6,"서울특별시 강남구 압구정로 312, 1층 (신사동)",GS THE FRESH 압구정점,구분없음,127.0326234736732,37.52875737587196
서울특별시 강남구 신사동 510-11 강남상가아파트,"서울특별시 강남구 압구정로2길 46, 1층 (신사동, ---------)",이마트에브리데이 강남시장점,구분없음,127.017778587931,37.518771599991545
서울특별시 강남구 논현동 164번지 5호 외 3필지,,삐에로쇼핑 강남논현점,구분없음,127.0204540515026,37.50804406969012
서울특별시 강남구 도곡동 518-8 유진빌딩,"서울특별시 강남구 논현로28길 9, 유진빌딩 (도곡동)",홈플러스익스프레스 도곡2점,구분없음,127.04046438581284,37.48275980994232
서울특별시 강남구 압구정동 454호,서울특별시 강남구 압구정로29길 72-1 (압구정동),신사상가,그 밖의 대규모점포,127.02550757303428,37.53228554564453
서울특별시 강남구 압구정동 515호,"서울특별시 강남구 압구정로 407 (압구정동, 갤러리아백화점)",갤러리아백화점(동관),백화점,127.03867930420202,37.52808056408535
서울특별시 강남구 청담동 134번지 20호,서울특별시 강남구 학동로101길 26 (청담동),청담삼익시장,그 밖의 대규모점포,127.05484588858796,37.52230499206427
서울특별시 강남구 대치동 500호,"서울특별시 강남구 남부순환로 2912 (대치동, 개포우성아파트)",그랑프리,그 밖의 대규모점포,127.0543506990239,37.49083917890377
서울특별시 강남구 대치동 626호,서울특별시 강남구 남부순환로 2917 (대치동),청실종합상가,그 밖의 대규모점포,127.05618639334672,37.493148512379896
서울특별시 강남구 대치동 977번지 12  호,서울특별시 강남구 삼성로64길 41 (대치동),대치종합상가,그 밖의 대규모점포,127.06075585904853,37.50100378644351
서울특별시 강남구 개포동 12호,"서울특별시 강남구 개포로109길 5 (개포동, 대청아파트)",대치1단지상가,그 밖의 대규모점포,127.07232537748106,37.494184793318446
서울특별시 강남구 개포동 12호,"서울특별시 강남구 개포로109길 21 (개포동, 대청아파트)",대치2단지상가,그 밖의 대규모점포,127.07232537748106,37.494184793318446
서울특별시 강남구 대치동 937호,서울특별시 강남구 도곡로 401 (대치동),롯데백화점(강남점),백화점,127.0507037361302,37.497058146078736
,서울특별시 강남구 테헤란로87길 22-0 (삼성동),도심공항몰(CALT MALL),쇼핑센터,127.0563836188615,37.50959122952918
,"서울특별시 강남구 강남대로 432 (역삼동, 점프밀라노)",점프밀라노,그 밖의 대규모점포,127.0235892454049,37.50126798207996
,"서울특별시 강남구 삼성로 633, 1층 (삼성동, 삼광빌딩)",노브랜드 삼성점,구분없음,127.04829784345324,37.5164530556148
서울특별시 강남구 삼성1동 159번지 8호 그랜드인터콘티넨탈호텔(지하1층),서울특별시 강남구 테헤란로 521 (삼성동),파르나스몰(PARNAS MALL),쇼핑센터,127.05800282759331,37.50904778291388
서울특별시 강남구 삼성동 159호,서울특별시 강남구 봉은사로 524 (삼성동),코엑스 호텔아케이드,쇼핑센터,127.0559292832903,37.51252113701132
서울특별시 강남구 삼성동 159번지 1호 외,서울특별시 강남구 영동대로 513 (삼성동),코엑스 몰,복합쇼핑몰,127.05830329817982,37.51039788212744
서울특별시 강남구 압구정1동 456번지,서울특별시 압구정로 201 (구현대아파트),금강상가,그 밖의 대규모점포,127.02601456006106,37.52993389883703
서울특별시 강남구 대치동 623번지,서울특별시 강남구 남부순환로 2921 (대치동),남서울종합시장,그 밖의 대규모점포,127.05680991222944,37.49360623635136
서울특별시 강남구 역삼동 755번지,서울특별시 강남구 역삼로 310 (역삼동),(주)이마트 역삼점,대형마트,127.04554957427716,37.4992173604236
서울특별시 강남구 논현2동 108번지,서울특별시 강남구 학동로43길 38 (논현동),논현웰스톤상가,그 밖의 대규모점포,127.03513977915703,37.51845267486895
"서울특별시 강남구 도곡2동 467번지 7호 아카데미스위트 에이동B101,B102,B201","서울특별시 강남구 남부순환로 2804 (도곡동, 아카데미스위트)",아카데미프라자,그 밖의 대규모점포,127.04921217075392,37.48867257938049
서울특별시 강남구 삼성2동 121번지 38호,서울특별시 강남구 삼성로103길 12 (삼성동),삼성동 신도브래뉴 주상복합 상가,그 밖의 대규모점포,127.05051582852565,37.51038897479474
서울특별시 강남구 청담동 4번지 1호 외 9필지,서울특별시 강남구 도산대로 442 (청담동),SSG Food Market 백화점,백화점,127.04076762973791,37.523393813425066
서울특별시 강남구 논현1동 140번지 외 44필지,"서울특별시 강남구 강남대로124길 22, 3층 301호 (논현동)",영동전통시장,그 밖의 대규모점포,127.02078377303586,37.50994546597568
,서울특별시 강남구 학동로4길 15 (논현동),동화상가(주),그 밖의 대규모점포,127.02063255749512,37.5105330871755
,서울특별시 강남구 학동로 176 (논현동),홈플러스익스프레스 학동역점,구분없음,127.02730123760708,37.51352424721502
서울특별시 강남구 대치동 511번지 한보미도맨션,"서울특별시 강남구 삼성로 150 (대치동, 한보미도맨션)",한보종합상가,그 밖의 대규모점포,127.06445997119874,37.49339313964161
서울특별시 강남구 역삼동 755번지,서울특별시 강남구 역삼로 310 (역삼동),한솔필리아,그 밖의 대규모점포,127.04554957427716,37.4992173604236
서울특별시 강남구 신사동 510번지 11호,서울특별시 강남구 압구정로2길 46 (신사동),강남시장,복합쇼핑몰,127.017778587931,37.518771599991545
서울특별시 강남구 논현동 227번지 4호,서울특별시 강남구 봉은사로33길 33 (논현동),논현종합시장,그 밖의 대규모점포,127.03188711423972,37.51001849171442
서울특별시 강남구 논현동 105번지 7호,"서울특별시 강남구 언주로 726 (논현동, 두산빌딩)",두산아케이드,그 밖의 대규모점포,127.03240803387646,37.51907519734994
서울특별시 강남구 일원동 711번지 1호,"서울특별시 강남구 양재대로55길 6 (일원동, 도시개발아파트)",수서1-2단지상가,그 밖의 대규모점포,127.08551511233682,37.49133726416906
서울특별시 강남구 역삼동 826번지 14호   ,,진솔물산,그 밖의 대규모점포,127.02681352514342,37.49503902504843
서울특별시 강남구 압구정동 429번지,"서울특별시 강남구 압구정로 165 (압구정동, 현대백화점본점)",(주)현대백화점 본점,백화점,127.024580017857,37.527334271863744
서울특별시 강남구 삼성동 159번지 7호,"서울특별시 강남구 테헤란로 517 (삼성동, 무역센터현대백화점)",현대백화점 무역센터점,백화점,127.0568284614639,37.5085952823213
서울특별시 강남구 압구정동 494호,"서울특별시 강남구 압구정로 343 (압구정동, 갤러리아백화점)",갤러리아백화점(서관),백화점,127.03716457720998,37.52856181218268
서울특별시 강남구 신사동 660번지 18호,서울특별시 강남구 압구정로46길 5-2 (신사동),홈플러스 익스프레스 압구정점,구분없음,127.03400126891368,37.52805215269098
서울특별시 강남구 압구정동 456호   ,,금강상가,그 밖의 대규모점포,127.02601456006106,37.52993389883703
서울특별시 강남구 역삼동 755호 한솔필리아지층  ,,(주)신세계마트 이마트 역삼점,대형마트,127.04554957427716,37.4992173604236
서울특별시 강남구 압구정동 456호   ,,(주)현대백화점 동호스토아,백화점,127.02601456006106,37.52993389883703
"서울특별시 강남구 대치동 623,624호   ",,남서울종합상가,그 밖의 대규모점포,,
서울특별시 강남구 압구정동 456호   ,,(주)금강개발산업,그 밖의 대규모점포,127.02601456006106,37.52993389883703
서울특별시 강남구 청담동 122호,서울특별시 강남구 도산대로85길 30 (청담동),청담제일시장,그 밖의 대규모점포,127.04677697686272,37.526432646485645
서울특별시 강남구 삼성동 122번지 8 호,서울특별시 강남구 봉은사로72길 39 (삼성동),삼성종합시장,시장,127.04972371723564,37.51001659488112
,"서울특별시 강남구 압구정로18길 25 (신사동, 한국산업양행빌딩)",GS THE FRESH 신사점,구분없음,127.02241244670007,37.52350658041122
서울특별시 강남구 역삼1동 796번지 29호,서울특별시 강남구 논현로63길 16 (역삼동),역삼서해더블루,그 밖의 대규모점포,127.03622713629572,37.4930015574722
,서울특별시 강남구 논현로 468 (역삼동),롯데쇼핑(주)롯데슈퍼 역삼점,,,
,서울특별시 강남구 도산대로35길 39 (신사동),롯데슈퍼 압구정점,구분없음,127.02745433411238,37.5234933657063
서울특별시 강남구 논현동 122번지 8호,서울특별시 강남구 학동로4길 15 (논현동),영동시장,그 밖의 대규모점포,127.02063255749512,37.5105330871755
서울특별시 강남구 개포동 13번지 3 호,,미씨-860,그 밖의 대규모점포,127.07672585112353,37.49434793392861
서울특별시 강남구 도곡동 464호,,(주)재능스스로마트,그 밖의 대규모점포,127.04600702578264,37.486889874472105
,"서울특별시 강남구 학동로43길 38, 지하2층 (논현동, 논현웰스톤)",(주)지에스리테일 논현점,구분없음,127.03513977915703,37.51845267486895
서울특별시 강남구 일원동 647호,,일원마트,그 밖의 대규모점포,127.0839959966162,37.49184371018031
서울특별시 강남구 역삼동 676 센터필드,"서울특별시 강남구 테헤란로 231, 센터필드 (역삼동)",더 샵스 앳 센터필드 (THE SHOPS AT CENTERFIELD),그 밖의 대규모점포,127.0386015657005,37.503211646044605
서울특별시 송파구 신천동 29번지 롯데월드타워앤드롯데월드몰,"서울특별시 송파구 올림픽로 300, 롯데월드타워앤드롯데월드몰 (신천동)",롯데쇼핑(주) 롯데마트 월드타워점,대형마트,127.10054319254532,37.51310115736578
서울특별시 강남구 청담동 109-16 청담범신칼릭스빌2차,"서울특별시 강남구 도산대로89길 35, 지상1층 107, 108호 (청담동, 청담범신칼릭스빌2차)",GS THE FRESH 청담점,대형마트,127.0488557508893,37.52673210753177
서울특별시 송파구 신천동 29번지,서울특별시 송파구 올림픽로 300-0 (신천동),롯데하이마트 월드타워점,전문점,127.10054319254532,37.51310115736578
,서울특별시 송파구 올림픽로 203 (잠실동),(주)지에스리테일 잠실점,구분없음,127.09050659584084,37.51249589507681
서울특별시 송파구 신천동 29번지,서울특별시 송파구 올림픽로 300 (신천동),롯데월드몰,쇼핑센터,127.10054319254532,37.51310115736578
서울특별시 송파구 신천동 29번지,,롯데백화점 에비뉴엘 월드타워점,백화점,127.10054319254532,37.51310115736578
서울특별시 강동구 천호동 563호   ,,동아코아,쇼핑센터,127.12299203254936,37.54127075136027
서울특별시 송파구 문정동 55-6 문정역 마에스트로,"서울특별시 송파구 문정로 1, 지층 B104호-B107호 (문정동, 문정역 마에스트로)",GS THE FRESH 문정역점,구분없음,127.12016500233074,37.48635332428777
서울특별시 송파구 마천동 140번지 2호,서울특별시 송파구 마천로45길 23 (마천동),마천시장,그 밖의 대규모점포,127.14770592269842,37.498299558502765
서울특별시 송파구 잠실동 101번지 1호,서울특별시 송파구 올림픽로4길 40 (잠실동),프리마 쇼핑센타,그 밖의 대규모점포,127.07025185246992,37.50686530367368
서울특별시 송파구 잠실4동 44번지 1호,서울특별시 송파구 석촌호수로 133 (잠실동),홈플러스(주)익스프레스 잠실점,구분없음,127.08889024675165,37.50767403477804
,서울특별시 송파구 가락로28길 7 (송파동),홈플러스(주) 익스프레스 송파점,구분없음,127.11385711440876,37.506389991767584
서울특별시 송파구 석촌동 277번지 2호,서울특별시 송파구 가락로 103 (석촌동),엄마손상가,그 밖의 대규모점포,127.10466456495708,37.50148985905217
서울특별시 송파구 문정동 292번지 외 29필지,서울특별시 송파구 충민로 10 (문정동),가든파이브 툴,쇼핑센터,127.11638509603344,37.47862640669859
서울특별시 송파구 문정동 516번지,서울특별시 송파구 충민로 66 (문정동),가든파이브 라이프,그 밖의 대규모점포,127.12210616263066,37.47764865858779
서울특별시 송파구 마천동 181호,서울특별시 송파구 마천로 315 (마천동),송파쇼핑센타,그 밖의 대규모점포,127.14806820227392,37.495182676570366
서울특별시 송파구 잠실동 27번지 6호,서울특별시 송파구 올림픽로 203 (잠실동),잠실중앙상가,그 밖의 대규모점포,127.09050659584084,37.51249589507681
서울특별시 송파구 오금동 615번지  올림픽파크동부센트레빌 상가,서울특별시 송파구 양재대로72길 5 (오금동),올림픽파크동부센트레빌 상가,그 밖의 대규모점포,127.12476721107092,37.51016162958282
서울특별시 송파구 송파1동 121번지,서울특별시 송파구 가락로 183 (송파동),한화 송파지점,그 밖의 대규모점포,127.11164976629462,37.50506820039452
서울특별시 송파구 가락2동 140번지,서울특별시 송파구 동남로 189 (가락동),쌍용프라자 상가,그 밖의 대규모점포,127.12522783123327,37.495542909720015
서울특별시 송파구 신천동 7번지 18호,서울특별시 송파구 올림픽로 269 (신천동),롯데캐슬플라자,쇼핑센터,127.0978449860975,37.51445421068647
서울특별시 송파구 신천동 7번지 12  호,서울특별시 송파구 올림픽로35가길 16 (신천동),홈플러스(주)잠실점,대형마트,127.10014307157184,37.516256407274994
서울특별시 송파구 잠실3동 40번지 1호 롯데월드,서울특별시 송파구 올림픽로 240 (잠실동),롯데하이마트잠실점,전문점,127.0950490201458,37.51128661020394
서울특별시 송파구 방이동 89번지 11호 프라자상가,서울특별시 송파구 양재대로 1222 (방이동),올림픽프라자상가,그 밖의 대규모점포,127.12932800768446,37.51582603869264
,"서울특별시 송파구 오금로31가길 20 (방이동, 대림아파트)",(주)지에스리테일 방이점,구분없음,127.12127912505898,37.50754131678696
서울특별시 송파구 잠실동 40번지 1호,서울특별시 송파구 올림픽로 240 (잠실동),롯데쇼핑(주)롯데마트 제타플렉스 잠실점,대형마트,127.0950490201458,37.51128661020394
서울특별시 송파구 잠실동 40호,서울특별시 송파구 올림픽로 212 (잠실동),갤러리아팰리스 아케이드,그 밖의 대규모점포,127.09102860715149,37.5111038000225
서울특별시 송파구 거여2동 27번지 5호 B101호,서울특별시 오금로 512,홈플러스(주)익스프레스 거여점,구분없음,127.14264590200564,37.49268985093888
서울특별시 송파구 석촌동 235번지 17호,서울특별시 송파구 백제고분로34길 3 (석촌동),롯데쇼핑(주)롯데슈퍼석촌점,구분없음,127.09601499124226,37.50218709032996
서울특별시 송파구 오금동 615번지,서울특별시 송파구 양재대로72길 5 (오금동),농협하나로마트방이역점,구분없음,127.12476721107092,37.51016162958282
서울특별시 송파구 석촌동 5-8,서울특별시 송파구 백제고분로33길 25 (석촌동),GS THE FRESH 송파석촌호수점,구분없음,127.09571381481192,37.50508302757113
서울특별시 송파구 가락동 88번지 2호,서울특별시 송파구 중대로9길 35 (가락동),(주)이마트에브리데이 가락동점,구분없음,127.1154084555041,37.49631278326434
서울특별시 송파구 문정동 618 파크하비오,"서울특별시 송파구 송파대로 111, 하비오길동 제1층 호텔로 202동 (문정동, 파크하비오)",GS THE FRESH 송파하비오점,구분없음,127.120776211014,37.48060473499757
서울특별시 송파구 풍납동 163번지,서울특별시 송파구  올림픽로51길  52 (풍납동),홈플러스(주)익스프레스 풍납점,구분없음,127.11532333599853,37.53343405545063
서울특별시 송파구 삼전동 9번지 제이 플레이스,"서울특별시 송파구 백제고분로 207 (삼전동, 제이 플레이스)",홈플러스 익스프레스 삼전역점,복합쇼핑몰,127.08696759867831,37.504235256014816
서울특별시 송파구 가락동 479 헬리오시티,"서울특별시 송파구 송파대로 345 (가락동, 헬리오시티)",이마트에브리데이 송파점,구분없음,127.10433633410388,37.49751934168874
서울특별시 송파구 신천동 7번지 17호   ,서울특별시 송파구 송파대로 562 (신천동),주-한화유통,그 밖의 대규모점포,127.09665215573816,37.51533185922298
,서울특별시 송파구 석촌호수로 156 (삼전동),(주)지에스리테일 삼전점,구분없음,127.09138411011855,37.50679860880455
"서울특별시 송파구 송파2동 121번지 한양2차아파트 1층 6,7호호","서울특별시 송파구 가락로 183, 1층 6,7호 (송파동)",롯데쇼핑(주)롯데슈퍼송파점,구분없음,127.11164976629462,37.50506820039452
,"서울특별시 송파구 법원로 55, 상가D동 401외 5호 (문정동, 송파아이파크)",노브랜드 문정점,구분없음,127.11885813679878,37.47986827160263
,서울특별시 송파구 송파대로 111-0 (문정동),롯데프리미엄푸드마켓 문정점,구분없음,127.120776211014,37.48060473499757
서울특별시 송파구 신천동 29번지,서울특별시 송파구 올림픽로 300 (신천동),롯데면세점 월드타워점,전문점,127.10054319254532,37.51310115736578
서울특별시 송파구 오금동 1번지 11호,,석우종합시장,그 밖의 대규모점포,,
서울특별시 송파구 신천동 7번지,서울특별시 송파구 올림픽로35길 124 (신천동),장미종합상가,그 밖의 대규모점포,127.0963904851533,37.518884947913484
서울특별시 송파구 문정동 112호,서울특별시 송파구 새말로 176 (문정동),주-화신유통,,127.12942352295364,37.48567851461512
서울특별시 송파구 거여2동 37번지 3호,서울특별시 송파구 오금로 507 (거여동),롯데쇼핑(주)롯데슈퍼거여점,구분없음,127.14229234692908,37.49325855694591
,서울특별시 송파구 새말로 136 (문정동),(주)지에스리테일 문정점,구분없음,127.12622651094168,37.48307870230081
,서울특별시 송파구 백제고분로 387 (송파동),홈플러스익스프레스 송파2점,구분없음,127.10559574675972,37.506504009793794
서울특별시 송파구 가락동 78호,서울특별시 송파구 중대로 135 (가락동),가락동포스코주상복합상가,그 밖의 대규모점포,127.1195527876793,37.495109649018666
서울특별시 송파구 잠실동 40호,서울특별시 송파구 올림픽로 212 (잠실동),갤러리아 잠실점,그 밖의 대규모점포,127.09102860715149,37.5111038000225
서울특별시 송파구 삼전동 9번지 19호,서울특별시 송파구 백제고분로 207 (삼전동),홈플러스(주)익스프레스 삼전점,구분없음,127.0868933007379,37.504090802915314
서울특별시 송파구 잠실3동,서울특별시 송파구 올림픽로 203 (잠실동),(유)잠실중앙상가,그 밖의 대규모점포,127.09050659584084,37.51249589507681
서울특별시 송파구 가락동 191-5,서울특별시 송파구 동남로20길 24 (가락동),롯데프레시송파가락가맹점,구분없음,127.13158495774242,37.49541011818746
서울특별시 강동구 고덕동 217번지 고덕그라시움아파트(상가1동),"서울특별시 강동구 고덕로 353, 고덕그라시움아파트(상가1동) 지하1층 108-119,128호 (고덕동)",지에스 더프레시(GS THE FRESH) 고덕그라시움점,구분없음,127.1597357783208,37.55790598963783
서울특별시 강동구 천호동 423-200,,강동밀레니얼 중흥S-클래스 쇼핑센터,쇼핑센터,127.1240709323899,37.54143582319678
서울특별시 강동구 성내동 428번지 2호,서울특별시 강동구 양재대로89길 16 (성내동),파크프라자 상가,그 밖의 대규모점포,127.13182474628756,37.5269261364742
서울특별시 강동구 천호동 454번지 1호,서울특별시 강동구 천호대로 1017 (천호동),(주)이마트천호점,대형마트,127.12265319534268,37.53864464166613
서울특별시 강동구 천호동 422번지 2호,,천호신시장,시장,127.12522448263636,37.5415990557424
서울특별시 강동구 천호동 563번지,서울특별시 강동구 구천면로 189 (천호동),이천일아울렛 천호점,그 밖의 대규모점포,127.12299203254936,37.54127075136027
서울특별시 강동구 성내동 25번지 1호,서울특별시 강동구 천호대로162길 34 (성내동),이안강동주상복합상가,그 밖의 대규모점포,127.12505499398716,37.53553733501896
서울특별시 강동구 길동 414번지 10호,서울특별시 강동구 진황도로 99 (길동),강동한신휴플러스,그 밖의 대규모점포,127.13458657064017,37.53605408861029
서울특별시 강동구 천호동 42번지,서울특별시 강동구 양재대로 1571 (천호동),홈플러스 강동점,대형마트,127.13936069137564,37.545717810039456
서울특별시 강동구 길동 339번지 1호,서울특별시 강동구 양재대로124길 32 (길동),동서울오네뜨상가,그 밖의 대규모점포,127.14075254562476,37.54261223711797
서울특별시 강동구 명일1동 312번지 99호,서울특별시 강동구 양재대로 1630 (명일동),(주)지에스리테일 명일점,구분없음,127.14134940107186,37.55137879063681
서울특별시 강동구 천호동 455번지 8호,"서울특별시 강동구 천호대로 1005 (천호동, 현대백화점)",현대백화점 천호점,백화점,127.12156755101074,37.53902615391662
서울특별시 강동구 명일동 46번지 4 호,서울특별시 강동구 고덕로 276 (명일동),(주)이마트명일점,그 밖의 대규모점포,127.1529525078341,37.5546728055704
서울특별시 강동구 길동 384번지 1호,서울특별시 강동구 성안로 176 (길동),롯데쇼핑㈜롯데슈퍼길동점,구분없음,127.1334840585332,37.5385309583343
서울특별시 강동구 명일동 48번지,서울특별시 강동구  고덕로62길  55 (명일동),주양쇼핑,그 밖의 대규모점포,127.1506058270846,37.55252019874318
서울특별시 강동구 암사1동 473번지 3호,서울특별시 강동구 고덕로24길 50 (암사동),홈플러스(주) 익스프레스 암사점,구분없음,127.1322082806058,37.55237583187474
서울특별시 강동구 성내1동 521번지,서울특별시 강동구 풍성로 138 (성내동),홈플러스(주) 익스프레스 성내점,구분없음,127.12444623152923,37.53121552667732
서울특별시 강동구 명일동 15 삼익그린맨션,"서울특별시 강동구 명일로 375, 삼익그린맨션 지하1층 (명일동)",(주)이마트에브리데이 명일동점,구분없음,127.14556894244788,37.553294743693655
서울특별시 강동구 길동 391번지 2호,서울특별시 강동구 양재대로 1486 (길동),홈플러스(주)익스프레스 길동점,구분없음,127.13762709982149,37.53836592667915
서울특별시 강동구 성내1동 451번지,서울특별시 강동구 올림픽로 528 (성내동),(주)농협유통 하나로마트 성내점,구분없음,127.1174435824976,37.528806112348015
서울특별시 강동구 천호동 563호   ,,동아코아,쇼핑센터,127.12299203254936,37.54127075136027
서울특별시 강동구 천호동 422번지 2호   ,,천호신시장,그 밖의 대규모점포,127.12522448263636,37.5415990557424
서울특별시 강동구 명일동 52번지 5호   ,,신세계이마트천호점,그 밖의 대규모점포,,
서울특별시 강동구 천호동 422번지 2호   ,,천호신시장,그 밖의 대규모점포,127.12522448263636,37.5415990557424
서울특별시 강동구 천호동 563호   ,,이천일아울렛 천호점,그 밖의 대규모점포,127.12299203254936,37.54127075136027
서울특별시 강동구 천호동 410번지 105호   ,,현대프라자,그 밖의 대규모점포,127.1261644905216,37.53919596127496
서울특별시 강동구 천호동 565호   ,,킴스클럽,대형마트,127.13085135548002,37.53599983462257
서울특별시 강동구 천호동 454번지 0001호   ,,이마트천호점,대형마트,127.12265319534268,37.53864464166613
서울특별시 강동구 성내동 595번지 코오롱 2차아파트,"서울특별시 강동구 올림픽로 572, 상가동 1층 101,102호 (성내동, 코오롱 2차아파트)",이마트에브리데이 성내점,구분없음,127.11889893645689,37.53252895612644
서울특별시 강동구 둔촌1동 172번지 1호,서울특별시 강동구 양재대로 1330 (둔촌동),(주)지에스리테일 둔촌점,구분없음,127.13341748285436,37.524554507286695
서울특별시 강동구 명일동 48번지 지하1층,"서울특별시 강동구 고덕로62길 55, 지하1층 (명일동)",(주)지에스리테일 주양점,구분없음,127.1506058270846,37.55252019874318
서울특별시 강동구 천호동 421번지 1호,서울특별시 강동구 구천면로 205 (천호동),천호시장,그 밖의 대규모점포,127.12458320326576,37.5406938214179
서울특별시 강동구 천호동 410번지 105호,서울특별시 강동구 진황도로 18 (천호동),현대프라자,그 밖의 대규모점포,127.1261644905216,37.53919596127496
서울특별시 강동구 둔촌동 172번지 1호,서울특별시 강동구 양재대로 1330 (둔촌동),둔촌종합상가,그 밖의 대규모점포,127.13341748285436,37.524554507286695
서울특별시 강동구 둔촌1동 444번지,서울특별시 강동구 풍성로63길 84 (둔촌동),롯데쇼핑(주)롯데슈퍼둔촌점,대형마트,127.13744874610444,37.53172365330039
,서울특별시 강동구 고덕로 99 (암사동),(주)이마트에브리데이 암사동점,구분없음,127.13336585463314,37.5549712096275
서울특별시 강동구 천호동 422번지 1호,서울특별시 강동구 올림픽로80길 58 (천호동),동서울시장,시장,127.12515425604336,37.542652412872776
서울특별시 강동구 암사1동 488번지 21호,서울특별시 강동구 구천면로 317 (암사동),(주)지에스리테일 암사점,구분없음,127.13206732011363,37.54805398719325
서울특별시 강동구 암사1동 461번지 외6필지,,롯데슈퍼암사가맹점,대형마트,127.12766999168372,37.55457858389074
서울특별시 강동구 둔촌동 172번지 1호 둔촌종합상가 지하1층,"서울특별시 강동구 양재대로 1330, 지하1층 (둔촌동, 둔촌종합상가)",(주)농협유통 하나로마트 둔촌점,구분없음,127.13341748285436,37.524554507286695
서울특별시 강동구 성내1동 164번지 1호,서울특별시 강동구 천호대로 1078 (성내동),롯데쇼핑㈜롯데슈퍼강동점,구분없음,127.12837839221288,37.53582198161284
서울특별시 강동구 천호동 42번지,,삼성테드크(주)홈플러스강동점,대형마트,127.13936069137564,37.545717810039456
서울특별시 강동구 고덕동 353-23,,고덕비즈밸리 유통판매 복합시설,복합쇼핑몰,127.15464080292084,37.56626062579157
서울특별시 강동구 성내동 293-12 바로빌딩,"서울특별시 강동구 풍성로38길 9, 바로빌딩 1층 (성내동)",GS THE FRESH 강동성내점,구분없음,127.12265940631366,37.531554104916886
서울특별시 강동구 천호동 410번지 100호,서울특별시 강동구 진황도로 12 (천호동),천호코오롱상가,그 밖의 대규모점포,127.12551781840396,37.53912480575602
서울특별시 강동구 명일동 46번지 4호   ,,신세계 이마트 명일점,대형마트,127.1529525078341,37.5546728055704
서울특별시 강동구 암사3동 451번지 16호,,양지종합시장,시장,127.13463283771569,37.55533226119739
서울특별시 강동구 둔촌동 451-1,,롯데슈퍼 강동둔촌점,구분없음,127.13934158505306,37.5314002563687
